country_code,postal_code,town,region,latitude,longitude
che,1000,Lausanne,VD,6.687041317179428,46.553487587436756
che,1003,Lausanne,VD,6.630033779760772,46.52000381984498
che,1004,Lausanne,VD,6.618677635496143,46.52848029958015
che,1005,Lausanne,VD,6.642500088546282,46.51985888864874
che,1006,Lausanne,VD,6.637110457506172,46.510849108635036
che,1007,Lausanne,VD,6.608606080885023,46.51775409543442
che,1008,"Jouxtens-Mézery,Prilly",VD,6.602728000505168,46.54359039106182
che,1009,Pully,VD,6.661971123280418,46.50918525073406
che,1010,Lausanne,VD,6.658920300465375,46.53614302589882
che,1011,Lausanne,VD,6.642880248331458,46.52563479526837
che,1012,Lausanne,VD,6.656931152471849,46.52634215108658
che,1015,Lausanne,VD,6.574089858272483,46.521484513629474
che,1018,Lausanne,VD,6.6286463771141095,46.538724909607886
che,1020,Renens (VD),VD,6.5906776493594075,46.53682667501045
che,1022,Chavannes-près-Renens,VD,6.576338446081508,46.535840143258845
che,1023,Crissier,VD,6.578758801563157,46.5561694321503
che,1024,Ecublens (VD),VD,6.562013835368448,46.52612832605237
che,1025,Saint-Sulpice (VD),VD,6.559956255555076,46.50903543638193
che,1026,"Echandens,Denges",VD,6.540687179627407,46.52809329350832
che,1027,Lonay,VD,6.520880751213883,46.52647745635817
che,1028,Préverenges,VD,6.526944990710733,46.518397530486034
che,1029,Villars-Sainte-Croix,VD,6.560629680859009,46.566485846797704
che,1030,Bussigny,VD,6.5510605060479445,46.55316478683512
che,1031,Mex (VD),VD,6.5522859648285205,46.577497984691064
che,1032,Romanel-sur-Lausanne,VD,6.606144558694388,46.563193991432314
che,1033,Cheseaux-sur-Lausanne,VD,6.605033984584372,46.58487508453617
che,1034,Boussens,VD,6.582774916323912,46.603745917133786
che,1035,Bournens,VD,6.563767637680041,46.60381147127098
che,1036,Sullens,VD,6.56705097929716,46.59429852651761
che,1037,Etagnières,VD,6.611946988769707,46.600095907043496
che,1038,Bercher,VD,6.70852198171488,46.69215500444518
che,1040,"Saint-Barthélemy (VD),Villars-le-Terroir,Echallens",VD,6.622624962254136,46.644195446288734
che,1041,"Jorat-Menthue,Montilliez,Poliez-Pittet,Bottens",VD,6.686365938569303,46.64041356626249
che,1042,"Bettens,Assens,Bioley-Orjulaz",VD,6.599122414060127,46.62005017664571
che,1043,Montilliez,VD,6.670908632694332,46.65545374852849
che,1044,Fey,VD,6.681244837165687,46.67608797388854
che,1045,Ogens,VD,6.722009773148148,46.711056633203896
che,1046,Rueyres,VD,6.6918961390710745,46.69344905502214
che,1047,Oppens,VD,6.692450926587544,46.71410600814456
che,1052,Le Mont-sur-Lausanne,VD,6.636118333231582,46.55679959062844
che,1053,"Cugy (VD),Bretigny-sur-Morrens",VD,6.6418415480897295,46.59101733019945
che,1054,Morrens (VD),VD,6.626637488215481,46.59118780583415
che,1055,Froideville,VD,6.68074188934409,46.60177608916332
che,1058,Jorat-Menthue,VD,6.704435509870496,46.62699109496191
che,1059,Jorat-Menthue,VD,6.727597250985782,46.63395689953683
che,1061,Jorat-Menthue,VD,6.729372117801289,46.647341508021384
che,1062,Jorat-Menthue,VD,6.742109765463202,46.65548539560639
che,1063,"Boulens,Montanaire",VD,6.728494835305463,46.669051884410194
che,1066,Epalinges,VD,6.673652602319469,46.54595132676624
che,1068,Pully,VD,6.683372827594051,46.5341717554536
che,1070,Puidoux,VD,6.7661303852732315,46.49386437593245
che,1071,"Saint-Saphorin (Lavaux),Rivaz,Chexbres",VD,6.784046712845625,46.47734134987201
che,1072,Forel (Lavaux),VD,6.7698421201311465,46.54116266857788
che,1073,Savigny,VD,6.7417213177077215,46.54720285526337
che,1076,Jorat-Mézières,VD,6.78568830433422,46.58897105110486
che,1077,Servion,VD,6.785343875652941,46.57808291232657
che,1078,Essertes,VD,6.789137077362502,46.5624393331088
che,1080,Servion,VD,6.751457519993697,46.573221935110595
che,1081,Montpreveyres,VD,6.7481855324934115,46.584239438411615
che,1082,Corcelles-le-Jorat,VD,6.741519196722334,46.6064819196153
che,1083,Jorat-Mézières,VD,6.771217164595201,46.59523305326477
che,1084,Jorat-Mézières,VD,6.775235965880082,46.60478365009318
che,1085,Vulliens,VD,6.796690770434455,46.621670011780175
che,1088,Ropraz,VD,6.751667476664912,46.61495678463018
che,1090,Lutry,VD,6.702699255525531,46.516663740611456
che,1091,Bourg-en-Lavaux,VD,6.718452162196939,46.49549326646365
che,1092,Belmont-sur-Lausanne,VD,6.6804205436925415,46.520116505133544
che,1093,Lutry,VD,6.686219098730866,46.51491487436157
che,1094,Paudex,VD,6.672349201540892,46.50595853918981
che,1095,Lutry,VD,6.686387690728702,46.502679140520144
che,1096,Bourg-en-Lavaux,VD,6.71997209666131,46.491221367611914
che,1097,Bourg-en-Lavaux,VD,6.735688848690609,46.49331454419541
che,1098,Bourg-en-Lavaux,VD,6.74819412655127,46.49112421766882
che,1110,Morges,VD,6.499991686202838,46.51073176642811
che,1112,Echichens,VD,6.498642496746171,46.52601637692037
che,1113,Echichens,VD,6.48755847092189,46.54558377933343
che,1114,Echichens,VD,6.4755343281488935,46.556560635287504
che,1115,Vullierens,VD,6.4812202269670145,46.57418692232939
che,1116,Cottens (VD),VD,6.454462946431607,46.57259186764514
che,1117,Grancy,VD,6.4641613425320585,46.59172198443532
che,1121,Bremblens,VD,6.5177066586130925,46.546688986033665
che,1122,Romanel-sur-Morges,VD,6.511647591810883,46.555564444647224
che,1123,Aclens,VD,6.5098430906401825,46.56765545128199
che,1124,Gollion,VD,6.508397736935718,46.58524040908586
che,1125,Echichens,VD,6.478958009758358,46.52848931223699
che,1126,Vaux-sur-Morges,VD,6.466329139688102,46.5365407049645
che,1127,Clarmont,VD,6.450289096058973,46.547262682775134
che,1128,Reverolle,VD,6.439706981023408,46.542433837900326
che,1131,Tolochenaz,VD,6.473872172832824,46.505916037787244
che,1132,Lully (VD),VD,6.465259088514285,46.505895937575985
che,1134,"Vufflens-le-Château,Chigny",VD,6.473969003438487,46.52345177736291
che,1135,Denens,VD,6.4568039618476165,46.51900190758104
che,1136,Bussy-Chardonney,VD,6.442639941187683,46.52914372352663
che,1141,Sévery,VD,6.438016115007768,46.57589734364371
che,1142,Pampigny,VD,6.428914830846108,46.58164153105485
che,1143,Apples,VD,6.428621690150074,46.55225646372658
che,1144,Ballens,VD,6.3740798439638375,46.55469058793802
che,1145,Bière,VD,6.333425626588881,46.5381635918027
che,1146,Mollens (VD),VD,6.363170872666192,46.57790905321699
che,1147,Montricher,VD,6.376921388278247,46.60115132552307
che,1148,"Chavannes-le-Veyron,Mauraz,La Praz,Moiry,L'Isle,Mont-la-Ville,Cuarnens",VD,6.425011551540164,46.629123181305175
che,1149,Berolle,VD,6.336612068630657,46.558224684292185
che,1162,Saint-Prex,VD,6.458243347230496,46.481335222611534
che,1163,Etoy,VD,6.420576311330283,46.486129501485046
che,1164,Buchillon,VD,6.421249009683764,46.470165093503255
che,1165,Allaman,VD,6.395306004906812,46.47084026378792
che,1166,Perroy,VD,6.365406047994688,46.46759252904282
che,1167,Lussy-sur-Morges,VD,6.4506318981954935,46.503677157823105
che,1168,Villars-sous-Yens,VD,6.428609260846742,46.51039918063872
che,1169,Yens,VD,6.4171570555568405,46.51859778898384
che,1170,Aubonne,VD,6.392147415267418,46.49671941989497
che,1172,Bougy-Villars,VD,6.354063424153514,46.47894221569074
che,1173,Féchy,VD,6.3699002136763525,46.481170505173786
che,1174,"Montherod,Aubonne",VD,6.356767596803433,46.49635462872328
che,1175,Lavigny,VD,6.4046563983015545,46.50053153827872
che,1176,Saint-Livres,VD,6.386683355853268,46.507361091146834
che,1180,"Tartegnin,Rolle",VD,6.3256219478115785,46.46247206033543
che,1182,Gilly,VD,6.300270816269476,46.459222591049134
che,1183,Bursins,VD,6.289859079170313,46.45310161723624
che,1184,"Luins,Vinzel",VD,6.275808786900972,46.44729623018232
che,1185,Mont-sur-Rolle,VD,6.336958049696008,46.470937463258934
che,1186,Essertines-sur-Rolle,VD,6.317898286550733,46.49314508832214
che,1187,Saint-Oyens,VD,6.309108317939857,46.498821627154896
che,1188,"Gimel,Saint-George",VD,6.2861429606646535,46.511427134534514
che,1189,Saubraz,VD,6.330347568955334,46.51426549816775
che,1195,"Bursinel,Dully",VD,6.2994811199099185,46.43385734473918
che,1196,Gland,VD,6.265217410846857,46.42369574166649
che,1197,Prangins,VD,6.249859646178536,46.394529013172104
che,1201,Genève,GE,6.144226932781336,46.209882055290215
che,1202,Genève,GE,6.1367086428326285,46.221418638765925
che,1203,Genève,GE,6.123611323388352,46.20858287555155
che,1204,Genève,GE,6.144682024363494,46.201704196071546
che,1205,Genève,GE,6.1436265742015275,46.195236442793
che,1206,Genève,GE,6.158811138647352,46.187160155642694
che,1207,Genève,GE,6.163060301597674,46.20536319125572
che,1208,Genève,GE,6.165888712804719,46.19939431641168
che,1209,Genève,GE,6.124968056115558,46.221860610695096
che,1212,Lancy,GE,6.1209605438440535,46.182364695475606
che,1213,"Onex,Lancy",GE,6.109103075605173,46.185571633823045
che,1214,Vernier,GE,6.0865340303455975,46.21528817965728
che,1215,Le Grand-Saconnex,GE,6.106857756676451,46.23518984366761
che,1216,Meyrin,GE,6.1055217050210056,46.22444562290391
che,1217,Meyrin,GE,6.070661675591116,46.22826745179406
che,1218,Le Grand-Saconnex,GE,6.124000575196861,46.232433919064114
che,1219,Vernier,GE,6.101456224891531,46.20541023630434
che,1220,Vernier,GE,6.10894451229884,46.22083360663908
che,1222,Collonge-Bellerive,GE,6.199668029226098,46.23754317890778
che,1223,Cologny,GE,6.1812086576912,46.216259290729525
che,1224,Chêne-Bougeries,GE,6.188610741790915,46.1977453897447
che,1225,Chêne-Bourg,GE,6.191914852265287,46.19372665847312
che,1226,Thônex,GE,6.198675910262119,46.188270854952
che,1227,"Genève,Carouge (GE)",GE,6.136348507562088,46.189240713912696
che,1228,Plan-les-Ouates,GE,6.11585914397746,46.16806157375513
che,1231,Chêne-Bougeries,GE,6.1766065150629474,46.1843854127378
che,1232,Confignon,GE,6.084483885222576,46.173972801838254
che,1233,Bernex,GE,6.069660358993668,46.17370839670232
che,1234,Veyrier,GE,6.154693879938098,46.17231370511626
che,1236,Cartigny,GE,6.0171659839046,46.173803560840184
che,1237,Avully,GE,5.999954902031695,46.16946844205166
che,1239,Collex-Bossy,GE,6.1208182911927125,46.2707055137472
che,1241,Puplinge,GE,6.232415891399487,46.209887455161535
che,1242,Satigny,GE,6.031415896216671,46.21823078109354
che,1243,Presinge,GE,6.255053063923055,46.218941675170775
che,1244,Choulex,GE,6.226591095327677,46.228127712167215
che,1245,Collonge-Bellerive,GE,6.2040341627336755,46.25367873597992
che,1246,Corsier (GE),GE,6.2262120823834035,46.26249121156179
che,1247,Anières,GE,6.2229046641382775,46.2762209494312
che,1248,Hermance,GE,6.244453013237222,46.301388943419425
che,1251,Gy,GE,6.257596038233397,46.252472373316444
che,1252,Meinier,GE,6.234226276318482,46.24655880265358
che,1253,Vandoeuvres,GE,6.2025655411278215,46.22120533923856
che,1254,Jussy,GE,6.2660265901462004,46.235390113423854
che,1255,Veyrier,GE,6.186075896042856,46.16679939433006
che,1256,Troinex,GE,6.148517414303378,46.1611520017722
che,1257,Bardonnex,GE,6.136397574163895,46.145205197296804
che,1258,Perly-Certoux,GE,6.087689170917644,46.15599337781129
che,1260,Nyon,VD,6.238007696509395,46.38081668522332
che,1261,"Marchissy,Longirod,Le Vaud",VD,6.246780113638617,46.486440994427404
che,1262,Eysins,VD,6.204703495960405,46.37930796662885
che,1263,Crassier,VD,6.163789355027043,46.374274623049615
che,1264,Saint-Cergue,VD,6.158796852282727,46.44794740604953
che,1265,Saint-Cergue,VD,6.075449919797973,46.463683338246824
che,1266,Duillier,VD,6.2330398059002095,46.40897013262043
che,1267,"Coinsins,Vich",VD,6.2445281423302035,46.426472447127566
che,1268,"Begnins,Burtigny",VD,6.2553962230637685,46.45285232961759
che,1269,Bassins,VD,6.231501390199663,46.462135663132614
che,1270,Trélex,VD,6.203947598107373,46.41321734999385
che,1271,Givrins,VD,6.202121406548572,46.42926292682362
che,1272,Genolier,VD,6.217926859319581,46.434659061025975
che,1273,Arzier-Le Muids,VD,6.20735926871245,46.46051916793939
che,1274,"Signy-Avenex,Grens",VD,6.197086612534525,46.39299162031587
che,1275,Chéserex,VD,6.175051931678808,46.40072646804166
che,1276,Gingins,VD,6.179701080264372,46.409485315475024
che,1277,"Arnex-sur-Nyon,Borex",VD,6.184540842757038,46.37701149851615
che,1278,La Rippe,VD,6.150265160042032,46.38168934255325
che,1279,"Chavannes-de-Bogis,Bogis-Bossey",VD,6.164290955074893,46.34910075036749
che,1281,Russin,GE,6.014072201756577,46.18753040206896
che,1283,Dardagny,GE,5.997542539115189,46.18678532370845
che,1284,Chancy,GE,5.971343350672475,46.14969234949853
che,1285,Avusy,GE,6.007261230642,46.154686692526255
che,1286,Soral,GE,6.0430533839385685,46.14479365659224
che,1287,Laconnex,GE,6.034670755144155,46.154740457090405
che,1288,Aire-la-Ville,GE,6.043391790815784,46.190836678046296
che,1290,"Chavannes-des-Bois,Versoix","VD,GE",6.149533941573556,46.29893974631818
che,1291,Commugny,VD,6.180396317500047,46.32017116876137
che,1292,Pregny-Chambésy,GE,6.146931845121318,46.24069958897081
che,1293,Bellevue,GE,6.153296100433153,46.253768411956216
che,1294,Genthod,GE,6.157561613510195,46.26477168391933
che,1295,"Mies,Tannay",VD,6.1735806028825735,46.30711047500439
che,1296,Coppet,VD,6.193095613657732,46.31587657183852
che,1297,Founex,VD,6.192731938409835,46.33292639322101
che,1298,Céligny,GE,6.185224545517713,46.34899717789686
che,1299,Crans-près-Céligny,VD,6.2063680995560375,46.3559001527772
che,1302,Vufflens-la-Ville,VD,6.538876976294099,46.5769640602468
che,1303,Penthaz,VD,6.538843026606872,46.600321752049844
che,1304,"Cossonay,Senarclens,Dizy",VD,6.501130177576613,46.6126823968813
che,1305,Penthalaz,VD,6.529311132123205,46.61426354224973
che,1306,Daillens,VD,6.548779762748585,46.62049808726464
che,1307,Lussery-Villars,VD,6.5259971321535275,46.63290061627385
che,1308,La Chaux (Cossonay),VD,6.472897602708938,46.618005901158654
che,1312,Eclépens,VD,6.525699488760173,46.65247329788232
che,1313,Ferreyres,VD,6.4854691864579115,46.65837856119629
che,1315,La Sarraz,VD,6.514473254000138,46.65953843783619
che,1316,Chevilly,VD,6.476963208899112,46.642347545413685
che,1317,Orny,VD,6.525591765330085,46.66831302081415
che,1318,Pompaples,VD,6.511229077314487,46.66628014934749
che,1321,Arnex-sur-Orbe,VD,6.51919553730667,46.693244819322025
che,1322,Croy,VD,6.476727026524506,46.69432687896354
che,1323,Romainmôtier-Envy,VD,6.4614475275413,46.69349020371541
che,1324,Premier,VD,6.445239782639779,46.70446890199045
che,1325,Vaulion,VD,6.390390888542182,46.68922457269856
che,1326,Juriens,VD,6.448918823717643,46.691297503852404
che,1329,Bretonnières,VD,6.475198382923544,46.71212945154636
che,1337,Vallorbe,VD,6.380037928705142,46.71290269003517
che,1338,Ballaigues,VD,6.414753435044086,46.72924650780658
che,1341,Le Chenit,VD,6.238369136569593,46.60094229247314
che,1342,L'Abbaye,VD,6.331536478285277,46.66459281784415
che,1343,Le Lieu,VD,6.313467027395845,46.66675610777026
che,1344,L'Abbaye,VD,6.3196028000114515,46.650096575959694
che,1345,Le Lieu,VD,6.291039205215801,46.65378977133283
che,1346,L'Abbaye,VD,6.274294875974365,46.62217994994359
che,1347,Le Chenit,VD,6.233242408041896,46.614036528074635
che,1348,Le Chenit,VD,6.210152396823774,46.581883924166924
che,1350,Orbe,VD,6.532988038708576,46.72460188786452
che,1352,Agiez,VD,6.50679751987618,46.718253076228706
che,1353,Bofflens,VD,6.498897652672037,46.703098652839834
che,1354,Montcherand,VD,6.510630548625879,46.73265981317207
che,1355,"Sergey,L'Abergement",VD,6.494564482149452,46.75256295185254
che,1356,Les Clées,VD,6.470654932876151,46.733782253528396
che,1357,Lignerolle,VD,6.456390320676637,46.740098101274434
che,1358,Valeyres-sous-Rances,VD,6.519338947289564,46.751920753186944
che,1372,Bavois,VD,6.56561980132325,46.68535327657071
che,1373,Chavornay,VD,6.5705357422018205,46.70143640041541
che,1374,Chavornay,VD,6.60004691820436,46.703751583229646
che,1375,Penthéréaz,VD,6.603534363648162,46.681994262492296
che,1376,Goumoëns,VD,6.593992538614486,46.65850925623909
che,1377,Oulens-sous-Echallens,VD,6.578322478166343,46.64357561187086
che,1400,"Yverdon-les-Bains,Cheseaux-Noréaz",VD,6.658620583165813,46.780978719846786
che,1404,"Cuarny,Villars-Epeney",VD,6.692858420224709,46.775895494834145
che,1405,Pomy,VD,6.669473239520767,46.75931885919197
che,1406,Cronay,VD,6.6963827845053565,46.757141463988354
che,1407,"Donneloye,Bioley-Magnoux",VD,6.713911759815027,46.74008344408449
che,1408,Donneloye,VD,6.7401764062152925,46.73527580074669
che,1409,Montanaire,VD,6.742744436526476,46.72964857942199
che,1410,"Montanaire,Prévondavaux","VD,FR",6.760776420918472,46.71108459631325
che,1412,"Ursins,Valeyres-sous-Ursins",VD,6.661921120920218,46.74081573811092
che,1413,Orzens,VD,6.683697281586001,46.72138979097285
che,1415,"Molondin,Démoret",VD,6.752462659608302,46.75358788848628
che,1416,Pailly,VD,6.672463639324813,46.69931417554038
che,1417,Essertines-sur-Yverdon,VD,6.640588856728863,46.72893269737614
che,1418,Vuarrens,VD,6.64824417588345,46.68724176105717
che,1420,Fiez,VD,6.623613426791585,46.82632374405789
che,1421,"Grandevent,Fontaines-sur-Grandson",VD,6.612842826100922,46.83689623086212
che,1422,Grandson,VD,6.6435875004739104,46.80832761320712
che,1423,Tévenon,VD,6.639359884688735,46.84941669381014
che,1424,Champagne,VD,6.6581500087260315,46.830496421121225
che,1425,Onnens (VD),VD,6.686133880560037,46.838530630456894
che,1426,"Concise,Corcelles-près-Concise",VD,6.713836766600792,46.84850566270049
che,1427,Bonvillars,VD,6.672409387024431,46.83998552568698
che,1428,"Provence,Mutrux",VD,6.726875347618709,46.88655691826479
che,1429,Giez,VD,6.616413043841555,46.80957595856203
che,1430,Orges,VD,6.58855474690293,46.808017492864245
che,1431,"Novalles,Vugelles-La Mothe",VD,6.587225575880553,46.826248516142925
che,1432,"Yverdon-les-Bains,Belmont-sur-Yverdon",VD,6.62971660613741,46.746759793585866
che,1433,Suchy,VD,6.598992652621593,46.72246569294739
che,1434,Ependes (VD),VD,6.608487082752755,46.74507637849089
che,1435,Chavornay,VD,6.583861630769352,46.727784228845074
che,1436,"Chamblon,Treycovagnes",VD,6.607991295787386,46.77633595873598
che,1437,Suscévaz,VD,6.5779612014952455,46.764234893155184
che,1438,Mathod,VD,6.567301879671287,46.766784679161816
che,1439,Rances,VD,6.530928939844625,46.76119696054262
che,1441,Valeyres-sous-Montagny,VD,6.608906678617228,46.798940432120745
che,1442,Montagny-près-Yverdon,VD,6.612289883351632,46.79300416353951
che,1443,Champvent,VD,6.581010100472228,46.787674435407155
che,1445,Vuiteboeuf,VD,6.5498618425674735,46.807079042492504
che,1446,Baulmes,VD,6.518266849194946,46.79093106467536
che,1450,Sainte-Croix,VD,6.511518651967527,46.81878131986204
che,1452,Bullet,VD,6.540170626347946,46.829234868218
che,1453,"Bullet,Mauborget",VD,6.585817318983679,46.84312392992781
che,1454,Sainte-Croix,VD,6.472806152904088,46.829869010546915
che,1462,Yvonand,VD,6.745091237603062,46.79822649551775
che,1463,Rovray,VD,6.765184463256414,46.78449739754238
che,1464,"Chavannes-le-Chêne,Chêne-Pâquier",VD,6.772951912057577,46.77409650570314
che,1468,Cheyres-Châbles,FR,6.787127315449445,46.814246390449895
che,1470,"Lully (FR),Estavayer",FR,6.8386339666233695,46.82853582874686
che,1473,"Châtillon (FR),Estavayer",FR,6.823858892342034,46.83460754803738
che,1474,Cheyres-Châbles,FR,6.809435193807093,46.82620487396004
che,1475,Estavayer,FR,6.883801606768457,46.864779675500614
che,1482,Cugy (FR),FR,6.8930847668324775,46.81487881991763
che,1483,"Cugy (FR),Les Montets",FR,6.868344106238087,46.81681181667201
che,1484,Les Montets,FR,6.845635614614681,46.806735433509424
che,1485,Nuvilly,FR,6.830635293386879,46.784053003455256
che,1486,Estavayer,FR,6.7657794422917545,46.73798107356057
che,1489,Estavayer,FR,6.807318848051697,46.79043975516048
che,1509,Vucherens,VD,6.773930578638617,46.622530138607324
che,1510,"Syens,Moudon",VD,6.78894421815653,46.65709382271923
che,1512,Chavannes-sur-Moudon,VD,6.808358768076882,46.6571115853914
che,1513,"Rossenges,Hermenches",VD,6.766579686078623,46.6478119028543
che,1514,Bussy-sur-Moudon,VD,6.811128645841802,46.68674309407702
che,1515,"Montanaire,Villars-le-Comte",VD,6.793405809753922,46.70423430814914
che,1521,Curtilles,VD,6.847597397897828,46.70267823063303
che,1522,Lucens,VD,6.823056187073133,46.707363302886606
che,1523,Valbroye,VD,6.889627368520507,46.759948986436996
che,1524,Valbroye,VD,6.901122039806488,46.75611240470168
che,1525,"Henniez,Valbroye",VD,6.88129442504836,46.73474629500561
che,1526,Lucens,VD,6.832744452152279,46.726548108425035
che,1527,Surpierre,FR,6.8685888555064185,46.74595938430183
che,1528,Surpierre,FR,6.854429869423729,46.739797842475824
che,1529,Cheiry,FR,6.83357183288445,46.74932777817411
che,1530,Payerne,VD,6.9377683629732285,46.82073548737414
che,1532,Fétigny,FR,6.915476854757148,46.79709407765474
che,1533,Ménières,FR,6.881446285753563,46.7841505823851
che,1534,"Cheiry,Valbroye","VD,FR",6.854613175909574,46.77365527889771
che,1535,Valbroye,VD,6.818211291179247,46.76192725803924
che,1536,Valbroye,VD,6.809187334473385,46.74944586908187
che,1537,Champtauroz,VD,6.787779927123179,46.76020202452777
che,1538,Treytorrens (Payerne),VD,6.8008677973634555,46.7711367282561
che,1541,"Sévaz,Estavayer",FR,6.890761810686036,46.839439088687165
che,1542,Estavayer,FR,6.916708692198481,46.859630473880856
che,1543,Grandcour,VD,6.930484386854582,46.87190466301285
che,1544,Gletterens,FR,6.937160160342522,46.895229412493656
che,1545,Chevroux,VD,6.907240844864544,46.8875613917459
che,1551,Payerne,VD,6.942666500235572,46.79641840292431
che,1552,Trey,VD,6.925910152773023,46.77026612162562
che,1553,Châtonnaye,FR,6.938259368902964,46.754100936957734
che,1554,Villarzel,VD,6.927624563764389,46.74223967937729
che,1555,Villarzel,VD,6.912689473689295,46.748888671938964
che,1562,Corcelles-près-Payerne,VD,6.96121215618023,46.83163995644572
che,1563,Belmont-Broye,FR,6.988572903479869,46.85304478226283
che,1564,Belmont-Broye,FR,7.015353615864933,46.86476353351188
che,1565,"Missy,Vallon","VD,FR",6.961876086643057,46.88257705654665
che,1566,Saint-Aubin (FR),FR,6.984195156240331,46.89673258870601
che,1567,Delley-Portalban,FR,6.967580020473803,46.91314164096961
che,1568,Delley-Portalban,FR,6.955467334938451,46.91794697886919
che,1580,Avenches,VD,7.045562389818073,46.87004412055779
che,1583,Courtepin,FR,7.072391356277005,46.883577628232594
che,1584,Vully-les-Lacs,VD,6.989996803861851,46.905500401463115
che,1585,Vully-les-Lacs,VD,7.0239929682605755,46.921037313539706
che,1586,Vully-les-Lacs,VD,7.038677408012125,46.931762038375865
che,1587,Vully-les-Lacs,VD,7.010741333214147,46.92278926727312
che,1588,Cudrefin,VD,7.019627598204514,46.95528216753253
che,1589,Vully-les-Lacs,VD,6.981421924050196,46.92702541294073
che,1595,"Clavaleyres,Faoug","VD,BE",7.08432788074659,46.904106223974715
che,1607,Oron,VD,6.82270383276576,46.548444291846394
che,1608,"Chapelle (Glâne),Oron","VD,FR",6.847106043429988,46.57722414442042
che,1609,Saint-Martin (FR),FR,6.8767673110484,46.583146230927106
che,1610,Oron,VD,6.81653978547619,46.57011900015741
che,1611,La Verrerie,FR,6.910090852951701,46.608938991493645
che,1612,Oron,VD,6.862315583600142,46.54573851008749
che,1613,Maracon,VD,6.8710151734910365,46.54966957589982
che,1614,Granges (Veveyse),FR,6.8312485672213406,46.52466494943169
che,1615,Bossonnens,FR,6.850066413575108,46.521803990800045
che,1616,Attalens,FR,6.849221299506088,46.51084623072864
che,1617,"Attalens,Remaufens",FR,6.873859780512966,46.52690583953319
che,1618,Châtel-Saint-Denis,FR,6.9010718125931625,46.528800162737646
che,1619,Châtel-Saint-Denis,FR,6.944099399809022,46.52270895326002
che,1623,Semsales,FR,6.927713851910756,46.57288661148542
che,1624,La Verrerie,FR,6.922970691211507,46.59081389584108
che,1625,Sâles,FR,6.982222723102422,46.63714145079784
che,1626,Sâles,FR,6.960858681508044,46.65118345731738
che,1627,Vaulruz,FR,6.993159255634336,46.623820136535855
che,1628,Vuadens,FR,7.0191432455841305,46.616463473802526
che,1630,Bulle,FR,7.0584562303266205,46.62027276072968
che,1632,Riaz,FR,7.061165922025977,46.641500029194205
che,1633,Marsens,FR,7.067398510409907,46.65730646216666
che,1634,La Roche,FR,7.137952904908089,46.6963634751999
che,1635,Bulle,FR,7.066224628588973,46.609074949681606
che,1636,Broc,FR,7.099473825100621,46.604958708258934
che,1637,Val-de-Charmey,FR,7.162786583782655,46.619084138110935
che,1638,Morlon,FR,7.087767588401723,46.62792855619669
che,1642,Sorens,FR,7.060290232701499,46.66892012860996
che,1643,Pont-en-Ogoz,FR,7.076831952809178,46.676989715951684
che,1644,Pont-en-Ogoz,FR,7.0864021131650805,46.68720690656094
che,1645,Pont-en-Ogoz,FR,7.083571170108608,46.703909710300465
che,1646,Echarlens,FR,7.075605281688044,46.64786669206776
che,1647,Corbières,FR,7.101113760280961,46.6613728701691
che,1648,Hauteville,FR,7.103288742547743,46.6709475294067
che,1649,Pont-la-Ville,FR,7.111047300413366,46.700103862772465
che,1651,Corbières,FR,7.107328854123744,46.645259822156824
che,1652,Botterens,FR,7.110800576703811,46.62519405053176
che,1653,"Crésuz,Châtel-sur-Montsalvens",FR,7.133675668327374,46.616067544902265
che,1654,Val-de-Charmey,FR,7.156769163872673,46.632642178161966
che,1656,Jaun,FR,7.255429361483795,46.604732113833094
che,1657,Saanen,BE,7.2928082298761705,46.577034648401906
che,1658,Rossinière,VD,7.065341390264889,46.46759987152058
che,1659,Rougemont,VD,7.194361541761303,46.48551870642225
che,1660,Château-d'Oex,VD,7.1225510012774755,46.44470383852284
che,1661,Le Pâquier (FR),FR,7.0548473330804296,46.59442227331724
che,1663,Gruyères,FR,7.069572645159594,46.57804860955566
che,1665,Bas-Intyamon,FR,7.101700861780023,46.56578599417715
che,1666,"Grandvillard,Bas-Intyamon",FR,7.077567294025675,46.53938058162526
che,1667,Bas-Intyamon,FR,7.083586112523933,46.56626700149869
che,1669,Haut-Intyamon,FR,7.051461690255508,46.50619137344656
che,1670,Ursy,FR,6.844616698810463,46.637566566800636
che,1673,"Ecublens (FR),Auboranges,Rue",FR,6.817284468604781,46.59996302610447
che,1674,"Montet (Glâne),Ursy",FR,6.825857780712124,46.64752381909759
che,1675,"Ursy,Rue",FR,6.847094069266496,46.614817289799625
che,1676,Siviriez,FR,6.897687959619758,46.651756229326104
che,1677,Siviriez,FR,6.874472578794483,46.638112962346476
che,1678,Siviriez,FR,6.880088849419017,46.65785182314887
che,1679,Siviriez,FR,6.912872349262876,46.65893739948573
che,1680,"Romont (FR),Mézières (FR)",FR,6.9357466163363775,46.694299131259
che,1681,Billens-Hennens,FR,6.892328979475115,46.68702862279053
che,1682,"Lovatens,Dompierre (VD),Prévonloup,Valbroye",VD,6.884742670787515,46.70943236835415
che,1683,Lucens,VD,6.845747636249588,46.67620300605452
che,1684,Mézières (FR),FR,6.926342778252777,46.67912420752719
che,1685,Vuisternens-devant-Romont,FR,6.939938220079073,46.664826247496244
che,1686,"Vuisternens-devant-Romont,Grangettes",FR,6.959700242562305,46.68015676814629
che,1687,Vuisternens-devant-Romont,FR,6.939582684735158,46.65323737117407
che,1688,Vuisternens-devant-Romont,FR,6.90646124663448,46.6375159373494
che,1689,Le Châtelard,FR,6.9782842532172005,46.67754016950612
che,1690,Villaz,FR,6.950551568181369,46.717517110020275
che,1691,Villaz,FR,6.962841422212813,46.73948156294017
che,1692,Massonnens,FR,6.973414367378421,46.70064272500861
che,1694,Villorsonnens,FR,6.99974145788809,46.7124334927411
che,1695,Gibloux,FR,7.024464227915408,46.71467879356703
che,1696,Gibloux,FR,7.053095550374503,46.70780217180018
che,1697,Vuisternens-devant-Romont,FR,6.924181894423051,46.62571119032033
che,1699,Le Flon,FR,6.867813357973933,46.600210459050345
che,1700,Fribourg,FR,7.162795392425012,46.80618468710242
che,1712,Tafers,FR,7.217607776435562,46.815422127124116
che,1713,St. Antoni,FR,7.260732316492704,46.82225064398639
che,1714,Heitenried,FR,7.298664564347068,46.829909445042546
che,1715,Alterswil,FR,7.258818012232353,46.795566184469536
che,1716,Plaffeien,FR,7.283724384578903,46.71742170458922
che,1717,St. Ursen,FR,7.221258568066896,46.791271103754404
che,1718,Rechthalten,FR,7.2408093545092145,46.76833007415618
che,1719,"Plaffeien,Brünisried",FR,7.285112741224896,46.757255045267314
che,1720,Corminboeuf,FR,7.090277097655932,46.80770943652111
che,1721,Misery-Courtion,FR,7.082221019152911,46.858031459347075
che,1722,Fribourg,FR,7.17695695215557,46.79999268225937
che,1723,"Villarsel-sur-Marly,Marly,Pierrafortscha",FR,7.172521009715467,46.77410224805971
che,1724,"Ferpicloz,Senèdes,Le Mouret",FR,7.174600971667408,46.739565900305465
che,1725,Hauterive (FR),FR,7.0949660696811945,46.762324713243686
che,1726,Gibloux,FR,7.061140731104784,46.72896066685414
che,1727,Gibloux,FR,7.089580128762286,46.743145417130684
che,1728,Gibloux,FR,7.100736371083301,46.719982822984406
che,1730,Hauterive (FR),FR,7.086861558013547,46.758083514534206
che,1731,Ependes (FR),FR,7.146299525728298,46.75451126135018
che,1732,Arconciel,FR,7.123039052951078,46.74687140903969
che,1733,Treyvaux,FR,7.137568957583361,46.72851462664219
che,1734,Tentlingen,FR,7.197690529329193,46.77042665454588
che,1735,Giffers,FR,7.21040211902578,46.761142309696424
che,1736,St. Silvester,FR,7.224643680411763,46.74107739799306
che,1737,Plasselb,FR,7.251942735993892,46.735509654032406
che,1738,Guggisberg,BE,7.353375915009821,46.713082166095184
che,1740,Neyruz (FR),FR,7.0652066674157,46.76789462053092
che,1741,Cottens (FR),FR,7.033002181115898,46.750630610646795
che,1742,Autigny,FR,7.020577046732581,46.736494844070386
che,1744,Chénens,FR,7.002460146316963,46.73967095998778
che,1745,La Brillaz,FR,7.003156949074643,46.760076728851786
che,1746,Prez,FR,7.015078437458142,46.78552448675213
che,1747,Prez,FR,6.992911478114277,46.773538702157076
che,1748,Torny,FR,6.968545609974463,46.770627442946356
che,1749,Torny,FR,6.949353779734667,46.768073745185355
che,1752,Villars-sur-Glâne,FR,7.116042223287757,46.791035279838184
che,1753,Matran,FR,7.096297183502497,46.786440866194496
che,1754,Avry,FR,7.058101300388245,46.78674027072803
che,1756,La Brillaz,FR,7.029758952932948,46.77435502326408
che,1757,Prez,FR,7.027715190381372,46.80273394591754
che,1762,Givisiez,FR,7.126584889248001,46.81220554096257
che,1763,Granges-Paccot,FR,7.141505396911372,46.82508934746587
che,1772,"Grolley,Ponthaux",FR,7.056367202259405,46.82254922683421
che,1773,Belmont-Broye,FR,7.021854733101246,46.836962125088654
che,1774,Montagny (FR),FR,6.980426508945162,46.81859055392933
che,1775,Montagny (FR),FR,6.975471970731796,46.78896987527503
che,1776,Montagny (FR),FR,6.995437259907553,46.81750150728237
che,1782,"Belfaux,La Sonnaz",FR,7.1105504242275765,46.82836764495573
che,1783,Courtepin,FR,7.148252058541311,46.85046463091539
che,1784,Courtepin,FR,7.120758327873782,46.86912758619587
che,1785,Cressier (FR),FR,7.1402260788608745,46.89817992577833
che,1786,Mont-Vully,FR,7.1128116531863705,46.961888758066166
che,1787,"Vully-les-Lacs,Mont-Vully","VD,FR",7.06877652777191,46.945988853861174
che,1788,Mont-Vully,FR,7.097282221513366,46.952997458377816
che,1789,Mont-Vully,FR,7.07021453749761,46.950324912358646
che,1791,Courtepin,FR,7.1303930721430255,46.870804004801705
che,1792,Gurmels,FR,7.14431635097371,46.87619588177197
che,1793,Murten,FR,7.164065286802711,46.90332478718997
che,1794,Murten,FR,7.1504090216655944,46.91254268126815
che,1795,Murten,FR,7.111069098635409,46.89120495885628
che,1796,Courgevaux,FR,7.1120307806632646,46.90733395542723
che,1797,Münchenwiler,BE,7.126343629727982,46.91173691659864
che,1800,Vevey,VD,6.848151480145751,46.459060413258975
che,1801,Chardonne,VD,6.830194598580665,46.48158488599242
che,1802,Corseaux,VD,6.832808624866367,46.472308924767674
che,1803,Chardonne,VD,6.826986516688093,46.476839826932896
che,1804,Corsier-sur-Vevey,VD,6.8416946530890375,46.47019892647394
che,1805,Jongny,VD,6.842134864623356,46.47790665281406
che,1806,Saint-Légier-La Chiésaz,VD,6.88398900136044,46.47136709754637
che,1807,Blonay,VD,6.894408189697143,46.46585583516561
che,1808,Corsier-sur-Vevey,VD,6.8767642889713665,46.49949121319002
che,1809,Corsier-sur-Vevey,VD,6.8661796427957364,46.483610438529595
che,1814,La Tour-de-Peilz,VD,6.857017230479474,46.453609056694155
che,1815,Montreux,VD,6.892482875674936,46.44202711057053
che,1816,Montreux,VD,6.891991489730313,46.45441725403866
che,1817,Montreux,VD,6.9014387878984325,46.457588318351405
che,1820,"Montreux,Veytaux",VD,6.921592341815537,46.42614885352688
che,1822,Montreux,VD,6.913610559839312,46.44258986281364
che,1823,Montreux,VD,6.925623491472286,46.4321250802476
che,1824,Montreux,VD,6.9385943627615925,46.43271390153757
che,1832,Montreux,VD,6.9224497538118595,46.45648299849
che,1833,Montreux,VD,6.942820853894602,46.453103298834726
che,1844,Villeneuve (VD),VD,6.925179316236832,46.39625627921399
che,1845,Noville,VD,6.89859274263301,46.380918565602705
che,1846,Chessel,VD,6.894260960726322,46.34958710999354
che,1847,Rennaz,VD,6.918628431062926,46.37590331493515
che,1852,Roche (VD),VD,6.930430200063799,46.36166852654814
che,1853,Yvorne,VD,6.960860990961844,46.330897019559906
che,1854,Leysin,VD,7.012534760879129,46.34163669392671
che,1856,Corbeyrier,VD,6.962466529983147,46.350245220316076
che,1860,Aigle,VD,6.967618108123619,46.31728153456867
che,1862,Ormont-Dessous,VD,7.089589256115947,46.387620976634906
che,1863,Ormont-Dessous,VD,7.051700375292808,46.361763731264496
che,1864,Ormont-Dessus,VD,7.1316649755665775,46.35365970648242
che,1865,Ormont-Dessus,VD,7.1571620450516615,46.34975183622353
che,1866,Ormont-Dessous,VD,7.068289801833898,46.35154353761165
che,1867,Ollon,VD,6.99574965675851,46.30034893042909
che,1868,Collombey-Muraz,VS,6.940321217475966,46.26056981568806
che,1869,Massongex,VS,6.9895877736399745,46.24263881488182
che,1870,Monthey,VS,6.8811093417215865,46.22987004575913
che,1871,Monthey,VS,6.957310892955605,46.23478523003031
che,1872,Troistorrents,VS,6.919014793731514,46.22976021631569
che,1873,Val-d'Illiez,VS,6.865531783368602,46.19976648667053
che,1874,Champéry,VS,6.870265228961152,46.178286056265364
che,1875,Troistorrents,VS,6.857478412142253,46.237225862052156
che,1880,Bex,VD,7.050586190749357,46.26242594578739
che,1882,Gryon,VD,7.062829627900473,46.2734890814626
che,1884,Ollon,VD,7.048661788436651,46.29259083317046
che,1885,Ollon,VD,7.043512130657404,46.30125441977725
che,1890,Saint-Maurice,VS,7.001316662376436,46.20117327881148
che,1891,Vérossaz,VS,6.988392425251994,46.21053357220809
che,1892,Lavey-Morcles,VD,7.024607277138021,46.210995964090074
che,1893,Collombey-Muraz,VS,6.925764110753536,46.28020212105689
che,1895,Vionnaz,VS,6.899649505473625,46.30898120098612
che,1896,Vouvry,VS,6.874840018665365,46.336942291366476
che,1897,Port-Valais,VS,6.8640915742731945,46.37360788488486
che,1898,Saint-Gingolph,VS,6.804014964468848,46.39259593030122
che,1899,Vionnaz,VS,6.878733660478394,46.31518686750947
che,1902,Evionnaz,VS,7.02358267236199,46.178468007938214
che,1903,Collonges,VS,7.033932316278165,46.171625308275544
che,1904,Vernayaz,VS,7.038748683179195,46.134310141105935
che,1905,Dorénaz,VS,7.0418566591062275,46.14892628934818
che,1906,Charrat,VS,7.129801616572824,46.12348589907232
che,1907,Saxon,VS,7.1807566704249695,46.14533586850221
che,1908,Riddes,VS,7.22039736467684,46.16866445379732
che,1911,"Leytron,Chamoson",VS,7.176884696330502,46.202649894849664
che,1912,Leytron,VS,7.1963106620697666,46.18851531426506
che,1913,Saillon,VS,7.15326302587766,46.180859314040376
che,1914,"Riddes,Isérables",VS,7.244587412060103,46.1579595943973
che,1918,Riddes,VS,7.235581015338637,46.1442506512889
che,1920,Martigny,VS,7.073760736530097,46.1006186404214
che,1921,Martigny-Combe,VS,7.0539638404687715,46.08656162114112
che,1922,Salvan,VS,7.021414612927961,46.12431731910866
che,1923,Salvan,VS,7.003765133309539,46.10676241173178
che,1925,Finhaut,VS,6.965438053377573,46.07020313587654
che,1926,Fully,VS,7.113703645184003,46.13822159680439
che,1927,Vollèges,VS,7.097238740555881,46.089730278897655
che,1928,Martigny-Combe,VS,7.046008021997068,46.0971609921974
che,1929,Trient,VS,6.994749281258013,46.05600543426794
che,1932,Bovernier,VS,7.080993429158718,46.077806952936754
che,1933,"Vollèges,Sembrancher",VS,7.143961737355353,46.073188819666846
che,1934,Bagnes,VS,7.216536052253661,46.0726569845882
che,1936,Bagnes,VS,7.21955565904598,46.09407557110608
che,1937,Orsières,VS,7.146210437707942,46.031092461391744
che,1938,Orsières,VS,7.119148173828238,46.026675083353226
che,1941,Vollèges,VS,7.17292465694895,46.08937905403147
che,1942,Vollèges,VS,7.162036061135981,46.0979785346695
che,1943,Orsières,VS,7.125481227560095,45.99001394326167
che,1944,Orsières,VS,7.097446198204442,45.931996118499214
che,1945,Liddes,VS,7.174405324956427,45.9984530327614
che,1946,Bourg-Saint-Pierre,VS,7.2125543912107535,45.949619836750344
che,1947,Bagnes,VS,7.238841420903865,46.06098636991179
che,1948,Bagnes,VS,7.2743282090897265,46.04886134747216
che,1950,Sion,VS,7.361994270734104,46.2334261251021
che,1955,Chamoson,VS,7.221060784561727,46.204781650406495
che,1957,Ardon,VS,7.252568086301517,46.210441148825396
che,1958,"Sion,Saint-Léonard",VS,7.416108224524763,46.253324143954444
che,1961,Mont-Noble,VS,7.437964329016589,46.210159684059846
che,1962,Sion,VS,7.318776694542017,46.226286777668975
che,1963,Vétroz,VS,7.278629852764365,46.22365688469193
che,1964,Conthey,VS,7.304875135654945,46.227350115259476
che,1965,Savièse,VS,7.349772612262193,46.250772145202895
che,1966,Ayent,VS,7.408771736133247,46.275043916422916
che,1967,Sion,VS,7.403950886634167,46.2307537103581
che,1968,Mont-Noble,VS,7.4365042223481606,46.1952167800769
che,1969,Saint-Martin (VS),VS,7.451969839500218,46.16750963714187
che,1971,Grimisuat,VS,7.379824186111394,46.25341604932328
che,1972,Ayent,VS,7.396607870528842,46.296183434855614
che,1973,Mont-Noble,VS,7.434178872321378,46.22931732043032
che,1974,Arbaz,VS,7.383492449368394,46.2722651285675
che,1975,Conthey,VS,7.302855436654815,46.23872386436844
che,1976,Conthey,VS,7.290599793241159,46.2438832259295
che,1977,Icogne,VS,7.438547224598805,46.29072702340443
che,1978,Lens,VS,7.445402632812291,46.27894474482045
che,1981,Vex,VS,7.397356856847493,46.211841185663936
che,1982,Hérémence,VS,7.422313392371635,46.171640893798205
che,1983,Evolène,VS,7.48457552247142,46.11585972238049
che,1984,Evolène,VS,7.506031108568358,46.08951990214766
che,1985,Evolène,VS,7.516164440496413,46.09768086770301
che,1986,Evolène,VS,7.483231414915171,46.02482793861218
che,1987,Hérémence,VS,7.4045235263483615,46.1805381335687
che,1988,Vex,VS,7.37967362842003,46.18331395477638
che,1991,Sion,VS,7.351380579977205,46.211239698581856
che,1992,Sion,VS,7.372628250477288,46.20833487382114
che,1993,"Nendaz,Veysonnaz",VS,7.336250911846761,46.190622266723096
che,1994,Nendaz,VS,7.315958020818162,46.20672881578374
che,1996,Nendaz,VS,7.301886883829607,46.18746141176466
che,1997,Nendaz,VS,7.3051883461507385,46.16819047196075
che,2000,Neuchâtel,NE,6.926355820731355,46.99204504135111
che,2012,Milvignes,NE,6.877236556811655,46.97778107757657
che,2013,Milvignes,NE,6.862026751351321,46.96634548557075
che,2014,Milvignes,NE,6.840085874897393,46.96617362807174
che,2015,Boudry,NE,6.856789352338133,46.953704310748
che,2016,Cortaillod,NE,6.846326435333638,46.94293092751714
che,2017,Boudry,NE,6.837102849577027,46.9514220994199
che,2019,Rochefort,NE,6.81114645112297,46.97251264396193
che,2022,La Grande-Béroche,NE,6.8156305434250575,46.930812062252855
che,2023,La Grande-Béroche,NE,6.78052829908529,46.90316477152239
che,2024,La Grande-Béroche,NE,6.77361973185983,46.895575899749524
che,2025,La Grande-Béroche,NE,6.7858190918434085,46.901233596342315
che,2027,La Grande-Béroche,NE,6.745540202693963,46.8930403876594
che,2028,La Grande-Béroche,NE,6.755118170879989,46.878661258867986
che,2034,Peseux,NE,6.888644590250458,46.987306232575506
che,2035,Corcelles-Cormondrèche,NE,6.8768823307342455,46.98560403560769
che,2036,Corcelles-Cormondrèche,NE,6.8697344668075475,46.98060296363548
che,2037,"Val-de-Ruz,Rochefort",NE,6.842029089620414,46.98984376586859
che,2042,Valangin,NE,6.9070609579516615,47.01616430092844
che,2043,Val-de-Ruz,NE,6.8899879271795035,47.02849444205046
che,2046,Val-de-Ruz,NE,6.900967406225793,47.043706120258115
che,2052,Val-de-Ruz,NE,6.8785143588227635,47.06429852319614
che,2053,Val-de-Ruz,NE,6.9045612028100445,47.06145647634551
che,2054,Val-de-Ruz,NE,6.93481401348926,47.07404587349968
che,2056,Val-de-Ruz,NE,6.960566200282867,47.07278479111374
che,2057,Val-de-Ruz,NE,6.9715594006103565,47.07465795092897
che,2058,Val-de-Ruz,NE,6.986810696243151,47.098351087402676
che,2063,Val-de-Ruz,NE,6.927620494916842,47.03307870988054
che,2065,Val-de-Ruz,NE,6.953389344368497,47.04737504785874
che,2067,Neuchâtel,NE,6.956490855691593,47.02839612214464
che,2068,Hauterive (NE),NE,6.971680995615762,47.013595180830286
che,2072,Saint-Blaise,NE,6.986882187100493,47.01342491007282
che,2073,Enges,NE,7.0123086077643935,47.05646446566596
che,2074,La Tène,NE,7.001169593228425,47.0092677170563
che,2075,La Tène,NE,7.0261954516735186,47.02413238732906
che,2087,Cornaux,NE,7.020990580441513,47.03794065192663
che,2088,Cressier (NE),NE,7.035685165438433,47.05098459998887
che,2103,Val-de-Travers,NE,6.722967061707643,46.95605554577179
che,2105,Val-de-Travers,NE,6.6747018811647365,46.94087475642971
che,2108,Val-de-Travers,NE,6.632553337961206,46.92500201390681
che,2112,Val-de-Travers,NE,6.611545970122608,46.91190340570721
che,2113,Val-de-Travers,NE,6.600723918105412,46.916430856722776
che,2114,Val-de-Travers,NE,6.58184606354764,46.90134051540869
che,2115,Val-de-Travers,NE,6.5520747660689125,46.889542393293425
che,2116,Val-de-Travers,NE,6.509184624842392,46.877234720314675
che,2117,La Côte-aux-Fées,NE,6.489548597174978,46.86696931156155
che,2123,Val-de-Travers,NE,6.562132250127077,46.91109271465624
che,2124,Val-de-Travers,NE,6.598673089626152,46.939132191358716
che,2126,Les Verrières,NE,6.478999503894747,46.90507466823792
che,2127,Val-de-Travers,NE,6.520135531983883,46.91683861376518
che,2149,Rochefort,NE,6.762668772594338,46.95914725195502
che,2206,Val-de-Ruz,NE,6.846607710474101,47.01276720357482
che,2207,Val-de-Ruz,NE,6.862596358846015,47.010247668960226
che,2208,Val-de-Ruz,NE,6.873628261147987,47.04837429988661
che,2300,La Chaux-de-Fonds,NE,6.854464066398032,47.110330771836246
che,2314,La Sagne,NE,6.799659384729482,47.03937351467349
che,2316,Les Ponts-de-Martel,NE,6.741711539509284,47.005145238283355
che,2318,Brot-Plamboz,NE,6.745999442640738,46.97922482756201
che,2322,La Chaux-de-Fonds,NE,6.784502526822367,47.07726576074009
che,2325,Les Planchettes,NE,6.770941264341843,47.1062439405962
che,2333,"La Chaux-de-Fonds,La Ferrière","NE,BE",6.892132498878458,47.13314170447653
che,2336,Les Bois,JU,6.905130749147119,47.17660125835869
che,2338,Muriaux,JU,6.982110499509062,47.239149111108716
che,2340,Le Noirmont,JU,6.95751669716731,47.22646564782678
che,2345,"La Chaux-des-Breuleux,Les Breuleux,Muriaux",JU,6.997899353514291,47.20638727265541
che,2350,Saignelégier,JU,6.995682601134839,47.25573403865833
che,2353,Saignelégier,JU,6.986920207599156,47.271603573056005
che,2354,Saignelégier,JU,6.9525705949851915,47.261389064405925
che,2360,Le Bémont (JU),JU,7.0141410081092985,47.263222693838266
che,2362,Montfaucon,JU,7.070429165446226,47.2961178470756
che,2363,Les Enfers,JU,7.044251614107399,47.28801709847264
che,2364,Saint-Brais,JU,7.112479040301928,47.305026638298905
che,2400,Le Locle,NE,6.725765980054433,47.048029173877076
che,2405,La Chaux-du-Milieu,NE,6.701960256658452,47.013554964668096
che,2406,La Brévine,NE,6.590079683077082,46.972050629788164
che,2414,Le Cerneux-Péquignot,NE,6.664996873777269,47.01694112142457
che,2416,Les Brenets,NE,6.705492703718813,47.06758821754893
che,2502,Biel/Bienne,BE,7.2457251493078205,47.14198386718895
che,2503,Biel/Bienne,BE,7.2585539242326105,47.13168580313933
che,2504,Biel/Bienne,BE,7.2826510509647635,47.15632835742626
che,2505,Biel/Bienne,BE,7.217448982185379,47.13369844312616
che,2512,Twann-Tüscherz,BE,7.195776528669751,47.1156004003799
che,2513,Twann-Tüscherz,BE,7.159885286511861,47.09533139117544
che,2514,Ligerz,BE,7.13539234692458,47.08585021682777
che,2515,Plateau de Diesse,BE,7.129879178111397,47.099322932075644
che,2516,Plateau de Diesse,BE,7.136356442884726,47.11735685855093
che,2517,Plateau de Diesse,BE,7.1174238898339866,47.11226080078306
che,2518,Nods,BE,7.080301113431255,47.112307850150174
che,2520,La Neuveville,BE,7.097054740549072,47.06445424867817
che,2523,Lignières,NE,7.065398697080611,47.08077843731001
che,2525,Le Landeron,NE,7.065008238063487,47.05364598476162
che,2532,Evilard,BE,7.216705383781768,47.142057847413454
che,2533,Evilard,BE,7.2396250151255925,47.14981495604012
che,2534,Orvin,BE,7.195034340096794,47.156352438919825
che,2535,Sauge,BE,7.25741009104355,47.16953195423665
che,2536,Sauge,BE,7.287394249182586,47.188388822109545
che,2537,Sauge,BE,7.303347843044944,47.187019194497786
che,2538,Romont (BE),BE,7.340381182468996,47.18886453935115
che,2540,Grenchen,SO,7.407225649955425,47.18898241238412
che,2542,Pieterlen,BE,7.328274599261831,47.174126444287225
che,2543,Lengnau (BE),BE,7.369178285729735,47.182375684997425
che,2544,Bettlach,SO,7.429709457517331,47.20339385225571
che,2545,Selzach,SO,7.453931115449455,47.20607439165215
che,2552,Orpund,BE,7.312835709244283,47.13724075284578
che,2553,Safnern,BE,7.327777616680972,47.15034835989072
che,2554,Meinisberg,BE,7.34899590811337,47.16174072191537
che,2555,Brügg,BE,7.278120935344227,47.123540139879466
che,2556,"Schwadernau,Scheuren",BE,7.314338223908007,47.131255213497425
che,2557,Studen (BE),BE,7.303238986837775,47.11304835476629
che,2558,Aegerten,BE,7.291650838161606,47.12114938935535
che,2560,Nidau,BE,7.24055625717782,47.12504013431118
che,2562,Port,BE,7.255418578892297,47.11722310795503
che,2563,Ipsach,BE,7.235222382419013,47.117259980742595
che,2564,Bellmund,BE,7.245389819388054,47.10699075544935
che,2565,Jens,BE,7.263584306515894,47.096320259396315
che,2572,"Sutz-Lattrigen,Mörigen",BE,7.2144296510100965,47.09415771627076
che,2575,"Täuffelen,Hagneck",BE,7.19597019125505,47.06607618119299
che,2576,Lüscherz,BE,7.1515512872810545,47.04665183095972
che,2577,"Siselen,Finsterhennen",BE,7.1833244325453816,47.02865455605186
che,2603,Péry-La Heutte,BE,7.249542299753057,47.19494893468344
che,2604,Péry-La Heutte,BE,7.224691549223252,47.18968562111596
che,2605,Sonceboz-Sombeval,BE,7.168574136299214,47.195082855685435
che,2606,Corgémont,BE,7.140839347701334,47.194245435180534
che,2607,Cortébert,BE,7.106665131075737,47.19159026704514
che,2608,"Cortébert,Courtelary",BE,7.092430935935825,47.17530643828184
che,2610,"Cormoret,Saint-Imier",BE,7.003899184115447,47.156979248963054
che,2612,Cormoret,BE,7.0540877096127685,47.172898537203714
che,2613,Villeret,BE,7.017234902310916,47.15644633246698
che,2615,Sonvilier,BE,6.955579941166,47.130456071330116
che,2616,"La Chaux-de-Fonds,Renan (BE)","NE,BE",6.911168011544108,47.122715439420176
che,2710,Tavannes,BE,7.197395426855509,47.221499725088776
che,2712,Saicourt,BE,7.184555032749501,47.24422658410674
che,2713,Saicourt,BE,7.16831029109815,47.2639659204616
che,2714,Les Genevez (JU),JU,7.118700622827475,47.258521969624695
che,2715,Petit-Val,BE,7.19733959493308,47.274197262369455
che,2716,Petit-Val,BE,7.213956021489402,47.27405734663114
che,2717,"Petit-Val,Rebévelier",BE,7.182856359673231,47.285712811817
che,2718,Lajoux (JU),JU,7.149182362533757,47.27915892635879
che,2720,"Tramelan,Tavannes",BE,7.126318994207631,47.22185492181049
che,2722,Tramelan,BE,7.082519519027421,47.22430057278718
che,2723,Mont-Tramelan,BE,7.053377236712487,47.20782281359643
che,2732,"Saicourt,Saules (BE),Loveresse,Reconvilier",BE,7.222477149165607,47.24132647184422
che,2733,Valbirse,BE,7.25443204981649,47.238923799792026
che,2735,"Valbirse,Champoz",BE,7.287065693099439,47.24316123000176
che,2736,Sorvilier,BE,7.305662346018428,47.23941641237578
che,2738,Court,BE,7.332206805160522,47.23996324877057
che,2740,Moutier,BE,7.3721573286031505,47.280489443609255
che,2742,Perrefitte,BE,7.341900022317363,47.27474063612589
che,2743,Eschert,BE,7.398845728049995,47.275592723279104
che,2744,Belprahon,BE,7.4058857463772325,47.28635327975539
che,2745,Grandval,BE,7.425224072953813,47.28344509415525
che,2746,Crémines,BE,7.439085810903301,47.284215539625094
che,2747,"Seehof,Corcelles (BE)",BE,7.48999118582507,47.29506446385306
che,2748,Petit-Val,BE,7.261432370219243,47.275464510307856
che,2762,Roches (BE),BE,7.38253113993968,47.30205988125902
che,2800,Delémont,JU,7.343637117508528,47.36469720079255
che,2802,Develier,JU,7.29128174915686,47.35471570629266
che,2803,Bourrignon,JU,7.243355669425017,47.39787351886224
che,2805,Soyhières,JU,7.369468778484085,47.39156986950643
che,2806,Mettembert,JU,7.319467758447999,47.39789231409255
che,2807,Pleigne,JU,7.269428253465975,47.41389629535868
che,2812,Movelier,JU,7.316351739852451,47.41007069760785
che,2813,Ederswiler,JU,7.335569975669457,47.42669834783766
che,2814,Roggenburg,BL,7.341370045891763,47.433045667451175
che,2822,Courroux,JU,7.375115195017095,47.362215646644316
che,2823,Courroux,JU,7.39667577711979,47.36193088255652
che,2824,Val Terbi,JU,7.413132955473078,47.34716788452722
che,2825,Courchapoix,JU,7.451434045592018,47.34734122063928
che,2826,Val Terbi,JU,7.478048245341029,47.348099000703705
che,2827,"Mervelier,Schelten","BE,JU",7.527502021669694,47.338122998674635
che,2828,Val Terbi,JU,7.510356716387254,47.35912440421225
che,2829,Val Terbi,JU,7.47805345187227,47.329773581851576
che,2830,Courrendlin,JU,7.374616771799371,47.329334331521764
che,2832,Courrendlin,JU,7.409375199928265,47.32476791911014
che,2842,Rossemaison,JU,7.342748704872321,47.34579519414779
che,2843,Châtillon (JU),JU,7.344841420017822,47.32639564544007
che,2852,Courtételle,JU,7.315917183996276,47.34041243768331
che,2853,Haute-Sorne,JU,7.276295595708739,47.33255774340298
che,2854,Haute-Sorne,JU,7.244548704175262,47.336259794280004
che,2855,Haute-Sorne,JU,7.199807358555988,47.331615321866046
che,2856,Boécourt,JU,7.215560609120384,47.348984133879355
che,2857,Boécourt,JU,7.235974314481685,47.373421959151
che,2863,Haute-Sorne,JU,7.224497320220406,47.30357433879062
che,2864,Haute-Sorne,JU,7.270666816008712,47.30525037678014
che,2873,Saulcy,JU,7.154196117067848,47.30225216846655
che,2882,"Saint-Brais,Clos du Doubs",JU,7.132747247484727,47.34263329831629
che,2883,Clos du Doubs,JU,7.18127725450903,47.35450144511013
che,2884,Clos du Doubs,JU,7.151944518330188,47.35286633578944
che,2885,Clos du Doubs,JU,7.115581003849412,47.335189278874864
che,2886,Clos du Doubs,JU,7.057910978410388,47.32865686290634
che,2887,Soubey,JU,7.048514255753544,47.30956138886818
che,2888,Clos du Doubs,JU,7.1114328197462475,47.366067566133935
che,2889,Clos du Doubs,JU,7.077922057487893,47.35192335469442
che,2900,Porrentruy,JU,7.076829393136044,47.41589644345257
che,2902,Fontenais,JU,7.081091172234213,47.4029839692806
che,2903,Fontenais,JU,7.080767478244376,47.38785955051177
che,2904,Fontenais,JU,7.036910884998154,47.38768330708634
che,2905,Courtedoux,JU,7.042542434216465,47.40870546863922
che,2906,Haute-Ajoie,JU,7.001274802964321,47.39176259311166
che,2907,Haute-Ajoie,JU,6.9563864816232,47.38926550362676
che,2908,Grandfontaine,JU,6.939734143000998,47.39173442356937
che,2912,Haute-Ajoie,JU,6.9388285103099,47.371430165987775
che,2914,Haute-Ajoie,JU,6.8970773667431065,47.37258688442144
che,2915,Bure,JU,7.006006426177857,47.44081722673207
che,2916,Fahy,JU,6.949203566504743,47.41788803392527
che,2922,Courchavon,JU,7.054918122214482,47.440929665713355
che,2923,Basse-Allaine,JU,7.0455919208189055,47.458694987190526
che,2924,Basse-Allaine,JU,7.05929159154095,47.48703343808432
che,2925,Basse-Allaine,JU,7.028405447665326,47.479407412084704
che,2926,Boncourt,JU,7.01322291098763,47.49643441812079
che,2932,Coeuve,JU,7.096215612517213,47.45453339800806
che,2933,"Lugnez,Damphreux",JU,7.099992982385105,47.48007147484615
che,2935,Beurnevésin,JU,7.137170400032892,47.49352687493887
che,2942,Alle,JU,7.128727316607907,47.42725992711788
che,2943,Vendlincourt,JU,7.146347783110027,47.45106202891689
che,2944,Bonfol,JU,7.147485966545557,47.47952799830399
che,2946,La Baroche,JU,7.176427433937339,47.42606916689736
che,2947,La Baroche,JU,7.20439873056064,47.42348834444298
che,2950,Courgenay,JU,7.132468469952204,47.399415953555604
che,2952,Cornol,JU,7.163826424497273,47.405904793707954
che,2953,La Baroche,JU,7.2044706680209565,47.41178054202125
che,2954,La Baroche,JU,7.211151149569307,47.4019734966931
che,3004,Bern,BE,7.4520107074682755,46.9804871926737
che,3005,Bern,BE,7.4499315524153165,46.93938995355346
che,3006,Bern,BE,7.471278342654535,46.94581211618736
che,3007,Bern,BE,7.434584681118567,46.93916946051898
che,3008,Bern,BE,7.413896593247754,46.94510055534585
che,3010,Bern,BE,7.424146923140143,46.946949745318975
che,3011,Bern,BE,7.454941492950782,46.95038129065638
che,3012,Bern,BE,7.426024905962782,46.9615840240437
che,3013,Bern,BE,7.446200709077207,46.9562088874894
che,3014,Bern,BE,7.458410005166116,46.962199898843814
che,3015,Bern,BE,7.484808363287374,46.94020835960618
che,3018,Bern,BE,7.389112617746961,46.93388884623948
che,3019,Bern,BE,7.347945581278322,46.930982620654966
che,3020,Bern,BE,7.3208732786933925,46.937079949146224
che,3027,Bern,BE,7.38725006278402,46.95580001011158
che,3032,Wohlen bei Bern,BE,7.37745753337259,46.967890570542714
che,3033,Wohlen bei Bern,BE,7.355671235350941,46.97061613493138
che,3034,Wohlen bei Bern,BE,7.31483523575102,46.981790447326816
che,3035,Seedorf (BE),BE,7.285473818301022,46.9949317473613
che,3036,Radelfingen,BE,7.272789570869698,47.00173950600875
che,3037,Kirchlindach,BE,7.4171019797865405,46.9765503866045
che,3038,Kirchlindach,BE,7.41429839450897,46.999655913785475
che,3042,Meikirch,BE,7.401894445223139,46.990587693360965
che,3043,Wohlen bei Bern,BE,7.385688617668674,46.98728323989878
che,3044,Wohlen bei Bern,BE,7.309498303073987,46.99531843802629
che,3045,Meikirch,BE,7.362644782001176,47.009346841890384
che,3046,Meikirch,BE,7.3378391826949665,47.00771761190642
che,3047,Bremgarten bei Bern,BE,7.4343460291491406,46.97851939281166
che,3048,Ittigen,BE,7.457665419230947,46.97879768105429
che,3049,Wohlen bei Bern,BE,7.3341691689328385,46.9917912063605
che,3052,Zollikofen,BE,7.4614196868499025,46.992903463527014
che,3053,"Münchenbuchsee,Diemerswil,Wiggiswil,Deisswil bei Münchenbuchsee,Rapperswil (BE)",BE,7.445739119783147,47.02978424397324
che,3054,Schüpfen,BE,7.376796529308662,47.038212980651856
che,3063,Ittigen,BE,7.479871609207617,46.97526372862298
che,3065,Bolligen,BE,7.496274643643378,46.97503186167682
che,3066,Stettlen,BE,7.522595985777528,46.9591384789595
che,3067,Vechigen,BE,7.547609493046736,46.95352738499335
che,3068,Vechigen,BE,7.564664507426845,46.960818071795245
che,3072,Ostermundigen,BE,7.497658031581551,46.95768748613407
che,3073,Muri bei Bern,BE,7.509268304033053,46.93505098371397
che,3074,Muri bei Bern,BE,7.488481690919198,46.92836909538042
che,3075,Worb,BE,7.543800833179203,46.922516383274505
che,3076,Worb,BE,7.564317368394192,46.930142382710436
che,3077,Worb,BE,7.596896834257902,46.9321909380293
che,3078,Worb,BE,7.586909325760425,46.91895042890622
che,3082,Grosshöchstetten,BE,7.611707743283215,46.90869340430165
che,3083,Münsingen,BE,7.580043333746495,46.90571866526391
che,3084,Köniz,BE,7.449534817204611,46.928587500902175
che,3086,Wald (BE),BE,7.469285784935613,46.88719447044433
che,3087,Niedermuhlern,BE,7.4653305355476,46.8613792087944
che,3088,Rüeggisberg,BE,7.448911665437531,46.82913863563378
che,3089,Rüeggisberg,BE,7.401155906088703,46.83911316641459
che,3095,Köniz,BE,7.432934307530731,46.925566951611316
che,3096,Oberbalm,BE,7.404624948512458,46.87296727268848
che,3097,Köniz,BE,7.415781571292609,46.929726140639936
che,3098,Köniz,BE,7.4216062010759005,46.920237462405176
che,3099,Riggisberg,BE,7.447521431009298,46.782802053254706
che,3110,Münsingen,BE,7.555372010889106,46.876452532223304
che,3111,Münsingen,BE,7.586572618633995,46.874000891072704
che,3112,Allmendingen,BE,7.524133983324439,46.914779817687844
che,3113,Rubigen,BE,7.549246218282001,46.897914929912865
che,3114,Wichtrach,BE,7.579436690202883,46.84552662670205
che,3115,Gerzensee,BE,7.547413796871273,46.83830708939187
che,3116,Kirchdorf (BE),BE,7.5412812732016725,46.81802352876337
che,3122,Kehrsatz,BE,7.4735465144399855,46.91263453290043
che,3123,Belp,BE,7.500502388411208,46.89090972549944
che,3124,Belp,BE,7.52129780288839,46.86731252122218
che,3125,Toffen,BE,7.492819757300539,46.85851826197868
che,3126,"Kaufdorf,Kirchdorf (BE)",BE,7.507164738248269,46.84126134887862
che,3127,Thurnen,BE,7.5092178820831545,46.810410768942965
che,3128,"Rümligen,Thurnen",BE,7.5010044250603665,46.82801111361361
che,3132,Riggisberg,BE,7.47667867704334,46.81162134622063
che,3144,Köniz,BE,7.400727583857718,46.90087165575823
che,3145,Köniz,BE,7.385512193538205,46.88567018784211
che,3147,Köniz,BE,7.368002076549886,46.87647198995243
che,3148,Schwarzenburg,BE,7.347214349772513,46.84188670438746
che,3150,Schwarzenburg,BE,7.341858607447383,46.8169815477656
che,3152,Schwarzenburg,BE,7.37859691375684,46.80976896276145
che,3153,Rüschegg,BE,7.3740407117850735,46.776218638711356
che,3154,Rüschegg,BE,7.407255321147968,46.782033610724255
che,3155,Rüeggisberg,BE,7.423715846595291,46.811946306913526
che,3156,Guggisberg,BE,7.352927231547025,46.76560172600021
che,3157,Schwarzenburg,BE,7.358698120458982,46.792571006902456
che,3158,Guggisberg,BE,7.329234065713339,46.76661953277998
che,3159,Guggisberg,BE,7.3198153824304,46.78380400006939
che,3172,Köniz,BE,7.376883685135722,46.925868642503225
che,3173,Köniz,BE,7.3611578070011685,46.91585618738992
che,3174,Köniz,BE,7.351795846252995,46.89404983039866
che,3175,Wünnewil-Flamatt,FR,7.310035269201683,46.890363299342354
che,3176,Neuenegg,BE,7.298493585288154,46.897113313705596
che,3177,Laupen,BE,7.240793504282818,46.90293598974355
che,3178,Bösingen,FR,7.228379375436858,46.89420051645175
che,3179,Kriechenwil,BE,7.226784497673144,46.910780839976304
che,3182,Ueberstorf,FR,7.31434092873176,46.86546330251754
che,3183,Schwarzenburg,BE,7.319128163106372,46.85175301948025
che,3184,Wünnewil-Flamatt,FR,7.275229604836733,46.87459870053762
che,3185,Schmitten (FR),FR,7.249491829474461,46.8563358832448
che,3186,Düdingen,FR,7.1906667781941245,46.84603604857306
che,3202,Frauenkappelen,BE,7.337651452300777,46.955654591981
che,3203,Mühleberg,BE,7.26194141112139,46.953803750611364
che,3204,Mühleberg,BE,7.275860775530531,46.933536432571316
che,3205,Mühleberg,BE,7.249370823368343,46.94388259425456
che,3206,"Ferenbalm,Gurmels","BE,FR",7.220737001546195,46.936395944193166
che,3207,"Wileroltigen,Kallnach",BE,7.240557375561199,46.97825712611848
che,3208,Gurbrü,BE,7.218054807709888,46.9641008528358
che,3210,Kerzers,FR,7.196383123377338,46.97614661563753
che,3212,Gurmels,FR,7.179020199867416,46.88901320144194
che,3213,"Kleinbösingen,Gurmels",FR,7.199728265232913,46.90133623891182
che,3214,Ulmiz,FR,7.200690954068557,46.93258399357902
che,3215,"Murten,Gempenach",FR,7.182984844585991,46.938300047324866
che,3216,Ried bei Kerzers,FR,7.1916561095969875,46.954280966351035
che,3225,Müntschemier,BE,7.1421159704107176,46.99337062851557
che,3226,Treiten,BE,7.1609448142829075,47.00907433554881
che,3232,Ins,BE,7.1019165424261335,47.009096208437064
che,3233,Tschugg,BE,7.076034442099887,47.026816095604474
che,3234,Vinelz,BE,7.111246429897442,47.03378869490464
che,3235,Erlach,BE,7.0953795553017756,47.041987435639584
che,3236,Gampelen,BE,7.0592346482919055,47.014592053964975
che,3237,Brüttelen,BE,7.147408635427687,47.02232103404785
che,3238,Gals,BE,7.04964162742748,47.02785157315933
che,3250,Lyss,BE,7.307507139316171,47.07058059074075
che,3251,"Rapperswil (BE),Wengi",BE,7.410366329093292,47.086094923162236
che,3252,Worben,BE,7.29227482672257,47.10013223810568
che,3253,Schnottwil,SO,7.397124323546915,47.11174999213478
che,3254,Messen,SO,7.440131432737637,47.09759863434791
che,3255,Rapperswil (BE),BE,7.409942374348781,47.06313800328001
che,3256,Rapperswil (BE),BE,7.427188346178564,47.053334090105444
che,3257,Grossaffoltern,BE,7.352663393561769,47.06812398784051
che,3262,Grossaffoltern,BE,7.335430048737832,47.06164938754096
che,3263,Büetigen,BE,7.341190118655992,47.10657011504432
che,3264,Diessbach bei Büren,BE,7.365511250149398,47.10691680116628
che,3266,Seedorf (BE),BE,7.319965580521093,47.048537933180654
che,3267,Seedorf (BE),BE,7.311099073409035,47.03422006712562
che,3268,Seedorf (BE),BE,7.293586219686586,47.026803348324826
che,3270,Aarberg,BE,7.275297463028967,47.04354553494627
che,3271,Radelfingen,BE,7.269056279045946,47.02186213952464
che,3272,"Walperswil,Epsach",BE,7.225904373087744,47.06481858126804
che,3273,Kappelen,BE,7.267581044457035,47.06019559031215
che,3274,"Bühl,Hermrigen,Merzligen",BE,7.248286697226805,47.079627017812214
che,3280,"Murten,Greng,Meyriez",FR,7.106510248493799,46.92237980154317
che,3282,Bargen (BE),BE,7.257301120360871,47.04015793295672
che,3283,Kallnach,BE,7.241178418815681,47.01417478452811
che,3284,Fräschels,FR,7.211127039457949,46.9954002049432
che,3285,Galmiz,FR,7.157852322806794,46.94996030283689
che,3286,Muntelier,FR,7.124019439549018,46.935425768259364
che,3292,Lyss,BE,7.32243278209025,47.1005968730838
che,3293,Dotzigen,BE,7.343422904249429,47.12093972626486
che,3294,"Büren an der Aare,Meienried",BE,7.357716247948207,47.13928675402954
che,3295,Rüti bei Büren,BE,7.406937992540913,47.15446929159202
che,3296,Arch,BE,7.427523003659044,47.16385911047271
che,3297,Leuzigen,BE,7.454367888487084,47.173146715122364
che,3298,Oberwil bei Büren,BE,7.4093160557578495,47.12701225246926
che,3302,Moosseedorf,BE,7.482209551843116,47.017519452710474
che,3303,"Zuzwil (BE),Jegenstorf",BE,7.494156635520058,47.04706314841602
che,3305,"Iffwil,Jegenstorf",BE,7.4664580301091945,47.06706250194411
che,3306,Fraubrunnen,BE,7.480644100019014,47.08447042903144
che,3307,Messen,SO,7.469006057822977,47.08645905840389
che,3308,Fraubrunnen,BE,7.514712897204287,47.07653840505172
che,3309,"Fraubrunnen,Kernenried",BE,7.545403809804229,47.0714979099049
che,3312,Fraubrunnen,BE,7.516891422529022,47.08410782733077
che,3313,Fraubrunnen,BE,7.513734940734976,47.0957799774994
che,3314,Fraubrunnen,BE,7.524439419975223,47.11037602831214
che,3315,Bätterkinden,BE,7.536800050314383,47.13915757880759
che,3317,Fraubrunnen,BE,7.485756904270163,47.10473758546151
che,3322,"Mattstetten,Urtenen-Schönbühl",BE,7.506829646682949,47.027750078044534
che,3323,Bäriswil,BE,7.533728548974185,47.017490330591286
che,3324,"Hindelbank,Mötschwil",BE,7.5537171623417,47.045299634727186
che,3325,Krauchthal,BE,7.554180608686295,47.029003494729736
che,3326,Krauchthal,BE,7.568516667394509,47.00898490758746
che,3360,Herzogenbuchsee,BE,7.714362194025974,47.19453410036497
che,3362,Niederönz,BE,7.691470435308258,47.18435637534735
che,3363,Herzogenbuchsee,BE,7.6943151461978125,47.17943485640303
che,3365,Seeberg,BE,7.667250575879542,47.1501925956255
che,3366,Bettenhausen,BE,7.711953548994574,47.16974909835191
che,3367,"Ochlenberg,Thörigen",BE,7.7328745887457995,47.16245397423307
che,3368,Bleienbach,BE,7.757697858087768,47.18456560409521
che,3372,Heimenhausen,BE,7.691999405427046,47.198904591096365
che,3373,Heimenhausen,BE,7.690686598142982,47.210116604043165
che,3374,Wangenried,BE,7.655651501195017,47.21712844835686
che,3375,Inkwil,BE,7.673676168370711,47.20140889385853
che,3376,"Graben,Berken",BE,7.711874050795467,47.2205236392319
che,3377,Walliswil bei Wangen,BE,7.682899722420798,47.22885573059148
che,3380,"Walliswil bei Niederbipp,Wangen an der Aare",BE,7.676431266833291,47.23450849683134
che,3400,Burgdorf,BE,7.624661648027415,47.056525323105355
che,3412,Heimiswil,BE,7.659926832466067,47.06480211288294
che,3413,Heimiswil,BE,7.675601490938781,47.07677257090229
che,3414,Oberburg,BE,7.620478129067244,47.039480135597856
che,3415,"Hasle bei Burgdorf,Rüegsau",BE,7.654499619566998,47.0100314740883
che,3416,Affoltern im Emmental,BE,7.734751217233986,47.064508123585405
che,3417,Rüegsau,BE,7.674543290911988,47.02477540829484
che,3418,Rüegsau,BE,7.6917505120195,47.03392948535733
che,3419,Hasle bei Burgdorf,BE,7.616170176479505,46.993179537758415
che,3421,"Lyssach,Oberburg,Rüti bei Lyssach",BE,7.583693314168545,47.056197169898326
che,3422,"Rüdtligen-Alchenflüh,Kirchberg (BE)",BE,7.579010467814624,47.08369478854949
che,3423,Ersigen,BE,7.592661946841793,47.09557253398672
che,3424,Ersigen,BE,7.610191206254273,47.1129744694457
che,3425,"Willadingen,Koppigen",BE,7.603329864924728,47.13994842878914
che,3426,Aefligen,BE,7.551745253616113,47.0957129316114
che,3427,Utzenstorf,BE,7.557280029942148,47.126809720394974
che,3428,Wiler bei Utzenstorf,BE,7.555844253350728,47.15237161870326
che,3429,"Hellsau,Höchstetten",BE,7.641543849856434,47.145440051584785
che,3432,Lützelflüh,BE,7.684430026032469,47.0014236843782
che,3433,Rüderswil,BE,7.694470757804733,46.985596793019965
che,3434,Landiswil,BE,7.676416667658066,46.95948948293146
che,3435,Lützelflüh,BE,7.708427516385098,46.998450456363365
che,3436,Rüderswil,BE,7.741319474978464,46.975810550378135
che,3437,Rüderswil,BE,7.719590363055356,46.98276574292803
che,3438,Lauperswil,BE,7.73789382824007,46.96653915221448
che,3439,Lützelflüh,BE,7.737947242253612,46.98855952704501
che,3452,Lützelflüh,BE,7.725925690680707,47.00995724144978
che,3453,Trachselwald,BE,7.76098550187369,47.01200541961197
che,3454,Sumiswald,BE,7.744992014523709,47.02777136699576
che,3455,Sumiswald,BE,7.741121547090813,47.02493666395518
che,3456,Trachselwald,BE,7.743286436591412,47.017044584389865
che,3457,Sumiswald,BE,7.797132554587479,47.04307573648072
che,3462,Affoltern im Emmental,BE,7.75337349323487,47.062568955133436
che,3463,Affoltern im Emmental,BE,7.749060566808205,47.07943358352765
che,3464,Walterswil (BE),BE,7.743642530139465,47.09473672207893
che,3465,Dürrenroth,BE,7.791371075873477,47.09049319949659
che,3472,"Wynigen,Rumendingen",BE,7.653045892088647,47.10599959558344
che,3473,Alchenstorf,BE,7.639326071794651,47.1263300001015
che,3474,Wynigen,BE,7.704081189919242,47.11799396706884
che,3475,Seeberg,BE,7.698853842137185,47.14916845879555
che,3476,Ochlenberg,BE,7.713036211695823,47.14055057835775
che,3503,Konolfingen,BE,7.594782374172376,46.889572791966636
che,3504,"Oberhünigen,Niederhünigen",BE,7.647530888805321,46.87879424397235
che,3506,Grosshöchstetten,BE,7.641654168702469,46.907074935399685
che,3507,Biglen,BE,7.6288649135275985,46.9299762317762
che,3508,Arni (BE),BE,7.668092794762981,46.93611512463175
che,3510,"Freimettigen,Konolfingen,Häutligen",BE,7.6178520524286855,46.86790551386958
che,3512,Walkringen,BE,7.6148257082053075,46.94803996362344
che,3513,Walkringen,BE,7.623443965150289,46.96566027971444
che,3531,Oberthal,BE,7.674852918930048,46.91663731822342
che,3532,"Zäziwil,Mirchel",BE,7.6541548569920765,46.89903098958713
che,3533,Bowil,BE,7.695002336025523,46.893036638218824
che,3534,Signau,BE,7.724510044243204,46.92057165006197
che,3535,Signau,BE,7.734789806007488,46.9286160548714
che,3536,Eggiwil,BE,7.766453854044008,46.90888314139658
che,3537,Eggiwil,BE,7.795775950459093,46.87442633082252
che,3538,Röthenbach im Emmental,BE,7.745396940837518,46.852578394930504
che,3543,Lauperswil,BE,7.747616557425887,46.94803202869673
che,3550,Langnau im Emmental,BE,7.785107753847711,46.941862163512276
che,3551,Langnau im Emmental,BE,7.8000319110587935,46.97767876075739
che,3552,Langnau im Emmental,BE,7.811059928473162,46.932992676145886
che,3553,Langnau im Emmental,BE,7.808335943475956,46.95596305616607
che,3555,Trubschachen,BE,7.845703574511871,46.92290917812671
che,3556,Trub,BE,7.877423589965439,46.94314060455193
che,3557,Trub,BE,7.908634481503582,46.967261272061435
che,3600,Thun,BE,7.6237070981549095,46.75552450460083
che,3603,Thun,BE,7.600145125862506,46.76204218119255
che,3604,Thun,BE,7.6173719892318275,46.74051454954512
che,3608,Thun,BE,7.598845359177168,46.739937765637464
che,3612,Steffisburg,BE,7.6382507686148715,46.782682727069314
che,3613,Steffisburg,BE,7.614530432913175,46.771039566980285
che,3614,Unterlangenegg,BE,7.692786539904356,46.798145581653394
che,3615,Buchholterberg,BE,7.695456888478104,46.82704474556907
che,3616,Unterlangenegg,BE,7.714785926718692,46.796789522799
che,3617,Fahrni,BE,7.658341030698468,46.79806291361333
che,3618,Wachseldorn,BE,7.75638965215373,46.81804329327336
che,3619,Eriz,BE,7.777500137070619,46.78826364158483
che,3622,Homberg,BE,7.683809773149117,46.7768968947765
che,3623,"Teuffenthal (BE),Horrenbach-Buchen",BE,7.72424657891989,46.77573313894681
che,3624,"Steffisburg,Thun",BE,7.663563967902673,46.76586336704081
che,3625,Heiligenschwendi,BE,7.679271330419852,46.75136977234438
che,3626,Hilterfingen,BE,7.651250010405704,46.7452410259915
che,3627,Heimberg,BE,7.601552757890357,46.78961504618018
che,3628,Uttigen,BE,7.574351101800627,46.79312814205203
che,3629,"Oppligen,Kiesen,Jaberg",BE,7.579570067016449,46.8191892555524
che,3631,Stocken-Höfen,BE,7.563742976663338,46.723184678900566
che,3632,Stocken-Höfen,BE,7.563746868680765,46.71316907472361
che,3633,Amsoldingen,BE,7.579183783690713,46.72714735826497
che,3634,Thierachern,BE,7.576313731399836,46.75152121260853
che,3635,Uebeschi,BE,7.551474469119937,46.739663633951466
che,3636,Forst-Längenbühl,BE,7.525657650487512,46.759700453677745
che,3638,"Pohlern,Blumenstein",BE,7.527819533680996,46.73315005815296
che,3645,"Zwieselberg,Spiez",BE,7.621886156204969,46.714239769531154
che,3646,Spiez,BE,7.64601805342903,46.70943275546603
che,3647,Reutigen,BE,7.619495082836562,46.6931818500118
che,3652,Hilterfingen,BE,7.6622933472277985,46.74068328960055
che,3653,Oberhofen am Thunersee,BE,7.668508290192274,46.73119687478233
che,3654,Sigriswil,BE,7.701540588101549,46.71283105970267
che,3655,Sigriswil,BE,7.7201015149563075,46.717757251973794
che,3656,Sigriswil,BE,7.70069160914758,46.725702395221155
che,3657,Sigriswil,BE,7.7163037035642015,46.735644269968546
che,3658,Sigriswil,BE,7.737603394009353,46.69893125195275
che,3661,Uetendorf,BE,7.576102610916269,46.77845392046864
che,3662,Seftigen,BE,7.540671423708006,46.78683109298828
che,3663,Gurzelen,BE,7.533301354545482,46.77972178413199
che,3664,Burgistein,BE,7.505175769493035,46.796275445752904
che,3665,Wattenwil,BE,7.504873153234969,46.770531206828316
che,3671,"Herbligen,Brenzikofen",BE,7.610982748633724,46.82172495277596
che,3672,Oberdiessbach,BE,7.635114530854835,46.83784853531562
che,3673,Linden,BE,7.677174908075053,46.84723832642659
che,3674,Oberdiessbach,BE,7.6388768632332305,46.81624656105524
che,3700,Spiez,BE,7.6771697089353585,46.69072690372953
che,3702,Spiez,BE,7.6804154095394255,46.672377968337784
che,3703,Aeschi bei Spiez,BE,7.709993522347501,46.65258051562896
che,3704,Krattigen,BE,7.720748183953582,46.65835206539378
che,3705,Spiez,BE,7.702631079861317,46.67614206945218
che,3706,Leissigen,BE,7.772862877989464,46.65497296794025
che,3707,Därligen,BE,7.807943970674385,46.661615520564254
che,3711,"Reichenbach im Kandertal,Aeschi bei Spiez",BE,7.68835249064276,46.64649724118851
che,3713,Reichenbach im Kandertal,BE,7.6940472975115615,46.62615330429242
che,3714,"Reichenbach im Kandertal,Frutigen",BE,7.65278120112792,46.59882994903874
che,3715,Adelboden,BE,7.558821777117628,46.492911368735335
che,3716,Kandergrund,BE,7.662993835267664,46.545637666328055
che,3717,Kandergrund,BE,7.675388800829906,46.52891450657587
che,3718,Kandersteg,BE,7.6747236708661655,46.494667509915246
che,3722,Reichenbach im Kandertal,BE,7.698120662722932,46.61487338306163
che,3723,Reichenbach im Kandertal,BE,7.7243790267298165,46.58940466545534
che,3724,Frutigen,BE,7.611857968783075,46.564254002612714
che,3725,Frutigen,BE,7.598418290300473,46.52701595207362
che,3752,Wimmis,BE,7.635291179645352,46.672973483065434
che,3753,Diemtigen,BE,7.579411370946591,46.6599181094244
che,3754,Diemtigen,BE,7.566115711304058,46.64938584283214
che,3755,Diemtigen,BE,7.5641870932529285,46.63039272463541
che,3756,Diemtigen,BE,7.515596063393855,46.60744551336719
che,3757,Diemtigen,BE,7.487095972871415,46.57511706263711
che,3758,Erlenbach im Simmental,BE,7.578066907766267,46.66407638762859
che,3762,Erlenbach im Simmental,BE,7.552085403018871,46.660966760595315
che,3763,Därstetten,BE,7.4957105420818575,46.658791171787776
che,3764,Därstetten,BE,7.475600133672303,46.65849968664298
che,3765,Oberwil im Simmental,BE,7.432576710845917,46.657357862740575
che,3766,Boltigen,BE,7.394266937755761,46.63039839755104
che,3770,Zweisimmen,BE,7.371831811184776,46.55201672897794
che,3771,Zweisimmen,BE,7.389479681159374,46.541516307652046
che,3772,St. Stephan,BE,7.400318092955496,46.50551980569306
che,3773,St. Stephan,BE,7.421574532870477,46.49375262661221
che,3775,Lenk,BE,7.440895746502687,46.45646279998744
che,3776,Zweisimmen,BE,7.342556508543033,46.523950296458175
che,3777,Saanen,BE,7.311731451556003,46.51747385443638
che,3778,Saanen,BE,7.291013145163886,46.5041622963315
che,3780,Saanen,BE,7.2862868583526685,46.47496339409069
che,3781,Saanen,BE,7.335657519101479,46.478962898221816
che,3782,Lauenen,BE,7.321070322690279,46.42477983046758
che,3783,Saanen,BE,7.274335181476448,46.44554256780215
che,3784,Gsteig,BE,7.270797093911568,46.41789250793218
che,3785,Gsteig,BE,7.267212527327074,46.384655783284686
che,3792,Saanen,BE,7.258479405362266,46.49033614634474
che,3800,"Beatenberg,Unterseen,Gündlischwand,Interlaken,Matten bei Interlaken",BE,7.85758171483014,46.678323315526576
che,3801,Fieschertal,VS,7.983347716477718,46.54742245048247
che,3803,Beatenberg,BE,7.790785446698734,46.696006789505645
che,3804,Habkern,BE,7.862764760652455,46.72512522982462
che,3805,Ringgenberg (BE),BE,7.8802732014470305,46.69658466666908
che,3806,Bönigen,BE,7.900487465494714,46.68403003821821
che,3807,Iseltwald,BE,7.964747713626513,46.70964924434502
che,3812,Wilderswil,BE,7.869480593649234,46.6660860269379
che,3813,Saxeten,BE,7.8309799299936556,46.636529195705926
che,3814,Gsteigwiler,BE,7.878821045414759,46.65457579517902
che,3815,Gündlischwand,BE,7.905848288801661,46.63359358295003
che,3816,"Grindelwald,Lütschental",BE,7.963442506533646,46.63750852882161
che,3818,Grindelwald,BE,8.04584348646453,46.624757287419996
che,3822,Lauterbrunnen,BE,7.902123763566511,46.60649840438364
che,3823,Lauterbrunnen,BE,7.951229977038342,46.58908419478292
che,3824,Lauterbrunnen,BE,7.901592260541027,46.548070179004824
che,3825,Lauterbrunnen,BE,7.894530238421468,46.560557854937905
che,3826,Lauterbrunnen,BE,7.89329878670129,46.547095488858965
che,3852,Ringgenberg (BE),BE,7.896498107019517,46.70086055427202
che,3853,Niederried bei Interlaken,BE,7.9293990369517005,46.716716758995936
che,3854,Oberried am Brienzersee,BE,7.956708826000278,46.73796841469703
che,3855,"Brienz (BE),Schwanden bei Brienz",BE,8.04005223731407,46.74498117018584
che,3856,Brienzwiler,BE,8.098936829535555,46.75016107279983
che,3857,Meiringen,BE,8.11214759228421,46.73918522264444
che,3858,Hofstetten bei Brienz,BE,8.071364174155438,46.753981481257725
che,3860,"Schattenhalb,Meiringen",BE,8.167905707914922,46.718402161346965
che,3862,Innertkirchen,BE,8.230780441274858,46.706371523499406
che,3863,Innertkirchen,BE,8.352955401450401,46.738333257814894
che,3864,Guttannen,BE,8.28973712978342,46.65500418330469
che,3900,Brig-Glis,VS,7.954374931569279,46.307296175454915
che,3901,Ried-Brig,VS,8.040790791037287,46.28101019125097
che,3902,Brig-Glis,VS,7.978054044586396,46.310751479362075
che,3903,Naters,VS,7.948386208960984,46.31754334910849
che,3904,Naters,VS,7.983780067194159,46.32673576947457
che,3905,Saas-Almagell,VS,7.959007694947644,46.093720906146146
che,3906,Saas-Fee,VS,7.9247437543767845,46.10718923762929
che,3907,"Simplon,Zwischbergen",VS,8.074498811772107,46.205941487403656
che,3908,Saas-Balen,VS,7.927514425972606,46.154173961197564
che,3910,Saas-Grund,VS,7.936774249177611,46.12404516051829
che,3911,Ried-Brig,VS,8.017136416656497,46.314067805813416
che,3912,Termen,VS,8.024123482773154,46.32977413767602
che,3913,Termen,VS,8.045780311727572,46.3054529824838
che,3914,Naters,VS,7.978990639194428,46.364806394847534
che,3916,Ferden,VS,7.755929285514859,46.395126381706724
che,3917,"Kippel,Ferden",VS,7.763251954323044,46.38252825420774
che,3918,Wiler (Lötschen),VS,7.783561471129173,46.404205822247754
che,3919,Blatten,VS,7.81938094132358,46.42044016431107
che,3920,Zermatt,VS,7.746746618727868,46.01951639686414
che,3922,"Embd,Eisten,Stalden (VS)",VS,7.867500151541736,46.21593460706075
che,3923,Törbel,VS,7.849292099532231,46.23825670140053
che,3924,St. Niklaus,VS,7.803094808254255,46.17774484783004
che,3925,Grächen,VS,7.838430298902407,46.19526981458621
che,3926,Embd,VS,7.8282907109216175,46.21498772049197
che,3927,St. Niklaus,VS,7.792348738489755,46.135419846390235
che,3928,Randa,VS,7.786564087977098,46.099825820581465
che,3929,Täsch,VS,7.782096667203013,46.06813113585238
che,3930,Visp,VS,7.896131705922404,46.2922424164541
che,3931,Lalden,VS,7.904554773660758,46.299024219002895
che,3932,Visperterminen,VS,7.900793818262789,46.258102362577326
che,3933,Staldenried,VS,7.887666364082242,46.2293607219569
che,3934,Zeneggen,VS,7.865193880486323,46.274851262646806
che,3935,Bürchen,VS,7.8164280339851215,46.282298215716665
che,3937,Baltschieder,VS,7.872991659861977,46.342691732421606
che,3938,Ausserberg,VS,7.851100174477477,46.31433512133436
che,3939,Eggerberg,VS,7.876986227115338,46.30660063785624
che,3940,Steg-Hohtenn,VS,7.751891643351499,46.3122474774438
che,3942,"Raron,Niedergesteln",VS,7.800946205566535,46.312176613949326
che,3943,Eischoll,VS,7.781344093840045,46.294924703813706
che,3944,Unterbäch,VS,7.800292920774198,46.28487698901945
che,3945,Gampel-Bratsch,VS,7.7279127134327705,46.31397175744258
che,3946,Turtmann-Unterems,VS,7.704385480521047,46.25598084285197
che,3947,Ergisch,VS,7.713069860405987,46.290975459792826
che,3948,"Oberems,Turtmann-Unterems",VS,7.693304679252154,46.28666440102681
che,3949,Steg-Hohtenn,VS,7.758549612311657,46.32014077942996
che,3951,Agarn,VS,7.663313713524741,46.2966633269945
che,3952,Leuk,VS,7.642421107458314,46.30899308741638
che,3953,"Inden,Leuk,Varen",VS,7.620334000158084,46.3259137299898
che,3954,Leukerbad,VS,7.629260790700122,46.37938722459076
che,3955,Albinen,VS,7.63334870249599,46.34037910062421
che,3956,Guttet-Feschel,VS,7.672645622889624,46.32690615565979
che,3957,"Gampel-Bratsch,Leuk",VS,7.700829730260679,46.32079100372009
che,3960,"Anniviers,Crans-Montana,Sierre",VS,7.526434791898201,46.288009090973325
che,3961,Anniviers,VS,7.594498337552597,46.19645838533446
che,3963,Crans-Montana,VS,7.499115905592638,46.31424071300978
che,3965,Chippis,VS,7.540240750214068,46.28056876851519
che,3966,Chalais,VS,7.50090787371691,46.26348290296157
che,3967,Chalais,VS,7.533137481743037,46.257488066839215
che,3968,Veyras,VS,7.537032508249072,46.30244701153278
che,3970,Salgesch,VS,7.570781431707039,46.31173143034224
che,3971,Crans-Montana,VS,7.478225061988655,46.28062439041642
che,3972,Miège,VS,7.547221323582262,46.312134135273226
che,3973,Venthône,VS,7.531992201550575,46.30774565357256
che,3974,Crans-Montana,VS,7.520808918106463,46.31641613403653
che,3975,Crans-Montana,VS,7.5107953700643835,46.31299966723151
che,3976,"Crans-Montana,Sierre",VS,7.502406922917617,46.27967950174414
che,3977,Sierre,VS,7.464568926911881,46.25945218622231
che,3978,Lens,VS,7.453926076831864,46.2698399562725
che,3979,Grône,VS,7.454334163635748,46.25169501431458
che,3982,Bitsch,VS,8.010682264660172,46.3368220545088
che,3983,"Mörel-Filet,Riederalp,Bister",VS,8.050462205982612,46.363384103830995
che,3984,"Bellwald,Fieschertal,Fiesch",VS,8.145504053932623,46.41598778890549
che,3985,Goms,VS,8.27457512982026,46.49253509538035
che,3986,Riederalp,VS,8.033368351238794,46.35659344622457
che,3987,Riederalp,VS,8.027722836023205,46.377572351399316
che,3988,Obergoms,VS,8.31313920185109,46.511546143946376
che,3989,Goms,VS,8.208549142735455,46.44928662006865
che,3991,Bettmeralp,VS,8.069449382400128,46.37680504136696
che,3992,Bettmeralp,VS,8.062584053315772,46.39010166377326
che,3993,Grengiols,VS,8.093490650118937,46.3717829703639
che,3994,"Lax,Bettmeralp",VS,8.107959056461402,46.388316100530396
che,3995,Ernen,VS,8.184950448231495,46.405286879208724
che,3996,Binn,VS,8.183673103544466,46.36519075059388
che,3997,Bellwald,VS,8.160617872617419,46.42649190504294
che,3998,Goms,VS,8.237295847865767,46.46931843916447
che,3999,Obergoms,VS,8.348446195353008,46.53458266996717
che,4001,Basel,BS,7.588870113343706,47.55637068489486
che,4031,Basel,BS,7.579589862902068,47.56222614933267
che,4051,Basel,BS,7.586697633712085,47.55419053724425
che,4052,Basel,BS,7.6018032095488195,47.53492233647616
che,4053,Basel,BS,7.6010126830025975,47.538331371006215
che,4054,Basel,BS,7.568940143971526,47.55049380824938
che,4055,Basel,BS,7.563961744031856,47.56372775378096
che,4056,Basel,BS,7.573533628210058,47.56951486372504
che,4057,Basel,BS,7.599656338067887,47.576071360350674
che,4058,Basel,BS,7.613483901142764,47.56771366451022
che,4059,Basel,BS,7.593411728698013,47.53160364257617
che,4101,Binningen,BL,7.582091789821619,47.52857714968418
che,4102,Binningen,BL,7.577510759408907,47.539158153597796
che,4103,Bottmingen,BL,7.574453419546122,47.5257576530981
che,4104,Oberwil (BL),BL,7.554009430473808,47.51368881069738
che,4105,Biel-Benken,BL,7.519286263971317,47.50357107152688
che,4106,Therwil,BL,7.5536580010577925,47.49723017900242
che,4107,Ettingen,BL,7.551266091855304,47.477942033415005
che,4108,Witterswil,SO,7.528366730776671,47.487461915551975
che,4112,"Bättwil,Hofstetten-Flüh",SO,7.504293465872658,47.487719552034804
che,4114,Hofstetten-Flüh,SO,7.505691946113599,47.4752629174235
che,4115,Metzerlen-Mariastein,SO,7.491878633819256,47.47630135419254
che,4116,Metzerlen-Mariastein,SO,7.465929915042382,47.465696806274316
che,4117,Burg im Leimental,BL,7.4394950299998,47.45607024809806
che,4118,Rodersdorf,SO,7.456108762993545,47.481157897009886
che,4123,Allschwil,BL,7.535641462998726,47.550620945832755
che,4124,Schönenbuch,BL,7.505889758428349,47.53483917897571
che,4125,Riehen,BS,7.649218137671262,47.58471114896281
che,4126,Bettingen,BS,7.664969202626866,47.57096074487957
che,4127,Birsfelden,BL,7.625557759220216,47.555447725174254
che,4132,Muttenz,BL,7.654465313913492,47.52099882926946
che,4133,Pratteln,BL,7.6880761609829475,47.5156671479948
che,4142,Münchenstein,BL,7.6215552027864355,47.513689363619534
che,4143,Dornach,SO,7.616681508916759,47.478680368501024
che,4144,Arlesheim,BL,7.626761740150684,47.49508231367093
che,4145,Gempen,SO,7.6556585236193655,47.475883884904306
che,4146,Hochwald,SO,7.641027882713548,47.4561308447225
che,4147,Aesch (BL),BL,7.596577758556618,47.46685205427124
che,4148,Pfeffingen,BL,7.588941095133981,47.45948190012257
che,4153,Reinach (BL),BL,7.590496496968147,47.492652657787744
che,4202,Duggingen,BL,7.606372771928876,47.45230173375529
che,4203,Grellingen,BL,7.587594495610832,47.441671893072005
che,4204,Himmelried,SO,7.598507301840953,47.4221558970815
che,4206,Seewen,SO,7.660308122909247,47.43462937662461
che,4207,Bretzwil,BL,7.648835502346157,47.39952600150013
che,4208,Nunningen,SO,7.619250934102281,47.39339796044525
che,4222,Zwingen,BL,7.529679782585629,47.437451350959556
che,4223,Blauen,BL,7.52401788872718,47.450430443962
che,4224,Nenzlingen,BL,7.5570102564558095,47.44740027296448
che,4225,Brislach,BL,7.543649192705193,47.418054896663655
che,4226,Breitenbach,SO,7.550965072025541,47.4031541801511
che,4227,Büsserach,SO,7.5467763264884375,47.38989901771942
che,4228,Erschwil,SO,7.537197054683178,47.37302936661651
che,4229,Beinwil (SO),SO,7.58745367383927,47.36208704904361
che,4232,Fehren,SO,7.576990265426676,47.396525273513355
che,4233,Meltingen,SO,7.5881098206896915,47.38646905270415
che,4234,Zullwil,SO,7.599841400813108,47.391152475917
che,4242,Laufen,BL,7.498428335198224,47.421114982694064
che,4243,Dittingen,BL,7.496297572492436,47.442140400833466
che,4244,Röschenz,BL,7.472341254017429,47.42779778413061
che,4245,Kleinlützel,SO,7.417971487439652,47.42426439353582
che,4246,Wahlen,BL,7.516121723455268,47.4024381250759
che,4247,Grindel,SO,7.501375271878778,47.38136563172928
che,4252,Bärschwil,SO,7.473087271589358,47.383401046892544
che,4253,Liesberg,BL,7.42177825570078,47.396962523969876
che,4254,Liesberg,BL,7.429214623760897,47.404370855985995
che,4302,Augst,BL,7.719991739928825,47.53247753587151
che,4303,Kaiseraugst,AG,7.7249330134245024,47.53960668086402
che,4304,Giebenach,BL,7.743283502935662,47.523494744663296
che,4305,Olsberg,AG,7.783366433600229,47.52085234623146
che,4310,Rheinfelden,AG,7.792735752154903,47.55415159597879
che,4312,Magden,AG,7.810885828195472,47.530924197783726
che,4313,Möhlin,AG,7.843404634262754,47.56172136465373
che,4314,Zeiningen,AG,7.869955580152022,47.54212021344485
che,4315,Zuzgen,AG,7.897047376676882,47.524641805073756
che,4316,Hellikon,AG,7.923151056274892,47.507682694096594
che,4317,Wegenstetten,AG,7.9353303894317015,47.49870444437943
che,4322,Mumpf,AG,7.922779523714228,47.545753589945434
che,4323,Wallbach,AG,7.900412435413291,47.56260260466957
che,4324,Obermumpf,AG,7.933557442960019,47.53031020975718
che,4325,Schupfart,AG,7.9666264979358035,47.51332341622507
che,4332,Stein (AG),AG,7.951358144676237,47.54341483152194
che,4333,Münchwilen (AG),AG,7.963330725293144,47.536882982078886
che,4334,Sisseln,AG,7.985353307893484,47.55216329105581
che,4402,Frenkendorf,BL,7.706743964125709,47.50185391338025
che,4410,Liestal,BL,7.721057390542272,47.485392087909204
che,4411,Seltisberg,BL,7.7132930865943266,47.46065805645566
che,4412,Nuglar-St. Pantaleon,SO,7.6915709831791235,47.46999400558233
che,4413,Büren (SO),SO,7.670593468012855,47.44701710822687
che,4414,Füllinsdorf,BL,7.728726968437146,47.50756063121848
che,4415,Lausen,BL,7.762768947275406,47.46842769863848
che,4416,Bubendorf,BL,7.743750139068322,47.445839562705046
che,4417,Ziefen,BL,7.70530257608472,47.42924293162259
che,4418,Reigoldswil,BL,7.686666710920821,47.400403801493255
che,4419,Lupsingen,BL,7.695737825441081,47.44432965172554
che,4421,Nuglar-St. Pantaleon,SO,7.690827728483003,47.45964090963616
che,4422,Arisdorf,BL,7.766884692152537,47.51077489401165
che,4423,Hersberg,BL,7.781979052584269,47.49139695909268
che,4424,Arboldswil,BL,7.7186027105621955,47.41662559649289
che,4425,Titterten,BL,7.719533620598961,47.403903756790704
che,4426,Lauwil,BL,7.675400620785452,47.387736997452365
che,4431,Bennwil,BL,7.7811522163834965,47.40073507869624
che,4432,Lampenberg,BL,7.754166165345647,47.42612355519864
che,4433,Ramlinsburg,BL,7.769565169609723,47.449135000652845
che,4434,Hölstein,BL,7.775622030571912,47.42707546329261
che,4435,Niederdorf,BL,7.7495807660118174,47.40945327411642
che,4436,"Liedertswil,Oberdorf (BL)",BL,7.7398512315724695,47.39125291266378
che,4437,Waldenburg,BL,7.748514634835311,47.383032782766314
che,4438,Langenbruck,BL,7.767491480955992,47.34889426029655
che,4441,Thürnen,BL,7.827855268557113,47.454786527138204
che,4442,Diepflingen,BL,7.836413350719449,47.44443483683113
che,4443,Wittinsburg,BL,7.839281394545653,47.42725553029153
che,4444,Rümlingen,BL,7.8534913849105505,47.425766569508255
che,4445,Häfelfingen,BL,7.86604209479446,47.41503418831653
che,4446,Buckten,BL,7.845250469539166,47.41129859580696
che,4447,Känerkinden,BL,7.8337441533764665,47.41471333764632
che,4448,Läufelfingen,BL,7.8595051507032565,47.39793333305456
che,4450,Sissach,BL,7.815969449157543,47.470755464585
che,4451,Wintersingen,BL,7.825954666428532,47.49253593373747
che,4452,Itingen,BL,7.782383377110943,47.46558456387614
che,4453,Nusshof,BL,7.804052003317728,47.491549735131976
che,4455,Zunzgen,BL,7.802706968333332,47.449200653714506
che,4456,Tenniken,BL,7.816405820848667,47.436527854465815
che,4457,Diegten,BL,7.812870525886726,47.41455602804054
che,4458,Eptingen,BL,7.823733994937672,47.38610888310278
che,4460,Gelterkinden,BL,7.858803366158925,47.46423285796233
che,4461,Böckten,BL,7.832644904987675,47.46539831538596
che,4462,Rickenbach (BL),BL,7.850511539386286,47.48471996993386
che,4463,Buus,BL,7.866240568423816,47.505870178125065
che,4464,Maisprach,BL,7.8439811980434015,47.52492833343327
che,4465,Hemmiken,BL,7.892945978308315,47.488403978948014
che,4466,Ormalingen,BL,7.8740773945013185,47.46937895936574
che,4467,Rothenfluh,BL,7.9143933115426375,47.461950123463666
che,4468,Kienberg,SO,7.967763522650117,47.43886744144428
che,4469,Anwil,BL,7.939884737447227,47.45135938078054
che,4492,Tecknau,BL,7.887409439112947,47.44589286400765
che,4493,Wenslingen,BL,7.9095270005682075,47.439962133751784
che,4494,Oltingen,BL,7.933773352036215,47.43311734034831
che,4495,Zeglingen,BL,7.904712151242405,47.416844186660526
che,4496,Kilchberg (BL),BL,7.8989715567828,47.42585094701258
che,4497,Rünenberg,BL,7.8871878141135054,47.43300823868636
che,4500,Solothurn,SO,7.539730129000776,47.20842622149814
che,4512,Bellach,SO,7.50098414410151,47.212140788890494
che,4513,Langendorf,SO,7.5145507269645675,47.221745181576175
che,4514,Lommiswil,SO,7.463640520245327,47.222441051902116
che,4515,Oberdorf (SO),SO,7.504052368385746,47.23938341080181
che,4522,Rüttenen,SO,7.5301124531946835,47.23046562144425
che,4523,Riedholz,SO,7.5699757619226835,47.24936790316078
che,4524,"Günsberg,Balm bei Günsberg",SO,7.555660787038366,47.264743526696996
che,4525,Balm bei Günsberg,SO,7.554071229228513,47.253479339290934
che,4528,Zuchwil,SO,7.562529283104628,47.20440237967105
che,4532,Feldbrunnen-St. Niklaus,SO,7.552803826915361,47.22124128194957
che,4533,Riedholz,SO,7.566358872208892,47.23379738745674
che,4534,Flumenthal,SO,7.601530851696722,47.23550343602723
che,4535,"Hubersdorf,Kammersrohr",SO,7.590991485448156,47.24887016298723
che,4536,Attiswil,BE,7.6161491483990815,47.25046071590325
che,4537,Wiedlisbach,BE,7.647963517145638,47.24695773341669
che,4538,Oberbipp,BE,7.6567514273407795,47.26009250566314
che,4539,"Farnern,Rumisberg",BE,7.628791703579221,47.266267481308326
che,4542,Luterbach,SO,7.581369269837682,47.213564056455546
che,4543,Deitingen,SO,7.626549670191431,47.2163764562395
che,4552,Derendingen,SO,7.586544185693632,47.19476647225747
che,4553,Subingen,SO,7.622779150647907,47.19665805979735
che,4554,"Hüniken,Etziken",SO,7.641559133914158,47.186222597914536
che,4556,"Aeschi (SO),Bolken",SO,7.671155139193267,47.17616947426668
che,4557,Horriwil,SO,7.622862720686456,47.18043857531071
che,4558,Drei Höfe,SO,7.639860957991902,47.1583404604861
che,4562,Biberist,SO,7.552292204185866,47.18319359563419
che,4563,Gerlafingen,SO,7.571666327700666,47.170511224175776
che,4564,"Zielebach,Obergerlafingen","SO,BE",7.578543366607153,47.160285945161206
che,4565,Recherswil,SO,7.6000975774392785,47.16045287154653
che,4566,"Kriegstetten,Oekingen,Halten",SO,7.603019966897833,47.17514175317965
che,4571,Lüterkofen-Ichertswil,SO,7.50271129678044,47.16298136402605
che,4573,Lohn-Ammannsegg,SO,7.527411367637413,47.17326528864312
che,4574,Lüsslingen-Nennigkofen,SO,7.495172711690811,47.18754229836512
che,4576,Buchegg,SO,7.48271230106385,47.14868026417201
che,4577,Buchegg,SO,7.459808855044867,47.13819092803915
che,4578,Buchegg,SO,7.453539614209768,47.14815986442197
che,4579,Buchegg,SO,7.431513932782362,47.136579318157075
che,4581,Buchegg,SO,7.513379055029564,47.15144679460386
che,4582,Buchegg,SO,7.495540809512653,47.14374161811097
che,4583,Buchegg,SO,7.472512313230666,47.12856394063982
che,4584,Lüterswil-Gächliwil,SO,7.441923946030229,47.1244740239226
che,4585,Biezwil,SO,7.415473455427818,47.11654180032879
che,4586,Buchegg,SO,7.5128756015001334,47.14137374174772
che,4587,Buchegg,SO,7.507750613039571,47.131961804020776
che,4588,"Unterramsern,Buchegg,Messen",SO,7.480946152172922,47.11747044630533
che,4600,Olten,SO,7.898623254589295,47.350951268515644
che,4612,Wangen bei Olten,SO,7.8773767409457935,47.342669945100354
che,4613,Rickenbach (SO),SO,7.8546975866886335,47.34239763057718
che,4614,Hägendorf,SO,7.836697088020383,47.3379137105608
che,4615,Hägendorf,SO,7.814875342375678,47.35253093689586
che,4616,Kappel (SO),SO,7.8544746756600095,47.3225038167167
che,4617,Gunzgen,SO,7.833230209208017,47.315709907799956
che,4618,Boningen,SO,7.856483646909357,47.30808487332486
che,4622,Egerkingen,SO,7.7962970755511165,47.326195607525854
che,4623,Neuendorf,SO,7.79666401339499,47.30154328864997
che,4624,Härkingen,SO,7.823842173105594,47.306442750997505
che,4625,Oberbuchsiten,SO,7.772790234077351,47.310300619318106
che,4626,Niederbuchsiten,SO,7.772376865914447,47.29480806898869
che,4628,Wolfwil,SO,7.79344343591581,47.2706605279219
che,4629,Fulenbach,SO,7.831352088540427,47.277265055830746
che,4632,Trimbach,SO,7.895941195086928,47.3674386240857
che,4633,Hauenstein-Ifenthal,SO,7.871330135727291,47.377754869149925
che,4634,Wisen (SO),SO,7.887330367802932,47.39290215112462
che,4652,Winznau,SO,7.930110269914189,47.36355834666422
che,4653,Obergösgen,SO,7.955836829637238,47.36247263320103
che,4654,Lostorf,SO,7.951705385846941,47.383068784992545
che,4655,"Rohr (SO),Stüsslingen",SO,7.96527344576268,47.402441677010586
che,4656,Starrkirch-Wil,SO,7.929461334451165,47.352609029203364
che,4657,Dulliken,SO,7.9462469689500415,47.34786997190354
che,4658,Däniken,SO,7.976077139925048,47.351998911571684
che,4663,Aarburg,AG,7.899275287858973,47.32076462647689
che,4665,Oftringen,AG,7.930490134813142,47.31033022220715
che,4702,Oensingen,SO,7.723819210622502,47.287299685265296
che,4703,Kestenholz,SO,7.754089650827697,47.276201786095974
che,4704,Niederbipp,BE,7.6808778223808005,47.27162164824096
che,4710,Balsthal,SO,7.698198091865202,47.31193361260735
che,4712,Laupersdorf,SO,7.647457503107374,47.31523625830742
che,4713,Matzendorf,SO,7.625778648931267,47.3049973229855
che,4714,Aedermannsdorf,SO,7.608267274843601,47.30360544774974
che,4715,Herbetswil,SO,7.588277917524576,47.294011101183465
che,4716,"Welschenrohr,Gänsbrunnen",SO,7.4945271636581765,47.27192390433818
che,4717,Mümliswil-Ramiswil,SO,7.695125870319548,47.341177974264546
che,4718,Holderbank (SO),SO,7.755925843706565,47.33187031063507
che,4719,Mümliswil-Ramiswil,SO,7.659709837987861,47.34689632130114
che,4800,Zofingen,AG,7.9450712772866225,47.28881624817353
che,4802,Strengelbach,AG,7.927548288648148,47.27989482388408
che,4803,Vordemwald,AG,7.896133548188046,47.272578729359175
che,4805,Brittnau,AG,7.9483293778903,47.258914943289355
che,4806,Wikon,LU,7.967194366576966,47.26322002190174
che,4812,Zofingen,AG,7.9781164443736525,47.30138566154691
che,4813,Uerkheim,AG,8.024873095283542,47.306173381452645
che,4814,Bottenwil,AG,8.0050111442056,47.28474758511172
che,4852,Rothrist,AG,7.878109901688754,47.30619795055111
che,4853,Murgenthal,AG,7.840922281274189,47.27082362462202
che,4856,Murgenthal,AG,7.8454952720478035,47.25866392962019
che,4900,Langenthal,BE,7.792487934277557,47.21159141344169
che,4911,Schwarzhäusern,BE,7.770033197513901,47.2551142309996
che,4912,Aarwangen,BE,7.7696172034920545,47.240874092876474
che,4913,Bannwil,BE,7.729947096268574,47.23740874186197
che,4914,Roggwil (BE),BE,7.821681268643192,47.239910457501495
che,4915,Pfaffnau,LU,7.839722033120163,47.23241342989016
che,4916,Langenthal,BE,7.84672942342528,47.20496677007174
che,4917,"Melchnau,Busswil bei Melchnau",BE,7.842429000177663,47.18466560102436
che,4919,Reisiswil,BE,7.8462908857760345,47.1651274271826
che,4922,Thunstetten,BE,7.7502517897976,47.20982674054224
che,4923,Wynau,BE,7.813477965108926,47.25776893020264
che,4924,Obersteckholz,BE,7.818350048252205,47.19951338522244
che,4932,"Madiswil,Lotzwil",BE,7.791918815118665,47.1856577450381
che,4933,Rütschelen,BE,7.7710885324279655,47.17322300990655
che,4934,Madiswil,BE,7.799396161691378,47.16737139565417
che,4935,Madiswil,BE,7.761064527199425,47.14892345591717
che,4936,Madiswil,BE,7.791107572605075,47.14624337415411
che,4937,Ursenbach,BE,7.772910070652556,47.13568467196431
che,4938,"Rohrbachgraben,Rohrbach",BE,7.806361675139216,47.12686546493977
che,4942,Walterswil (BE),BE,7.776437558302435,47.11283883785357
che,4943,Oeschenbach,BE,7.747163114344675,47.10171097411838
che,4944,Auswil,BE,7.832675668304818,47.134662851634324
che,4950,Huttwil,BE,7.849953943966639,47.11372038094467
che,4952,Eriswil,BE,7.850726081898661,47.07811732638749
che,4953,Huttwil,BE,7.832424015096589,47.10636930644758
che,4954,Wyssachen,BE,7.824445707927513,47.0791664266981
che,4955,Gondiswil,BE,7.871932474136464,47.146239774747286
che,5000,Aarau,AG,8.048667760616965,47.38901423157816
che,5004,Aarau,AG,8.06059203098429,47.400921041532925
che,5012,"Schönenwerd,Eppenberg-Wöschnau",SO,8.019888241327678,47.37667409512545
che,5013,Niedergösgen,SO,7.988126936479201,47.37741733217601
che,5014,Gretzenbach,SO,8.002429635566651,47.358224723815574
che,5015,Erlinsbach (SO),SO,8.000548307748778,47.400686048931725
che,5017,Erlinsbach (AG),AG,7.9699419429607925,47.421857789363756
che,5018,Erlinsbach (AG),AG,8.009675597968336,47.40746809985258
che,5022,Küttigen,AG,8.046797981749277,47.40544473520921
che,5023,Biberstein,AG,8.081244803607763,47.415955143611754
che,5024,Küttigen,AG,8.047804175811564,47.41303058889925
che,5025,Densbüren,AG,8.048758052218139,47.44287014866537
che,5026,Densbüren,AG,8.05486323843423,47.45285898883019
che,5027,Herznach,AG,8.047513847969308,47.471485715197716
che,5028,Ueken,AG,8.043505558542781,47.486300305469676
che,5032,Aarau,AG,8.085285394113608,47.40200809245217
che,5033,Buchs (AG),AG,8.07133990310647,47.389218266155936
che,5034,Suhr,AG,8.076050236933959,47.37319913559865
che,5035,Unterentfelden,AG,8.038348881429336,47.369685250753854
che,5036,Oberentfelden,AG,8.03377378772822,47.35800388951357
che,5037,Muhen,AG,8.051355935919275,47.33502935035101
che,5040,Schöftland,AG,8.050659835850148,47.304805959631125
che,5042,Hirschthal,AG,8.056392816249216,47.31870720252326
che,5043,Holziken,AG,8.034309025721129,47.319513152371854
che,5044,Schlossrued,AG,8.089061567831981,47.292732160340044
che,5046,Schmiedrued,AG,8.110374385720593,47.26488972250043
che,5053,Staffelbach,AG,8.040968663955613,47.287137374819
che,5054,"Kirchleerau,Moosleerau",AG,8.0664143193674,47.27274809831971
che,5056,Reitnau,AG,8.044699712908239,47.262232560474175
che,5057,Reitnau,AG,8.048901553116288,47.25102315372965
che,5058,Wiliberg,AG,8.022370446237018,47.2676258062404
che,5062,Oberhof,AG,8.002737525542276,47.448742101218606
che,5063,Wölflinswil,AG,7.995651560844302,47.461845576817176
che,5064,Wittnau,AG,7.974821040744317,47.48084096988206
che,5070,Frick,AG,8.022433734143558,47.504423026435006
che,5072,Oeschgen,AG,8.019002829724894,47.52307328644683
che,5073,Gipf-Oberfrick,AG,8.00339435570854,47.49727599584897
che,5074,Eiken,AG,7.9890138313911105,47.531964480082046
che,5075,Hornussen,AG,8.062964294923612,47.49875904991701
che,5076,Bözen,AG,8.085269355593223,47.49547840137686
che,5077,Elfingen,AG,8.098860314839524,47.506807065135796
che,5078,Effingen,AG,8.103884318410621,47.48882522944104
che,5079,Zeihen,AG,8.0876168549146,47.47533871516407
che,5080,Laufenburg,AG,8.061498194693455,47.561989807791825
che,5082,Kaisten,AG,8.04589601973965,47.54012404293761
che,5083,Kaisten,AG,8.058444103805522,47.51755611420996
che,5084,Laufenburg,AG,8.090022939271366,47.55571265204428
che,5085,Laufenburg,AG,8.097566594944173,47.53431356629068
che,5102,Rupperswil,AG,8.134577042985786,47.40276627424918
che,5103,Möriken-Wildegg,AG,8.17805857801104,47.416176676599804
che,5105,Auenstein,AG,8.140704947163327,47.41599375711504
che,5106,Veltheim (AG),AG,8.147314076631769,47.43829492234106
che,5107,Schinznach,AG,8.142555727593473,47.446374943495904
che,5108,Schinznach,AG,8.130559364275138,47.44088373281186
che,5112,Thalheim (AG),AG,8.102820750677916,47.43599357806297
che,5113,Holderbank (AG),AG,8.170666918996881,47.430938388799184
che,5116,Brugg,AG,8.168717132078998,47.45384434216058
che,5200,Brugg,AG,8.206855727883811,47.485103904702385
che,5210,Windisch,AG,8.213338533864652,47.47571374425735
che,5212,Hausen (AG),AG,8.211551221921365,47.4621008649609
che,5213,Villnachern,AG,8.156566646063329,47.46935481449758
che,5222,Brugg,AG,8.189749220630521,47.48204575895972
che,5223,Riniken,AG,8.189964693785878,47.49293628650045
che,5225,Bözberg,AG,8.161412825244234,47.49127256560385
che,5233,Villigen,AG,8.23149428632739,47.51649183927331
che,5234,Villigen,AG,8.212994781045236,47.527131300438185
che,5235,Rüfenach,AG,8.209052995702184,47.50712725299652
che,5236,Remigen,AG,8.186918051662989,47.51605284750615
che,5237,Mönthal,AG,8.143331707257639,47.51788471000419
che,5242,"Lupfig,Birr",AG,8.201727032400562,47.440108500847245
che,5243,Mülligen,AG,8.239424231763895,47.45783389290503
che,5244,Birrhard,AG,8.245620455068186,47.434175794179346
che,5245,Habsburg,AG,8.185986808457306,47.461426338701926
che,5246,Lupfig,AG,8.18419684841963,47.44688683382866
che,5272,Gansingen,AG,8.140018463125449,47.54288926812418
che,5273,Mettauertal,AG,8.133360305490969,47.554527130041244
che,5274,Mettauertal,AG,8.126201296501572,47.564316316439886
che,5275,Mettauertal,AG,8.10548880816992,47.57339403447417
che,5276,Mettauertal,AG,8.153038469591616,47.560550091913996
che,5277,Mettauertal,AG,8.161248646092117,47.54784439688957
che,5300,Turgi,AG,8.253695283885394,47.49072826137482
che,5301,Untersiggenthal,AG,8.23796625374396,47.51522516954078
che,5303,Würenlingen,AG,8.258632311972468,47.53023543539086
che,5304,Endingen,AG,8.289859120146094,47.53670417496446
che,5305,Endingen,AG,8.291365862077527,47.54755151081906
che,5306,Tegerfelden,AG,8.289672148168927,47.5570236667733
che,5312,Döttingen,AG,8.258693336229824,47.57006010393924
che,5313,Klingnau,AG,8.249813803904914,47.58087387526015
che,5314,Böttstein,AG,8.246471029620977,47.56916020361176
che,5315,Böttstein,AG,8.223289886305004,47.55553890912464
che,5316,Leuggern,AG,8.21684592501964,47.58001520603688
che,5317,Leuggern,AG,8.196543116959019,47.57575074492637
che,5318,Mandach,AG,8.186152105927746,47.54679990563589
che,5322,Koblenz,AG,8.238288219473944,47.60785396152522
che,5323,Rietheim,AG,8.280672126337247,47.60204260328571
che,5324,Full-Reuenthal,AG,8.202766962296566,47.6087575277048
che,5325,Leibstadt,AG,8.180284430874705,47.591694413437224
che,5326,Schwaderloch,AG,8.14584261879806,47.583913211440716
che,5330,Bad Zurzach,AG,8.295302673657428,47.58208209298061
che,5332,Rekingen (AG),AG,8.327509202853026,47.56993623690329
che,5333,Baldingen,AG,8.320807813618918,47.55572929205394
che,5334,Böbikon,AG,8.333066905433553,47.55343304330981
che,5400,Baden,AG,8.308981470450894,47.472626399058505
che,5404,Baden,AG,8.278285489120819,47.454506656538534
che,5405,Baden,AG,8.285912550438718,47.454448095239094
che,5406,Baden,AG,8.268352153289332,47.44008747652972
che,5408,Ennetbaden,AG,8.323996845889873,47.48055557364368
che,5412,Gebenstorf,AG,8.240134693384963,47.4878845900961
che,5413,Birmenstorf (AG),AG,8.248709815689026,47.46186805212058
che,5415,Obersiggenthal,AG,8.302099873878559,47.48686446450362
che,5416,Obersiggenthal,AG,8.2740996856474,47.496890051573494
che,5417,Untersiggenthal,AG,8.259889012057913,47.50528989151746
che,5420,Ehrendingen,AG,8.342137171802355,47.49731557857811
che,5423,Freienwil,AG,8.326438854177049,47.50263522734684
che,5425,Schneisingen,AG,8.366631225203687,47.520328124979066
che,5426,Lengnau (AG),AG,8.329038879935476,47.51999677222744
che,5430,Wettingen,AG,8.33046577587193,47.467811631241844
che,5432,Neuenhof,AG,8.323675642906949,47.445709355546214
che,5436,Würenlos,AG,8.364873281481309,47.44278731628199
che,5442,Fislisbach,AG,8.29688020756547,47.43904218816608
che,5443,Niederrohrdorf,AG,8.297717522904602,47.42382200488397
che,5444,Künten,AG,8.326894506542793,47.39027901812604
che,5445,Eggenwil,AG,8.33915843187933,47.36716737008623
che,5452,Oberrohrdorf,AG,8.32198640688661,47.422733915045605
che,5453,Remetschwil,AG,8.326704061465595,47.408317718780744
che,5454,Bellikon,AG,8.345428543616844,47.39120450046745
che,5462,Siglistorf,AG,8.380668091941509,47.54580745980969
che,5463,Wislikofen,AG,8.362765897045215,47.55746576983615
che,5464,Rümikon,AG,8.377447441969991,47.563725788235466
che,5465,Mellikon,AG,8.347607175172572,47.56709235909235
che,5466,Kaiserstuhl,AG,8.420168539546756,47.567263505615074
che,5467,Fisibach,AG,8.407905069915191,47.56213026402617
che,5502,Hunzenschwil,AG,8.12304367167965,47.38400189508897
che,5503,Schafisheim,AG,8.142271340771174,47.37818731878339
che,5504,Othmarsingen,AG,8.210146733387171,47.40211381421923
che,5505,Brunegg,AG,8.216922443033104,47.4189481887521
che,5506,Mägenwil,AG,8.233670142532956,47.40973188781006
che,5507,Mellingen,AG,8.28140089741134,47.41819940889914
che,5512,Wohlenschwil,AG,8.256708640719525,47.41238658687534
che,5522,Tägerig,AG,8.281379343901449,47.40243009934301
che,5524,Niederwil (AG),AG,8.295028709098283,47.38455394055017
che,5525,Fischbach-Göslikon,AG,8.311100253895166,47.369119938659715
che,5600,"Lenzburg,Ammerswil",AG,8.19425031378775,47.37969877692173
che,5603,Staufen,AG,8.162874049098832,47.38074694398728
che,5604,Hendschiken,AG,8.216985886017518,47.385929410228826
che,5605,Dottikon,AG,8.241003011814197,47.383663785165126
che,5606,Dintikon,AG,8.226827887344353,47.36186055274344
che,5607,Hägglingen,AG,8.254076353858885,47.387520428712556
che,5608,Stetten (AG),AG,8.301903464044198,47.40165712969418
che,5610,Wohlen (AG),AG,8.278192139493799,47.351195340409326
che,5611,Wohlen (AG),AG,8.262798883398121,47.36536141118902
che,5612,Villmergen,AG,8.243859161870212,47.34573341765583
che,5613,Villmergen,AG,8.250901159749027,47.33323348064915
che,5614,Sarmenstorf,AG,8.251926898118317,47.313347212080224
che,5615,Fahrwangen,AG,8.242276584170943,47.29484522241931
che,5616,Meisterschwanden,AG,8.234450743421144,47.29513586293343
che,5617,Meisterschwanden,AG,8.220873574988518,47.306751041759384
che,5618,Bettwil,AG,8.266529016256435,47.290655794245474
che,5619,"Uezwil,Büttikon",AG,8.272489800150058,47.32204053351865
che,5620,Bremgarten (AG),AG,8.340249183615057,47.35185760693883
che,5621,Zufikon,AG,8.360908045146695,47.34452305593265
che,5622,Waltenschwil,AG,8.302093061911151,47.33388708666461
che,5623,Boswil,AG,8.308824072980928,47.30381277155573
che,5624,Bünzen,AG,8.320892950218742,47.31819138702896
che,5625,Kallern,AG,8.293308783092897,47.313169500407255
che,5626,Bremgarten (AG),AG,8.341538048594812,47.33030509071626
che,5627,Besenbüren,AG,8.344054708110148,47.31197794925375
che,5628,Aristau,AG,8.36096289013706,47.28693886444564
che,5630,Muri (AG),AG,8.338683389330196,47.272330107996495
che,5632,Buttwil,AG,8.313805832870214,47.2695334421581
che,5634,Merenschwand,AG,8.375762671581079,47.26024147342946
che,5636,Merenschwand,AG,8.363740992988106,47.24649722690479
che,5637,"Beinwil (Freiamt),Geltwil",AG,8.336213244606498,47.23962144270807
che,5642,Mühlau,AG,8.390367690041312,47.229960873210345
che,5643,Sins,AG,8.36946672722598,47.19482892956442
che,5644,Auw,AG,8.367053701828636,47.2100917703786
che,5645,Sins,AG,8.369889467806836,47.17372650356923
che,5646,Abtwil,AG,8.355054716646293,47.1750021332656
che,5647,Oberrüti,AG,8.396097857661227,47.165664982928774
che,5702,Niederlenz,AG,8.17035576908491,47.40269979685489
che,5703,Seon,AG,8.156748986053817,47.34618892043299
che,5704,Egliswil,AG,8.185632875789462,47.34974018002163
che,5705,Hallwil,AG,8.175924624051376,47.328687668879006
che,5706,Boniswil,AG,8.184433869860433,47.315195158568905
che,5707,Seengen,AG,8.203056471955414,47.326395393280315
che,5708,Birrwil,AG,8.197733077564294,47.29015198678358
che,5712,Beinwil am See,AG,8.208411287578402,47.26499072219111
che,5722,Gränichen,AG,8.102126287370169,47.356504891918824
che,5723,Teufenthal (AG),AG,8.125820618533005,47.32811119364656
che,5724,Dürrenäsch,AG,8.15747432490808,47.321317222335864
che,5725,Leutwil,AG,8.17401463661694,47.309475460179556
che,5726,Unterkulm,AG,8.115530428755383,47.310500726758825
che,5727,Oberkulm,AG,8.124073350493546,47.298976369373506
che,5728,Gontenschwil,AG,8.145178789960822,47.27177248333663
che,5732,Zetzwil,AG,8.150961865239582,47.28824399394576
che,5733,Leimbach (AG),AG,8.170063459648773,47.27486956382906
che,5734,Reinach (AG),AG,8.188439048013898,47.2562198985712
che,5735,Rickenbach (LU),LU,8.177617971695085,47.249777527870165
che,5736,Burg (AG),AG,8.177988247532356,47.23389356202371
che,5737,Menziken,AG,8.186373578616314,47.2395127213925
che,5742,Kölliken,AG,8.029380717644955,47.33800511290128
che,5745,Safenwil,AG,7.982150013897108,47.31757204827981
che,5746,Walterswil (SO),SO,7.9716555189071805,47.328060617868054
che,6003,Luzern,LU,8.297014296749866,47.050065422434855
che,6004,Luzern,LU,8.29801805148409,47.0603311587715
che,6005,"Horw,Luzern",LU,8.327573471949592,47.02916299545299
che,6006,Luzern,LU,8.344381230545878,47.05297411931488
che,6010,"Alpnach,Kriens","OW,LU",8.266899831298481,47.00613420586621
che,6012,Kriens,LU,8.253408051053778,47.032152140327824
che,6013,Schwarzenberg,LU,8.21923790153906,47.007053792398175
che,6014,Luzern,LU,8.241732969848371,47.05758694143725
che,6015,Luzern,LU,8.277856714640482,47.06370452585225
che,6016,Neuenkirch,LU,8.196854816921798,47.070139146903394
che,6017,Ruswil,LU,8.126659026954067,47.08511563851099
che,6018,Buttisholz,LU,8.094575452171307,47.11486148554871
che,6019,Ruswil,LU,8.135132202908224,47.063344646208144
che,6020,Emmen,LU,8.273687163555474,47.077302447667435
che,6022,Grosswangen,LU,8.050048288443412,47.1332967666966
che,6023,Rothenburg,LU,8.273056533997973,47.09392638895981
che,6024,Hildisrieden,LU,8.233377381688403,47.150101066116804
che,6025,Beromünster,LU,8.209876141436043,47.17660951172368
che,6026,Rain,LU,8.263189012033356,47.129728633663504
che,6027,Römerswil,LU,8.24591599424094,47.169712986895036
che,6028,Römerswil,LU,8.230108193292715,47.198440056695134
che,6030,Ebikon,LU,8.340223080658925,47.081791064546
che,6032,Emmen,LU,8.302483974169057,47.07901664764685
che,6033,Buchrain,LU,8.346013670169837,47.09476667220702
che,6034,Inwil,LU,8.35028079588642,47.122194756839846
che,6035,Buchrain,LU,8.359783142680365,47.110636295167936
che,6036,Dierikon,LU,8.37187899909396,47.097349822850525
che,6037,Root,LU,8.391598702078447,47.114227373350495
che,6038,"Honau,Gisikon",LU,8.402744390340452,47.12999326915018
che,6039,Root,LU,8.373467402277159,47.1044257517085
che,6042,Dietwil,AG,8.392971262904757,47.147645067654324
che,6043,Adligenswil,LU,8.365095622611106,47.07057687481464
che,6044,Udligenswil,LU,8.399286230353512,47.0911185265971
che,6045,Meggen,LU,8.37206236632325,47.04648663485243
che,6047,Horw,LU,8.333815486200098,47.01343857273475
che,6048,Horw,LU,8.312697569206277,47.01919161084247
che,6052,Hergiswil (NW),NW,8.304165028185333,46.98714952380576
che,6053,Alpnach,OW,8.277422957783548,46.952835051029005
che,6055,Alpnach,OW,8.264665769918356,46.93875924589625
che,6056,Sarnen,OW,8.258578477051532,46.91951269651394
che,6060,Sarnen,OW,8.24051715011414,46.89682562107229
che,6062,Sarnen,OW,8.224000506013349,46.88180094014316
che,6063,Sarnen,OW,8.208623576876821,46.88738540565179
che,6064,Kerns,OW,8.280241594903504,46.90196596908926
che,6066,Kerns,OW,8.283291751256607,46.874548488341894
che,6067,Kerns,OW,8.292763760736719,46.83388841908319
che,6068,Kerns,OW,8.26430951162306,46.77423751824378
che,6072,Sachseln,OW,8.23303834253782,46.864551558088046
che,6073,Sachseln,OW,8.263828591189329,46.871960089781844
che,6074,Giswil,OW,8.181304942337116,46.83686405383675
che,6078,Lungern,OW,8.162535235039758,46.79730251899625
che,6083,Hasliberg,BE,8.173956295481759,46.75159744257193
che,6084,Hasliberg,BE,8.197250748331482,46.746652637733966
che,6085,Hasliberg,BE,8.19858968743095,46.739625297353705
che,6086,Hasliberg,BE,8.209168880437149,46.73275630591557
che,6102,Malters,LU,8.183441946697378,47.035944116603154
che,6103,Schwarzenberg,LU,8.174196338027361,47.01608454459252
che,6105,Werthenstein,LU,8.142811978298239,47.038290454922155
che,6106,Werthenstein,LU,8.103452949849679,47.054392606362676
che,6110,"Romoos,Wolhusen",LU,8.030377818397625,47.042848739500826
che,6112,Doppleschwand,LU,8.055450010086613,47.018924170998105
che,6113,Romoos,LU,8.024017757323787,47.011001832493115
che,6114,Wolhusen,LU,8.046410745735095,47.042956740605746
che,6122,Menznau,LU,8.039328362260857,47.08403269981633
che,6123,Menznau,LU,8.05600798716842,47.090230458001535
che,6125,Menznau,LU,7.998292097031852,47.04119034920289
che,6126,Willisau,LU,8.01280225698455,47.09709787757797
che,6130,Willisau,LU,7.989682769193232,47.11993344813139
che,6132,Willisau,LU,7.9850475172166435,47.08228938037672
che,6133,Hergiswil bei Willisau,LU,7.959182345934446,47.08589706939557
che,6142,Gettnau,LU,7.970004140658077,47.14216679281067
che,6143,Schötz,LU,7.951183491885022,47.16305858326168
che,6144,Zell (LU),LU,7.9226437825230756,47.140010397776116
che,6145,Fischbach,LU,7.9078543246065855,47.156094323014926
che,6146,Grossdietwil,LU,7.888587391913414,47.17153976508411
che,6147,Altbüron,LU,7.882414517276863,47.179915058996905
che,6152,Zell (LU),LU,7.9025482622154755,47.12788212985593
che,6153,Ufhusen,LU,7.899981324432911,47.11756593384872
che,6154,Luthern,LU,7.9150587374406465,47.084745361590386
che,6156,Luthern,LU,7.921773270961268,47.04362938727607
che,6162,Entlebuch,LU,8.086142323029046,46.989723411465356
che,6163,Entlebuch,LU,8.077154142393733,47.02178538251775
che,6166,Hasle (LU),LU,8.05138603702749,46.980155493140394
che,6167,Romoos,LU,7.985526167683116,46.97903437298026
che,6170,Schüpfheim,LU,8.019775159318362,46.95316622432971
che,6173,Flühli,LU,8.015381843686518,46.88490536055868
che,6174,Flühli,LU,8.032298241001653,46.82337914881031
che,6182,Escholzmatt-Marbach,LU,7.934738714987032,46.913977324865705
che,6192,Escholzmatt-Marbach,LU,7.90979158513959,46.89547019714946
che,6196,Escholzmatt-Marbach,LU,7.900732559144851,46.85291080081311
che,6197,Schangnau,BE,7.863773546917171,46.828233619859276
che,6203,Neuenkirch,LU,8.19302145081482,47.11462809540647
che,6204,Sempach,LU,8.199040255543311,47.13301500521537
che,6205,Eich,LU,8.169558706326251,47.15299766237408
che,6206,Neuenkirch,LU,8.203581931883939,47.099949382621524
che,6207,Nottwil,LU,8.133839955617614,47.13437117298262
che,6208,Oberkirch,LU,8.11531983634173,47.158520012243564
che,6210,Sursee,LU,8.109416461455258,47.17332165623581
che,6211,Dagmersellen,LU,8.037126332788255,47.20090200668864
che,6212,"Mauensee,Knutwil",LU,8.066519509704278,47.183235978654366
che,6213,Knutwil,LU,8.072791888365671,47.20161476186219
che,6214,Schenkon,LU,8.135521302529813,47.17325389702379
che,6215,Beromünster,LU,8.202847476720594,47.22044927438993
che,6216,Mauensee,LU,8.067031774250102,47.167739878356144
che,6217,Ettiswil,LU,8.04510196662251,47.1627731372252
che,6218,Ettiswil,LU,8.014499192453297,47.14853613321122
che,6221,Rickenbach (LU),LU,8.152954262610207,47.21984563867503
che,6222,Beromünster,LU,8.179656481827903,47.21123375248394
che,6231,Schlierbach,LU,8.109973294745453,47.22600536728054
che,6232,Geuensee,LU,8.113013304844014,47.20036050676215
che,6233,Büron,LU,8.090955117676414,47.21473886762434
che,6234,Triengen,LU,8.082392697117758,47.24452421419392
che,6235,Triengen,LU,8.049299444826515,47.2372775609714
che,6236,Triengen,LU,8.063953614293249,47.22331455777147
che,6242,Wauwil,LU,8.022582970589804,47.18629358675157
che,6243,Egolzwil,LU,8.006360743343619,47.1854644431882
che,6244,Nebikon,LU,7.974658823427287,47.19122896963079
che,6245,Altishofen,LU,7.932876546486874,47.182623019071436
che,6246,Altishofen,LU,7.9603574513004505,47.20158782075407
che,6247,Schötz,LU,7.988979985120399,47.16941853112234
che,6248,Alberswil,LU,7.997224827658098,47.149627293192815
che,6252,Dagmersellen,LU,7.990332738227114,47.214183078022096
che,6253,Dagmersellen,LU,8.018266988456094,47.21135672828789
che,6260,"Wikon,Reiden",LU,7.979955284263578,47.25341743453751
che,6262,Reiden,LU,7.963207103011526,47.23111299102361
che,6263,Reiden,LU,7.946415434035658,47.21938177313614
che,6264,Pfaffnau,LU,7.898301103727612,47.22854055900866
che,6265,Roggliswil,LU,7.8862764899628575,47.21208781334097
che,6274,Eschenbach (LU),LU,8.320291928946753,47.13277524760257
che,6275,Ballwil,LU,8.320719192730362,47.15228918207009
che,6276,Hohenrain,LU,8.318349737837538,47.179486510099686
che,6277,Hohenrain,LU,8.296710586094747,47.20231881010954
che,6280,Hochdorf,LU,8.293037241604692,47.15822237704478
che,6283,Hochdorf,LU,8.280476624561452,47.18563284891842
che,6284,Hitzkirch,LU,8.280231003858145,47.217363378469955
che,6285,Hitzkirch,LU,8.258932416514572,47.20906877808292
che,6286,Altwis,LU,8.247821559432232,47.238461827258064
che,6287,Aesch (LU),LU,8.239119923658713,47.254709748997456
che,6288,Schongau,LU,8.267460043734024,47.26909774892597
che,6289,Hitzkirch,LU,8.287012721908697,47.23961008455604
che,6294,Ermensee,LU,8.24275630088384,47.2279002905381
che,6295,Hitzkirch,LU,8.227781363029864,47.242831942300796
che,6300,Zug,ZG,8.524723809126685,47.15428014280509
che,6312,Steinhausen,ZG,8.485180481939082,47.196015535690314
che,6313,Menzingen,ZG,8.597189538322846,47.175216304574825
che,6314,Unterägeri,ZG,8.57275079066329,47.14538630491458
che,6315,Oberägeri,ZG,8.627811449805035,47.126921630608955
che,6317,Zug,ZG,8.507117232422871,47.14779703154278
che,6318,Walchwil,ZG,8.514775843102981,47.10025366993192
che,6319,Baar,ZG,8.550978056950855,47.164545334927176
che,6330,Cham,ZG,8.4596239998271,47.1792918506732
che,6331,Hünenberg,ZG,8.42802256502576,47.174719848863106
che,6332,Cham,ZG,8.431923586916659,47.20293661923735
che,6333,Hünenberg,ZG,8.450317248681179,47.169258183079
che,6340,"Neuheim,Baar",ZG,8.549891790075982,47.205407169349016
che,6343,Risch,ZG,8.448501551331924,47.142169910390166
che,6344,Meierskappel,LU,8.442683194463294,47.12528623255042
che,6345,Neuheim,ZG,8.575743613892822,47.205539048461425
che,6353,Weggis,LU,8.43432196164318,47.032696288907296
che,6354,Vitznau,LU,8.483786092666932,47.010375693830156
che,6356,Weggis,LU,8.470984852816969,47.043952270720155
che,6362,Stansstad,NW,8.339574512579132,46.97659455955361
che,6363,"Ennetbürgen,Stansstad",NW,8.364880597390083,46.98690113845252
che,6365,Stansstad,NW,8.369864149637253,47.00105886097693
che,6370,"Stans,Oberdorf (NW)",NW,8.371644686594713,46.95848771437475
che,6372,Ennetmoos,NW,8.331885282000739,46.95747580203586
che,6373,Ennetbürgen,NW,8.414481579619247,46.98487339917616
che,6374,Buochs,NW,8.420093585467608,46.971396141115115
che,6375,Beckenried,NW,8.468746764538258,46.965088585887536
che,6376,Emmetten,NW,8.523124189777983,46.95558040931582
che,6377,Seelisberg,UR,8.585653911782325,46.97365869790786
che,6382,Oberdorf (NW),NW,8.397975951231594,46.94029294866814
che,6383,"Dallenwil,Oberdorf (NW)",NW,8.389198889316091,46.92313009141816
che,6386,Wolfenschiessen,NW,8.396490721226481,46.90881021919879
che,6387,Wolfenschiessen,NW,8.423985898578122,46.88813409560974
che,6388,Engelberg,OW,8.373873904937524,46.8684257928308
che,6390,Engelberg,OW,8.403713848897539,46.81620987276713
che,6402,Küssnacht (SZ),SZ,8.408048462322514,47.06637795643058
che,6403,Küssnacht (SZ),SZ,8.440080606716098,47.080395023533534
che,6404,Greppen,LU,8.430056872868331,47.055507286961095
che,6405,Küssnacht (SZ),SZ,8.461457014344154,47.095696328233316
che,6410,"Gersau,Arth",SZ,8.501952820356747,47.04525562603478
che,6414,Arth,SZ,8.533625449923258,47.05608939427683
che,6415,Arth,SZ,8.52313917025415,47.063592111871344
che,6416,Steinerberg,SZ,8.585308074953968,47.052082306355885
che,6417,Sattel,SZ,8.637750660769395,47.08374641480813
che,6418,Rothenthurm,SZ,8.675138008529009,47.10507040063632
che,6422,Steinen,SZ,8.61183949773868,47.04729477952937
che,6423,Schwyz,SZ,8.63089404741689,47.029761494430076
che,6424,Lauerz,SZ,8.580071323579766,47.03540115075
che,6430,Schwyz,SZ,8.653676072823743,47.021357644253634
che,6432,Schwyz,SZ,8.665841138088787,47.016403374226506
che,6433,Morschach,SZ,8.664557162698015,46.980454419106024
che,6434,Illgau,SZ,8.723323422892836,46.987618046302394
che,6436,Muotathal,SZ,8.768425688751426,46.96928081165976
che,6438,Schwyz,SZ,8.644887031248775,47.01285355393274
che,6440,Ingenbohl,SZ,8.605264100865304,46.99440378038076
che,6441,Seelisberg,UR,8.59285587396208,46.96866831525633
che,6442,Gersau,SZ,8.527020853408178,46.992832726398994
che,6443,Morschach,SZ,8.620376225645973,46.9816329239711
che,6452,"Riemenstalden,Sisikon","SZ,UR",8.644970504754063,46.947533692028145
che,6454,Flüelen,UR,8.628644801749704,46.90537642213223
che,6460,Altdorf (UR),UR,8.642259004032088,46.883324772887676
che,6461,Isenthal,UR,8.560996795616386,46.911813663320636
che,6462,Seedorf (UR),UR,8.610606694021925,46.884033113079994
che,6463,Bürglen (UR),UR,8.662451959167866,46.87520848211418
che,6464,Spiringen,UR,8.728407767145441,46.87101287922513
che,6465,Unterschächen,UR,8.76841641836738,46.86121194606324
che,6466,Bauen,UR,8.57765641075076,46.935142777483705
che,6467,Schattdorf,UR,8.658895591197853,46.86406547580471
che,6468,Attinghausen,UR,8.623979831132061,46.86497079527968
che,6469,Schattdorf,UR,8.67503194717096,46.86183194361512
che,6472,Erstfeld,UR,8.65037223119659,46.82031203982235
che,6473,Silenen,UR,8.672756323331608,46.79186334281251
che,6474,Silenen,UR,8.670717879341607,46.77066698936545
che,6475,Silenen,UR,8.691042614460216,46.769385546699425
che,6476,Gurtnellen,UR,8.64972981574607,46.760461689529706
che,6482,Gurtnellen,UR,8.628466949462402,46.73800246076228
che,6484,Wassen,UR,8.595703646626934,46.706363887423436
che,6485,Wassen,UR,8.54941343704476,46.725708714540175
che,6487,Göschenen,UR,8.583901839878418,46.6696027339613
che,6490,Andermatt,UR,8.597370858888015,46.631837438063705
che,6491,Realp,UR,8.501881527377193,46.59874808916048
che,6493,Hospental,UR,8.572735787019203,46.61913512757893
che,6500,Bellinzona,TI,9.035526644871933,46.19698977791154
che,6503,Bellinzona,TI,9.007086991873862,46.20859707520742
che,6512,Bellinzona,TI,9.003398058251495,46.1739379792302
che,6513,Bellinzona,TI,8.997078156166623,46.187089497201434
che,6514,Bellinzona,TI,8.986780908965658,46.18305292519581
che,6515,Bellinzona,TI,8.951059307209748,46.17534700071845
che,6516,Cugnasco-Gerra,TI,8.91749871818584,46.17418892706802
che,6517,Arbedo-Castione,TI,9.046483322941453,46.213784630142705
che,6518,Bellinzona,TI,9.032401849156258,46.216859035745074
che,6523,Bellinzona,TI,9.002014996004306,46.26349561769784
che,6524,Bellinzona,TI,8.993463584161699,46.26859709399601
che,6525,Bellinzona,TI,9.020463028392726,46.233900021386205
che,6526,Riviera,TI,8.983507481826349,46.279618170099724
che,6527,Riviera,TI,8.977840946412712,46.30155905248097
che,6528,Bellinzona,TI,9.006395484115924,46.163661623377216
che,6532,Arbedo-Castione,TI,9.04740607788615,46.22719721188734
che,6533,Lumino,TI,9.06598903984082,46.23038035903418
che,6534,San Vittore,GR,9.136367786352375,46.212323579057035
che,6535,Roveredo (GR),GR,9.120003006531217,46.23310249523046
che,6537,Grono,GR,9.144999240787877,46.247545907495024
che,6538,Grono,GR,9.196041797754152,46.266319716946754
che,6540,Castaneda,GR,9.140497235878994,46.25700735647225
che,6541,Santa Maria in Calanca,GR,9.144958794511027,46.26301322082196
che,6542,Buseno,GR,9.107344858312564,46.27275912249046
che,6543,Calanca,GR,9.1133911695751,46.302250691906494
che,6544,Calanca,GR,9.123535050785591,46.30326680130374
che,6545,Calanca,GR,9.121669808026144,46.31924627241436
che,6546,Calanca,GR,9.12134115847307,46.335064068666384
che,6548,Rossa,GR,9.125550915889429,46.36311785880624
che,6549,Roveredo (GR),GR,9.105185370377322,46.213347750386745
che,6556,Grono,GR,9.164463557866263,46.26094710278864
che,6557,Cama,GR,9.173172862006503,46.27211821516479
che,6558,Lostallo,GR,9.19443533602892,46.31260034159053
che,6562,Soazza,GR,9.222924597474144,46.366913276989955
che,6563,Mesocco,GR,9.230758252491244,46.39278033915167
che,6565,Mesocco,GR,9.192387471770187,46.46283264219293
che,6571,Gambarogno,TI,8.826149367713938,46.094455118236496
che,6572,Gambarogno,TI,8.895107891818922,46.152786529106464
che,6573,Gambarogno,TI,8.856774777948651,46.147614349596275
che,6574,Gambarogno,TI,8.841021188905033,46.1444879655885
che,6575,Gambarogno,TI,8.807008012206285,46.13215413762126
che,6576,Gambarogno,TI,8.785274406232038,46.12306307938588
che,6577,Gambarogno,TI,8.776457570237314,46.117047646766004
che,6578,Gambarogno,TI,8.76636015547498,46.10716783481724
che,6579,Gambarogno,TI,8.824928452175234,46.13512149706229
che,6582,Bellinzona,TI,9.029751382736986,46.16964625185346
che,6583,Bellinzona,TI,9.061327940714417,46.16924359628216
che,6584,Bellinzona,TI,9.085264932171674,46.168790730724936
che,6592,Sant'Antonino,TI,8.978690475702647,46.153421600954545
che,6593,Cadenazzo,TI,8.952044307703376,46.14902057875978
che,6594,Gambarogno,TI,8.92868109200676,46.148067405875146
che,6595,Lavertezzo,TI,8.888018904602975,46.17834971305667
che,6596,Gordola,TI,8.865256030066273,46.179219122588435
che,6597,Cugnasco-Gerra,TI,8.90585751513676,46.17843861213426
che,6598,Tenero-Contra,TI,8.848489862119164,46.18125743988235
che,6599,Cadenazzo,TI,8.940581589715427,46.142703579693524
che,6600,"Muralto,Locarno",TI,8.78983102988465,46.17427731313023
che,6605,Locarno,TI,8.777799825711224,46.18506656301543
che,6611,Onsernone,TI,8.62231288106337,46.209104175834234
che,6612,Ascona,TI,8.767949628964413,46.15493370771035
che,6613,Ronco sopra Ascona,TI,8.726263402469632,46.14029086815211
che,6614,Brissago,TI,8.723012269638772,46.12544244399524
che,6616,Losone,TI,8.759675127293066,46.16934155640678
che,6618,Losone,TI,8.742847549194884,46.162399628287176
che,6622,Ronco sopra Ascona,TI,8.726471760303943,46.14409082790642
che,6631,Corippo,TI,8.840927326244561,46.235765961838204
che,6632,Vogorno,TI,8.858640406584968,46.222625591384194
che,6633,Lavertezzo,TI,8.835991748712926,46.257208368314025
che,6634,Brione (Verzasca),TI,8.790302638982265,46.29676823767583
che,6635,Cugnasco-Gerra,TI,8.798422685694703,46.318907355620915
che,6636,Frasco,TI,8.802104599462067,46.340228921442076
che,6637,Sonogno,TI,8.786155280291593,46.34982582138733
che,6644,Orselina,TI,8.800197358197694,46.18010235262061
che,6645,Brione sopra Minusio,TI,8.814466587308377,46.18302377857764
che,6646,Tenero-Contra,TI,8.84024025040967,46.18848872111908
che,6647,Mergoscia,TI,8.848231783159855,46.21065902435266
che,6648,Minusio,TI,8.813030987379875,46.176720128057426
che,6652,Terre di Pedemonte,TI,8.744327667269816,46.186157880614275
che,6653,Terre di Pedemonte,TI,8.732067510609753,46.18463587342541
che,6654,Terre di Pedemonte,TI,8.719051516587045,46.18493873595037
che,6655,Centovalli,TI,8.663602174359623,46.16606247594543
che,6656,Centovalli,TI,8.714099971323723,46.17919049577238
che,6657,Centovalli,TI,8.632209484122688,46.15416663462637
che,6658,Centovalli,TI,8.616068121596424,46.15994546165779
che,6659,Centovalli,TI,8.61464875713699,46.1531101381744
che,6661,Onsernone,TI,8.672854449119136,46.20294586906888
che,6662,Onsernone,TI,8.62224569891745,46.20212770442677
che,6663,Onsernone,TI,8.57274113486877,46.20240951066209
che,6664,Onsernone,TI,8.602230016254202,46.22692914928864
che,6670,Avegno Gordevio,TI,8.745910589580326,46.20638284107934
che,6672,Avegno Gordevio,TI,8.738186691407622,46.225505113151705
che,6673,Maggia,TI,8.70830210245811,46.2467731568653
che,6674,Maggia,TI,8.650862399700472,46.29136386710428
che,6675,Cevio,TI,8.601752337127127,46.31646225643645
che,6676,Cevio,TI,8.609129655571284,46.338550708394706
che,6677,Maggia,TI,8.709067417684217,46.23541875756143
che,6678,Maggia,TI,8.683715283869955,46.26694999889849
che,6682,Linescio,TI,8.583101159073044,46.30816610786917
che,6683,"Cerentino,Campo (Vallemaggia)",TI,8.539337978583742,46.29839543687932
che,6684,Campo (Vallemaggia),TI,8.492753825686059,46.28618807816338
che,6685,Bosco/Gurin,TI,8.491560630076776,46.31675490634756
che,6690,Cevio,TI,8.567457304675942,46.37673043803386
che,6692,Lavizzara,TI,8.634712073165323,46.35836668286582
che,6693,Lavizzara,TI,8.661083863112887,46.37698513178276
che,6694,Lavizzara,TI,8.654219342021646,46.396499076704934
che,6695,Lavizzara,TI,8.628163317815325,46.41052657613257
che,6696,Lavizzara,TI,8.660081318380312,46.4451775927293
che,6702,Bellinzona,TI,9.024175393329816,46.253426227777126
che,6703,Riviera,TI,8.987127306914163,46.31327073983561
che,6705,Riviera,TI,9.004494725323443,46.280780673072115
che,6707,Riviera,TI,8.966892470383309,46.329933509226905
che,6710,Biasca,TI,8.972224403384713,46.36011201439682
che,6713,Serravalle,TI,8.98356740064677,46.403637316392576
che,6714,Serravalle,TI,8.971717461291536,46.40771039227528
che,6715,Acquarossa,TI,8.955370923357705,46.43702086631228
che,6716,Acquarossa,TI,8.93425676737395,46.46160687460628
che,6717,Blenio,TI,8.953440355531505,46.49072357827322
che,6718,Blenio,TI,8.92411572566236,46.527146704227164
che,6719,Blenio,TI,8.97911026979964,46.54286981618902
che,6720,Blenio,TI,8.940652991067445,46.55823894392226
che,6721,"Acquarossa,Serravalle",TI,8.970298123397253,46.42435144477412
che,6722,Acquarossa,TI,8.93423789471718,46.44609411483294
che,6723,Acquarossa,TI,8.926598102276607,46.47067652524597
che,6724,Acquarossa,TI,8.938387424347773,46.488745152615266
che,6742,Pollegio,TI,8.941482065882647,46.3654210263492
che,6743,Bodio,TI,8.91179709309504,46.379074954882746
che,6744,Personico,TI,8.919402408853266,46.37044926776556
che,6745,Giornico,TI,8.875042946162024,46.39980724554578
che,6746,Faido,TI,8.841442040397878,46.442879190808334
che,6747,Faido,TI,8.84381507440122,46.42309899791355
che,6748,Faido,TI,8.8627778335313,46.4316085369315
che,6749,Faido,TI,8.89147969234065,46.406739370340105
che,6760,Faido,TI,8.816463664035874,46.48472211324157
che,6763,Faido,TI,8.784480824091823,46.49052518135852
che,6764,Faido,TI,8.827377931251903,46.45620779240725
che,6772,Prato (Leventina),TI,8.736090881724873,46.49188816669889
che,6773,Prato (Leventina),TI,8.756553498007134,46.48282632454772
che,6774,Dalpe,TI,8.775088647091815,46.47301646920943
che,6775,Quinto,TI,8.695041801939293,46.50912677834657
che,6776,Quinto,TI,8.671231696873184,46.51402161149253
che,6777,Quinto,TI,8.717869296945443,46.50703429502835
che,6780,Airolo,TI,8.619406536251338,46.52812504935833
che,6781,Bedretto,TI,8.518453299337859,46.508040154140346
che,6802,Monteceneri,TI,8.925619307806905,46.123529665404064
che,6803,Monteceneri,TI,8.938335439804582,46.106088503348225
che,6804,Monteceneri,TI,8.93293210351042,46.113637840644806
che,6805,Mezzovico-Vira,TI,8.894096801968166,46.08803763694096
che,6806,Monteceneri,TI,8.914214959244338,46.08054385138737
che,6807,"Torricella-Taverne,Capriasca",TI,8.934830547514597,46.069639424213335
che,6808,Torricella-Taverne,TI,8.922200857608889,46.066749015617454
che,6809,"Comunanza Cadenazzo/Monteceneri,Monteceneri",TI,9.01395791134923,46.12809143224774
che,6810,Isone,TI,8.985251202399661,46.12891353179504
che,6814,"Lamone,Cadempino",TI,8.932889730842472,46.039042381769875
che,6815,Melide,TI,8.949071177374101,45.954748183136736
che,6816,Bissone,TI,8.964355679704688,45.95128680430722
che,6817,Maroggia,TI,8.968702009551311,45.93562123302927
che,6818,Melano,TI,8.98640684830274,45.91907543535467
che,6821,Rovio,TI,8.987192139320094,45.932936681636065
che,6822,Arogno,TI,8.988567500353467,45.959587595302935
che,6823,Arogno,TI,8.978763578873775,45.97879808837881
che,6825,"Mendrisio,Rovio",TI,8.999632035838765,45.9162505952647
che,6826,Riva San Vitale,TI,8.969665751600761,45.90682325838312
che,6827,Brusino Arsizio,TI,8.937731239599916,45.928842320873635
che,6828,Balerna,TI,9.008062709958324,45.84957640853838
che,6830,Chiasso,TI,9.026855751846654,45.834879049538145
che,6832,Chiasso,TI,9.005166600666666,45.82668954380435
che,6833,Vacallo,TI,9.034951649856623,45.84764847242736
che,6834,Morbio Inferiore,TI,9.016861049268456,45.8536192203095
che,6835,Breggia,TI,9.020729220593157,45.8614568979485
che,6837,Breggia,TI,9.034918833809218,45.87751445145786
che,6838,Breggia,TI,9.043405181582283,45.907309717860244
che,6839,Breggia,TI,9.041122504184523,45.85711387344527
che,6850,Mendrisio,TI,8.9892027986991,45.87076408594072
che,6852,Mendrisio,TI,8.960491082540749,45.855884187978056
che,6853,Mendrisio,TI,8.953365538523041,45.86277462745
che,6854,Stabio,TI,8.935725435809617,45.859239570201424
che,6855,Stabio,TI,8.93854635315008,45.8507278890987
che,6862,Mendrisio,TI,8.96907694984358,45.8713589188229
che,6863,Mendrisio,TI,8.951853484723316,45.87322461874318
che,6864,Mendrisio,TI,8.941240920786347,45.87611670438743
che,6865,Mendrisio,TI,8.958587553311672,45.88088681775883
che,6866,Mendrisio,TI,8.952637020818884,45.890343666187256
che,6867,Brusino Arsizio,TI,8.928919512965344,45.91183199464521
che,6872,Mendrisio,TI,8.992781987108252,45.87588631615186
che,6873,Castel San Pietro,TI,8.993752593517971,45.861458354994575
che,6874,Castel San Pietro,TI,9.00986145476984,45.85968612933301
che,6875,Castel San Pietro,TI,9.029457418629635,45.88237669538251
che,6877,Coldrerio,TI,8.985875029845714,45.85349883777825
che,6883,Novazzano,TI,8.981331232099713,45.84157474041472
che,6900,"Paradiso,Lugano,Massagno",TI,8.94537640964172,46.00244376687664
che,6912,Lugano,TI,8.943063155183419,45.98470683083995
che,6913,Lugano,TI,8.936210436777861,45.97252478296359
che,6914,Lugano,TI,8.935411013113592,45.95775852727349
che,6915,Lugano,TI,8.931027416622786,45.986474083921955
che,6916,Grancia,TI,8.928871313385098,45.96698653003653
che,6917,Lugano,TI,8.913615549992981,45.95825215433344
che,6918,Lugano,TI,8.905945436426379,45.950690636916065
che,6919,Collina d'Oro,TI,8.900397919296877,45.96845199862321
che,6921,Vico Morcote,TI,8.922439146903155,45.9303660299261
che,6922,Morcote,TI,8.914261962164197,45.92315375746325
che,6924,Sorengo,TI,8.934790364988288,46.00034221755415
che,6925,Collina d'Oro,TI,8.932794800728109,45.991033184858466
che,6926,Collina d'Oro,TI,8.917193149510355,45.98214619000436
che,6927,Collina d'Oro,TI,8.911212628474232,45.96803488118435
che,6928,Manno,TI,8.918672498044364,46.03445273549831
che,6929,Gravesano,TI,8.916687752500549,46.042741608057916
che,6930,Bedano,TI,8.919360090682176,46.05135605962671
che,6932,Lugano,TI,8.926164395168518,46.00853704512711
che,6933,Muzzano,TI,8.92231994664285,45.99836021415244
che,6934,Bioggio,TI,8.908674137871726,46.01446590939831
che,6935,Bioggio,TI,8.908884604277194,46.0263809660364
che,6936,Cademario,TI,8.892348739138312,46.02270541430657
che,6937,Alto Malcantone,TI,8.870350968165091,46.03311593553301
che,6938,Alto Malcantone,TI,8.879743251167415,46.04322867288667
che,6939,Alto Malcantone,TI,8.895237752459849,46.048253880069204
che,6942,Savosa,TI,8.951453324713034,46.02377106775618
che,6943,Vezia,TI,8.937022289500954,46.02347220799275
che,6944,Cureglia,TI,8.944538439470579,46.03704672900872
che,6945,Origlio,TI,8.94444338767428,46.054301338141926
che,6946,Ponte Capriasca,TI,9.007598292017686,46.0930858998796
che,6947,Capriasca,TI,8.956598037960529,46.061789001014226
che,6948,Porza,TI,8.954543375718186,46.02728481956968
che,6949,Comano,TI,8.955061070611796,46.035989822191326
che,6950,Capriasca,TI,8.965360376952097,46.067634414884125
che,6951,Lugano,TI,9.048474756040767,46.091229507960776
che,6952,Canobbio,TI,8.968644557286352,46.03365828787607
che,6953,Capriasca,TI,8.971942039184924,46.062393913976564
che,6954,Capriasca,TI,8.957340823113325,46.067906476889064
che,6955,Capriasca,TI,8.979584229484308,46.06881625371081
che,6956,Capriasca,TI,8.976876763642169,46.06881109912842
che,6957,Capriasca,TI,8.983301860649973,46.07372203171655
che,6958,Capriasca,TI,9.009914830411956,46.08166021320619
che,6959,Lugano,TI,9.04142926192017,46.082753432800445
che,6960,Capriasca,TI,8.969716271049887,46.082311181725046
che,6962,Lugano,TI,8.967120034847161,46.01103651806222
che,6963,Lugano,TI,8.978018243427941,46.02121883417414
che,6964,Lugano,TI,8.980413554446816,46.03524827806401
che,6965,Lugano,TI,8.989849983920724,46.04469280559492
che,6966,Lugano,TI,8.996492338849855,46.054062056035434
che,6967,Lugano,TI,8.984243463877881,46.053129786754035
che,6968,Lugano,TI,8.990737110134864,46.05786915678791
che,6974,Lugano,TI,8.978884133607806,46.008733849300214
che,6976,Lugano,TI,8.977978649406642,46.00231482877844
che,6977,Lugano,TI,8.976079358104682,46.004062807765806
che,6978,Lugano,TI,9.002406655149825,46.00542617943618
che,6979,Lugano,TI,8.998379885630852,46.01289935242553
che,6980,Croglio,TI,8.83765086544942,45.99285219381793
che,6981,"Croglio,Bedigliora,Curio",TI,8.83795680514034,46.00924071317879
che,6982,Agno,TI,8.897706145886303,45.99766144876943
che,6983,Magliaso,TI,8.884558404068787,45.981739064453954
che,6984,Pura,TI,8.868835536333002,45.986049511498095
che,6986,"Novaggio,Miglieglia,Curio",TI,8.858741096185891,46.01237987538705
che,6987,Caslano,TI,8.883458075294463,45.97195418412665
che,6988,Ponte Tresa,TI,8.858345467802076,45.96962134582536
che,6989,Croglio,TI,8.849730354328189,45.9807129252308
che,6990,Agno,TI,8.893055569519559,45.99117241197874
che,6991,Neggio,TI,8.879414968810451,45.98722095736472
che,6992,"Vernate,Bioggio",TI,8.888288474428283,45.998446498196905
che,6993,Bioggio,TI,8.882283237308535,46.00462763929546
che,6994,Aranno,TI,8.873080156850834,46.017908800764616
che,6995,Croglio,TI,8.833795937616364,45.98800647148176
che,6997,Sessa,TI,8.818794625361958,45.99894260190543
che,6998,Monteggio,TI,8.813768962770421,45.996057121226045
che,6999,Astano,TI,8.816226897192205,46.012699917263575
che,7000,Chur,GR,9.53279983527006,46.84817709160957
che,7012,Felsberg,GR,9.470582688163212,46.845427948325565
che,7013,Domat/Ems,GR,9.451354465751749,46.83613594942912
che,7014,Trin,GR,9.363619957288707,46.830434343200466
che,7015,Tamins,GR,9.407984258140297,46.82921898930761
che,7016,Trin,GR,9.33635454166175,46.831232586773474
che,7017,Flims,GR,9.284319621688,46.8376508664783
che,7018,Flims,GR,9.29146177070685,46.8291994483295
che,7019,Flims,GR,9.309341660300905,46.84078653395761
che,7023,Haldenstein,GR,9.521942767055394,46.879200086584255
che,7026,Chur,GR,9.560642993168036,46.836697013156616
che,7027,Arosa,GR,9.60332019845056,46.83756649390828
che,7028,Arosa,GR,9.64028405874559,46.83571698493944
che,7029,Arosa,GR,9.673871698304104,46.83299695807456
che,7031,Laax,GR,9.25357588265258,46.804117348094046
che,7032,Laax,GR,9.264102759673245,46.821986687705156
che,7050,Arosa,GR,9.675599161530496,46.77729827776493
che,7056,Arosa,GR,9.655177650149842,46.827287127993934
che,7057,Arosa,GR,9.713195396084664,46.82041515571302
che,7058,Arosa,GR,9.702650648674537,46.7979923831136
che,7062,Churwalden,GR,9.54697536459406,46.8302495613491
che,7063,Tschiertschen-Praden,GR,9.581644934804931,46.8250763390718
che,7064,Tschiertschen-Praden,GR,9.606973036600458,46.81785313627818
che,7074,Churwalden,GR,9.531007731699583,46.81384998008303
che,7075,Churwalden,GR,9.54447292799674,46.78070500007767
che,7076,Churwalden,GR,9.557628615805138,46.761060882431366
che,7077,Vaz/Obervaz,GR,9.55370701875506,46.74750695173845
che,7078,Vaz/Obervaz,GR,9.555737447769935,46.729703208019714
che,7082,Vaz/Obervaz,GR,9.531557687074768,46.69593103123982
che,7083,Lantsch/Lenz,GR,9.562409142635774,46.68309616730482
che,7084,Albula/Alvra,GR,9.594880941543737,46.668598022559635
che,7104,Safiental,GR,9.336355789595821,46.79424901576781
che,7106,Safiental,GR,9.336181356553046,46.74747549161327
che,7107,Safiental,GR,9.315213150569019,46.6831477440172
che,7109,Safiental,GR,9.28056030335152,46.63952346257036
che,7110,Lumnezia,GR,9.19603374571532,46.72002315959633
che,7111,Ilanz/Glion,GR,9.216911689936154,46.7308442897976
che,7112,Ilanz/Glion,GR,9.211264939038971,46.71519152768518
che,7113,Lumnezia,GR,9.197353840271301,46.7035897596821
che,7114,Lumnezia,GR,9.183134736358461,46.70126409163514
che,7115,Lumnezia,GR,9.176842941827417,46.69678620743836
che,7116,"Lumnezia,Vals",GR,9.184176816662696,46.68343285994983
che,7122,Safiental,GR,9.281998756133644,46.78848038729409
che,7126,Ilanz/Glion,GR,9.231487795780211,46.77707076675697
che,7127,Ilanz/Glion,GR,9.22131724333545,46.76534115297971
che,7128,Ilanz/Glion,GR,9.233119983102057,46.7443132882068
che,7130,Ilanz/Glion,GR,9.188330591578636,46.79095325503979
che,7132,Vals,GR,9.178048274603608,46.618548086646825
che,7134,Obersaxen Mundaun,GR,9.100229701547233,46.74852927682207
che,7137,Obersaxen Mundaun,GR,9.161022013568227,46.76758860332831
che,7138,Obersaxen Mundaun,GR,9.144088634093457,46.7578091367759
che,7141,Ilanz/Glion,GR,9.198860784667831,46.762396174505504
che,7142,Lumnezia,GR,9.19194185384111,46.72603806435813
che,7143,Lumnezia,GR,9.180781021030617,46.72985459276986
che,7144,Lumnezia,GR,9.173590945620962,46.71790548902987
che,7145,Lumnezia,GR,9.168002394928193,46.705890575801746
che,7146,Lumnezia,GR,9.160191375979087,46.70667897614131
che,7147,Lumnezia,GR,9.156459760886934,46.69928372003858
che,7148,Lumnezia,GR,9.13594968702177,46.68348803840778
che,7149,Lumnezia,GR,9.099298944915247,46.65515254718432
che,7151,Schluein,GR,9.228317309161797,46.788819335511036
che,7152,Sagogn,GR,9.254014947917275,46.78901974780624
che,7153,Falera,GR,9.231613345206194,46.80026752148729
che,7154,Ilanz/Glion,GR,9.191836554805679,46.78511192670052
che,7155,Ilanz/Glion,GR,9.18974996850785,46.81431569904991
che,7156,Ilanz/Glion,GR,9.13441206613918,46.79367549768224
che,7157,Ilanz/Glion,GR,9.163487540687873,46.790890993506714
che,7158,Breil/Brigels,GR,9.117599611722436,46.77711429255454
che,7159,Breil/Brigels,GR,9.11793641335161,46.78701272595247
che,7162,Breil/Brigels,GR,9.0627163768955,46.75481296481839
che,7163,Breil/Brigels,GR,9.057203173506263,46.75471879526169
che,7164,Breil/Brigels,GR,9.043755453828345,46.75690926478085
che,7165,Breil/Brigels,GR,9.06146159545732,46.76817180134503
che,7166,Trun,GR,8.984790128702453,46.74196928820311
che,7167,Trun,GR,9.006210754062211,46.74094618334855
che,7168,Trun,GR,9.015012842491933,46.75319831275079
che,7172,Sumvitg,GR,8.958484752015815,46.734504998557604
che,7173,Sumvitg,GR,8.949457197771443,46.722691418269456
che,7174,Sumvitg,GR,8.939175401238332,46.73471326656388
che,7175,Sumvitg,GR,8.939095028603756,46.72818531373043
che,7176,Sumvitg,GR,8.92085470342764,46.72275677443874
che,7180,Disentis/Mustér,GR,8.851466126965445,46.70338935069064
che,7182,Disentis/Mustér,GR,8.884864242101491,46.71052075255355
che,7183,Disentis/Mustér,GR,8.848076190991229,46.68952215148371
che,7184,Medel (Lucmagn),GR,8.858712217474881,46.67357203373149
che,7185,Medel (Lucmagn),GR,8.854060819600374,46.658248861605976
che,7186,Disentis/Mustér,GR,8.828022813420421,46.69494161614458
che,7187,Tujetsch,GR,8.761172887791515,46.68237253052585
che,7188,Tujetsch,GR,8.775169150995113,46.67961599595142
che,7189,Tujetsch,GR,8.74795672921258,46.67511350905639
che,7202,Trimmis,GR,9.575168336871617,46.90357844012514
che,7203,Trimmis,GR,9.563937832877956,46.896025584449646
che,7204,Untervaz,GR,9.535084368258172,46.92721863554332
che,7205,Zizers,GR,9.566025482788588,46.936647045657075
che,7206,Landquart,GR,9.571730767522745,46.94527643519146
che,7208,Malans,GR,9.574330550951926,46.98182662089853
che,7212,Seewis im Prättigau,GR,9.63741528141324,46.98254271914493
che,7213,Grüsch,GR,9.603172328086886,46.950988193790046
che,7214,Grüsch,GR,9.647034953807296,46.982451805219824
che,7215,Grüsch,GR,9.66663334568443,46.984456461879006
che,7220,Schiers,GR,9.729221139025405,46.982769959070964
che,7222,Schiers,GR,9.711868848467107,46.94829827373982
che,7223,Luzein,GR,9.722751817279013,46.9396133258352
che,7224,Luzein,GR,9.742374410355128,46.92611190906532
che,7226,Schiers,GR,9.738258112163884,46.98182783821594
che,7228,Schiers,GR,9.724682316347504,46.98731840599346
che,7231,Jenaz,GR,9.703532215006776,46.93849534921638
che,7232,Furna,GR,9.678968216807393,46.936958733820354
che,7233,Jenaz,GR,9.716706265589613,46.92643565974095
che,7235,Fideris,GR,9.740345300742565,46.91400222754782
che,7240,Küblis,GR,9.777042388419474,46.914226159619396
che,7241,Conters im Prättigau,GR,9.7990435599311,46.90321856047657
che,7242,Luzein,GR,9.762851334364292,46.92001283865874
che,7243,Luzein,GR,9.76932980855635,46.93076164796401
che,7244,Luzein,GR,9.793072169720748,46.944461102362176
che,7245,Luzein,GR,9.807084140397377,46.95763169946251
che,7246,Luzein,GR,9.814018926491418,46.96947462301271
che,7247,Klosters-Serneus,GR,9.805310047884099,46.91086517336067
che,7249,Klosters-Serneus,GR,9.840231869611868,46.890685656671856
che,7250,Klosters-Serneus,GR,9.882102134595751,46.8703635568374
che,7252,Klosters-Serneus,GR,9.875142302548063,46.883620875603754
che,7260,Davos,GR,9.839822948699043,46.809073926509136
che,7265,Davos,GR,9.854593024128343,46.832015348074314
che,7270,Davos,GR,9.8221368256754,46.79327924169271
che,7272,Davos,GR,9.81625393533818,46.76712512841199
che,7276,Davos,GR,9.798670834631054,46.768770603131706
che,7277,Davos,GR,9.776589770640683,46.74101270095
che,7278,Davos,GR,9.770946455917565,46.71199017920756
che,7302,Landquart,GR,9.558616106269687,46.9635694152429
che,7303,Landquart,GR,9.543969508287738,46.96794861985525
che,7304,Maienfeld,GR,9.531480740081374,47.007989546557646
che,7306,Fläsch,GR,9.513896761389043,47.02572782467404
che,7307,Jenins,GR,9.556026489583088,47.00107053521757
che,7310,Bad Ragaz,SG,9.500957651735883,47.00401525206247
che,7312,Pfäfers,SG,9.498407692710174,46.98837576526989
che,7313,Pfäfers,SG,9.511918638862582,46.974679876427366
che,7314,Pfäfers,SG,9.484234818686817,46.95807855921542
che,7315,Pfäfers,SG,9.441316321705175,46.91052034480162
che,7317,Pfäfers,SG,9.479188769079915,46.96060324118575
che,7320,Sargans,SG,9.435127315272306,47.05033684903835
che,7323,Vilters-Wangs,SG,9.453503938267655,47.0309620032981
che,7324,Vilters-Wangs,SG,9.44827409916633,47.02311923196599
che,7325,Mels,SG,9.363505106184904,47.00877663484439
che,7326,Mels,SG,9.34559631202302,46.99181924177692
che,7402,Bonaduz,GR,9.402439991747563,46.81183703549417
che,7403,Rhäzüns,GR,9.39279262781683,46.796963696178494
che,7404,Domleschg,GR,9.432638128886284,46.79260530203758
che,7405,Rothenbrunnen,GR,9.426804062885386,46.76956455683319
che,7407,Domleschg,GR,9.463615792717368,46.76393397738292
che,7408,Cazis,GR,9.42971168640213,46.72116881318264
che,7411,Sils im Domleschg,GR,9.454479947657466,46.6998440909157
che,7412,Scharans,GR,9.459437768979091,46.71800416140005
che,7413,Fürstenau,GR,9.45032422606826,46.71382691508536
che,7414,Fürstenau,GR,9.44871907849916,46.7204374766683
che,7415,Domleschg,GR,9.44544660226018,46.73362684441658
che,7416,Domleschg,GR,9.459165363428244,46.73806634129287
che,7417,Domleschg,GR,9.444559705472964,46.7504182247581
che,7418,Domleschg,GR,9.439943635187404,46.76129937138572
che,7419,Domleschg,GR,9.451045362269063,46.77804735732524
che,7421,Cazis,GR,9.433612500069497,46.714115634821646
che,7422,Cazis,GR,9.418206226498064,46.71873197948496
che,7423,Cazis,GR,9.408468590344306,46.71584897678407
che,7424,Cazis,GR,9.405163866764335,46.73844017272654
che,7425,Masein,GR,9.426832680212518,46.7049878221745
che,7426,Flerden,GR,9.400643144517876,46.68863651637963
che,7427,Urmein,GR,9.400737922341689,46.6917808398405
che,7428,Tschappina,GR,9.372219455723682,46.686707935273716
che,7430,"Thusis,Rongellen",GR,9.44105470891067,46.683955459453685
che,7431,Thusis,GR,9.491970626759027,46.67504911741433
che,7432,Zillis-Reischen,GR,9.443287378063717,46.63563952706989
che,7433,"Mathon,Donat,Lohn (GR),Casti-Wergenstein",GR,9.418811157862788,46.63591547119689
che,7434,Sufers,GR,9.367006237458462,46.57219902754355
che,7435,Rheinwald,GR,9.323938706226194,46.55408112313424
che,7436,Rheinwald,GR,9.293683911412076,46.546306139944285
che,7437,Rheinwald,GR,9.245440686616814,46.54075529704832
che,7438,Rheinwald,GR,9.197039778417011,46.53204834861433
che,7440,Andeer,GR,9.424795023354225,46.60167104695359
che,7442,Andeer,GR,9.4253091175201,46.61629902193727
che,7443,Andeer,GR,9.441222632124278,46.613565832076674
che,7444,Ferrera,GR,9.441637511307356,46.55732613621869
che,7445,Ferrera,GR,9.446136440658718,46.502314247508025
che,7446,Avers,GR,9.480505899377967,46.4819459839249
che,7447,Avers,GR,9.529937564228018,46.46278133991133
che,7448,Avers,GR,9.579869470350443,46.445309708900346
che,7450,"Vaz/Obervaz,Albula/Alvra",GR,9.54476823773544,46.67178701127537
che,7451,Albula/Alvra,GR,9.552333520488975,46.674481958891604
che,7452,Surses,GR,9.59573046065128,46.6090084465949
che,7453,Surses,GR,9.619449745255158,46.58360292378715
che,7454,Surses,GR,9.62241081691167,46.56127086997704
che,7455,Surses,GR,9.621413878355698,46.525088511894175
che,7456,Surses,GR,9.637387668439379,46.51033064853698
che,7457,Surses,GR,9.650554268190216,46.468085365411476
che,7458,Albula/Alvra,GR,9.561821110668674,46.65047284999898
che,7459,Albula/Alvra,GR,9.541322641030863,46.66413806809061
che,7460,Surses,GR,9.60265843322106,46.59563418923419
che,7462,Surses,GR,9.572675612234336,46.624309795060405
che,7463,Surses,GR,9.587932056962387,46.62047726484609
che,7464,Surses,GR,9.569627604543784,46.6087390248603
che,7472,Albula/Alvra,GR,9.611667108983672,46.66534518092677
che,7473,Albula/Alvra,GR,9.646987555462392,46.66885766440414
che,7477,Bergün Filisur,GR,9.68867846210036,46.6743120397338
che,7482,Bergün Filisur,GR,9.75165527221981,46.623199349141025
che,7484,Bergün Filisur,GR,9.7534126755521,46.63520708111022
che,7492,Albula/Alvra,GR,9.645525827691221,46.67954608684407
che,7493,Schmitten (GR),GR,9.677294710008944,46.68669192819091
che,7494,Davos,GR,9.7145080173599,46.70372429448486
che,7500,St. Moritz,GR,9.839985337298726,46.498411885201165
che,7502,Bever,GR,9.80939738246323,46.540458044873134
che,7503,Samedan,GR,9.870554894169318,46.53389812955494
che,7504,Pontresina,GR,9.90247473487033,46.49350224505089
che,7505,Celerina/Schlarigna,GR,9.86263028498326,46.512277829363434
che,7512,Silvaplana,GR,9.810487830965869,46.47813089276229
che,7513,Silvaplana,GR,9.804569159823977,46.45944085501244
che,7514,Sils im Engadin/Segl,GR,9.762262426570274,46.42399711001751
che,7515,Sils im Engadin/Segl,GR,9.75508505538917,46.434692470907926
che,7516,Bregaglia,GR,9.696147630194279,46.402359554656975
che,7517,Sils im Engadin/Segl,GR,9.724474514732494,46.42182478352468
che,7522,La Punt-Chamues-ch,GR,9.928683611466699,46.577541480429105
che,7523,Madulain,GR,9.967604984168524,46.54136895559458
che,7524,Zuoz,GR,9.921485772840587,46.606514147509685
che,7525,S-chanf,GR,9.985068420622047,46.61388724959402
che,7526,S-chanf,GR,10.020685111652117,46.642303391225596
che,7527,Zernez,GR,10.036522903505652,46.656381559748965
che,7530,Zernez,GR,10.095238060122242,46.699273909933964
che,7532,Val Müstair,GR,10.340760387800263,46.62445550651699
che,7533,Val Müstair,GR,10.371404029092167,46.60864013445815
che,7534,Val Müstair,GR,10.369174166130472,46.62244336904221
che,7535,Val Müstair,GR,10.408568958033277,46.600194235573426
che,7536,Val Müstair,GR,10.422838532516618,46.60133014864739
che,7537,Val Müstair,GR,10.445205632132339,46.62171782204736
che,7542,Zernez,GR,10.077047461867009,46.74911382288342
che,7543,Zernez,GR,10.113239893470533,46.77015633552379
che,7545,Scuol,GR,10.152113848288005,46.775121767401416
che,7546,Scuol,GR,10.202042231745917,46.77545273488475
che,7550,Scuol,GR,10.304523341963684,46.793901161043046
che,7551,Scuol,GR,10.246137404124859,46.79611065446124
che,7552,Scuol,GR,10.286204795898136,46.78724328759508
che,7553,Scuol,GR,10.264709828718011,46.77574360544
che,7554,Scuol,GR,10.336803012386275,46.81584857319978
che,7556,Valsot,GR,10.315697477483853,46.86761516058181
che,7557,Valsot,GR,10.362110907611504,46.8450617896313
che,7558,Valsot,GR,10.434964080873758,46.86260626861026
che,7559,Valsot,GR,10.422907949739557,46.8708574721957
che,7560,Valsot,GR,10.463543700515107,46.884345562552916
che,7562,Samnaun,GR,10.400228335646238,46.96125368241466
che,7563,Samnaun,GR,10.36144939317227,46.941168314004
che,7602,Bregaglia,GR,9.665848595358023,46.39091769995954
che,7603,Bregaglia,GR,9.622188404686527,46.35086793586554
che,7604,Bregaglia,GR,9.60386496204543,46.34783262722452
che,7605,Bregaglia,GR,9.59064788178799,46.34340904580393
che,7606,Bregaglia,GR,9.556330558485971,46.33594520003922
che,7608,Bregaglia,GR,9.516180186010288,46.33391441398864
che,7610,Bregaglia,GR,9.539256555961222,46.34109021365299
che,7710,Poschiavo,GR,10.02741884257286,46.392712103296
che,7741,Poschiavo,GR,10.064275220414984,46.34377072311453
che,7742,Poschiavo,GR,10.070632998022052,46.37195262115093
che,7743,"Poschiavo,Brusio",GR,10.11252305683897,46.2658056869205
che,7744,Brusio,GR,10.141885651361603,46.23331574212598
che,7745,Poschiavo,GR,10.062680084240279,46.31069948897207
che,7746,Poschiavo,GR,10.080528910948225,46.2931714078487
che,7747,Brusio,GR,10.139831692623684,46.25372230256232
che,7748,Brusio,GR,10.129823222173918,46.2452286402286
che,8001,Zürich,ZH,8.541364426159634,47.372779850394494
che,8002,Zürich,ZH,8.531469068277678,47.360518489022034
che,8003,Zürich,ZH,8.516142107913552,47.37257856942127
che,8004,Zürich,ZH,8.52337017333728,47.37800217265169
che,8005,Zürich,ZH,8.520684105099669,47.38676633563335
che,8006,Zürich,ZH,8.543174739428517,47.38576567318732
che,8008,Zürich,ZH,8.562991522163626,47.355906447446095
che,8032,Zürich,ZH,8.564438726301018,47.36668879694642
che,8037,Zürich,ZH,8.524261806663304,47.3984949068526
che,8038,Zürich,ZH,8.532083491855964,47.340794503283526
che,8041,Zürich,ZH,8.51566433067803,47.33605960507216
che,8044,"Dübendorf,Zürich",ZH,8.587658209748279,47.38187531796487
che,8045,Zürich,ZH,8.505710436903986,47.3516151535761
che,8046,Zürich,ZH,8.508278676048434,47.42217738138206
che,8047,Zürich,ZH,8.487021836354156,47.37389233190548
che,8048,Zürich,ZH,8.483869307031553,47.38674495971957
che,8049,Zürich,ZH,8.500466748261303,47.40869838981309
che,8050,Zürich,ZH,8.550802019058356,47.411938011240046
che,8051,Zürich,ZH,8.578817475538518,47.39965103296356
che,8052,Zürich,ZH,8.540635922119586,47.42445077129379
che,8053,Zürich,ZH,8.597417238860887,47.361290395249945
che,8055,Zürich,ZH,8.490292050946403,47.36418880785496
che,8057,Zürich,ZH,8.54739260758107,47.39992584088796
che,8064,Zürich,ZH,8.485247272827678,47.39865759689884
che,8102,Oberengstringen,ZH,8.462359599999985,47.40837400096172
che,8103,Unterengstringen,ZH,8.449449188670052,47.41332598368551
che,8104,Weiningen (ZH),ZH,8.435984129813301,47.42063185263474
che,8105,Regensdorf,ZH,8.47344222974432,47.43674926968653
che,8106,Regensdorf,ZH,8.463550983555653,47.450321295166816
che,8107,Buchs (ZH),ZH,8.43812539324188,47.45881152222135
che,8108,Dällikon,ZH,8.439384093893743,47.439931610525065
che,8109,Würenlos,AG,8.439065847735678,47.408275656017075
che,8112,Otelfingen,ZH,8.387127546944358,47.46190585454648
che,8113,Boppelsen,ZH,8.402593613350334,47.47053417759852
che,8114,Dänikon,ZH,8.405405206690604,47.44594314149815
che,8115,Hüttikon,ZH,8.3871685039007,47.44608841496912
che,8117,Fällanden,ZH,8.638358449481473,47.370528890884025
che,8118,Fällanden,ZH,8.623247129419298,47.365736958432386
che,8121,Fällanden,ZH,8.637323992136501,47.36117322895199
che,8122,Maur,ZH,8.627067326055073,47.3567446276112
che,8123,Maur,ZH,8.63997210016202,47.35147588793316
che,8124,Maur,ZH,8.672844678428786,47.337809961101
che,8125,Zollikon,ZH,8.602261647411272,47.34800675033365
che,8126,Zumikon,ZH,8.623277907915842,47.33140333459929
che,8127,Küsnacht (ZH),ZH,8.64823740902385,47.32539830775686
che,8132,Egg,ZH,8.687845292355703,47.30329785463899
che,8133,Egg,ZH,8.709645800528287,47.28835517148578
che,8134,Adliswil,ZH,8.522315303694375,47.31284103738969
che,8135,"Horgen,Langnau am Albis",ZH,8.556436083944247,47.26524119070666
che,8136,Thalwil,ZH,8.550583931680446,47.28462029304318
che,8142,Uitikon,ZH,8.453979400763368,47.37085162274271
che,8143,Stallikon,ZH,8.491170999140042,47.33767164995969
che,8152,Opfikon,ZH,8.569095590066391,47.429765483595325
che,8153,Rümlang,ZH,8.532700636182767,47.45169256661303
che,8154,Oberglatt,ZH,8.52072647965942,47.47663140368921
che,8155,Niederhasli,ZH,8.47764007137221,47.474043693162656
che,8156,Niederhasli,ZH,8.49828249716288,47.46541926244082
che,8157,Dielsdorf,ZH,8.45355459043416,47.48419186144986
che,8158,Regensberg,ZH,8.438811951768018,47.48314969967728
che,8162,Steinmaur,ZH,8.445787199277955,47.49491246721281
che,8164,Bachs,ZH,8.439070029806588,47.525058956598905
che,8165,"Schöfflisdorf,Oberweningen,Schleinikon",ZH,8.405249914510394,47.500642824252054
che,8166,Niederweningen,ZH,8.368980277796924,47.50414122859768
che,8172,Niederglatt,ZH,8.503516038972544,47.487463475564354
che,8173,Neerach,ZH,8.474521202727681,47.51348577209389
che,8174,Stadel,ZH,8.466077102463384,47.52714340464087
che,8175,Stadel,ZH,8.474969835465785,47.54114992574625
che,8180,Bülach,ZH,8.540863629475654,47.51707100782143
che,8181,Höri,ZH,8.508440693226534,47.50742392281879
che,8182,Hochfelden,ZH,8.515470064458354,47.52335843558774
che,8184,Bachenbülach,ZH,8.546430192606914,47.50356920457575
che,8185,Winkel,ZH,8.554477337310221,47.49250038461605
che,8187,Weiach,ZH,8.437903123722483,47.557620708315255
che,8192,Glattfelden,ZH,8.482803834700832,47.55986659417988
che,8193,Eglisau,ZH,8.526037855083437,47.57518002603192
che,8194,Hüntwangen,ZH,8.49291578573097,47.595449463508864
che,8195,Wasterkingen,ZH,8.472611941896382,47.590126688509976
che,8196,Wil (ZH),ZH,8.503495532736599,47.60268307307099
che,8197,Rafz,ZH,8.534988509339827,47.61438943799315
che,8200,Schaffhausen,SH,8.625944327597136,47.71766273098231
che,8203,Schaffhausen,SH,8.66205519343421,47.6997598969335
che,8207,Schaffhausen,SH,8.672768788265897,47.72346967760935
che,8208,Schaffhausen,SH,8.635900474439833,47.71189902286903
che,8212,"Neuhausen am Rheinfall,Laufen-Uhwiesen","ZH,SH",8.61264545032728,47.675885300681244
che,8213,Neunkirch,SH,8.498689224812633,47.69058141558467
che,8214,Gächlingen,SH,8.505151063998493,47.71867626183042
che,8215,Hallau,SH,8.462171251437317,47.69841481570357
che,8216,Oberhallau,SH,8.47852194976199,47.704881982648565
che,8217,Wilchingen,SH,8.49202015366333,47.66237019958869
che,8218,Wilchingen,SH,8.491104201092346,47.66307504176219
che,8219,Trasadingen,SH,8.43067620221272,47.66793684735378
che,8222,Beringen,SH,8.572611624934392,47.699178668182974
che,8223,Beringen,SH,8.557250708561561,47.68601514737714
che,8224,Löhningen,SH,8.553064840247583,47.69912853977566
che,8225,Siblingen,SH,8.519391058790344,47.714187206299286
che,8226,Schleitheim,SH,8.488614291114509,47.749626333069756
che,8228,Beggingen,SH,8.533659241969888,47.767624155231374
che,8231,Schaffhausen,SH,8.579115266112112,47.73532683241783
che,8232,Merishausen,SH,8.607066926262922,47.76008783835918
che,8233,Bargen (SH),SH,8.610245613254218,47.791911611278145
che,8234,Stetten (SH),SH,8.663118865631523,47.74019275137458
che,8235,Lohn (SH),SH,8.671226011560446,47.75640459938197
che,8236,"Büttenhardt,Thayngen",SH,8.657795293270738,47.76668507461749
che,8239,Dörflingen,SH,8.72284975667164,47.706161461245316
che,8240,Thayngen,SH,8.711194668363992,47.74744104783301
che,8241,Thayngen,SH,8.721166707726539,47.760675898722
che,8242,Thayngen,SH,8.677085185385039,47.77768842139287
che,8243,Thayngen,SH,8.658575871778845,47.78409678066163
che,8245,Feuerthalen,ZH,8.64104452857084,47.69094830024171
che,8246,Feuerthalen,ZH,8.6632601277367,47.683983554881884
che,8247,Flurlingen,ZH,8.62786801940825,47.684170787804696
che,8248,Laufen-Uhwiesen,ZH,8.634368664570138,47.671078389869436
che,8252,Schlatt (TG),TG,8.702829602932093,47.66157027484184
che,8253,Diessenhofen,TG,8.743436319838548,47.68431020642957
che,8254,Basadingen-Schlattingen,TG,8.743397635316333,47.67161675706732
che,8255,Basadingen-Schlattingen,TG,8.770237543088706,47.666862359484426
che,8259,Wagenhausen,TG,8.829125339398608,47.662760142156486
che,8260,Stein am Rhein,SH,8.860172420275655,47.658935719557284
che,8261,Hemishofen,SH,8.8320704874562,47.6768716239904
che,8262,Ramsen,SH,8.813003041693037,47.70692880627541
che,8263,Buch (SH),SH,8.783015003804268,47.71710039603235
che,8264,Eschenz,TG,8.875013679030275,47.64654703432426
che,8265,Mammern,TG,8.916934746606069,47.64582254933177
che,8266,Steckborn,TG,8.983403285234761,47.666746915126794
che,8267,Berlingen,TG,9.016329954737065,47.67446374518013
che,8268,Salenstein,TG,9.05523940000298,47.671477038479864
che,8269,Salenstein,TG,9.064854707760444,47.65943393011692
che,8272,Ermatingen,TG,9.080437384090779,47.669867780714476
che,8273,Ermatingen,TG,9.10780252703643,47.66198945820661
che,8274,"Tägerwilen,Gottlieben",TG,9.135123792617424,47.65933746094183
che,8280,Kreuzlingen,TG,9.173202396172774,47.64467769015092
che,8302,Kloten,ZH,8.584370227219702,47.452530526636714
che,8303,Bassersdorf,ZH,8.627838771811374,47.44430845300167
che,8304,Wallisellen,ZH,8.591794513941402,47.412676351995
che,8305,Dietlikon,ZH,8.615781748254062,47.425528621615285
che,8306,Wangen-Brüttisellen,ZH,8.629741540885098,47.42322240129563
che,8307,Illnau-Effretikon,ZH,8.703180200330115,47.43141715798437
che,8308,Illnau-Effretikon,ZH,8.732976343247834,47.41707409366113
che,8309,Nürensdorf,ZH,8.649206628955003,47.447975906036774
che,8310,Lindau,ZH,8.70195242033872,47.448341014925845
che,8311,Brütten,ZH,8.674222243891652,47.47408979183086
che,8312,Lindau,ZH,8.692087063972052,47.45655292869648
che,8314,Illnau-Effretikon,ZH,8.744690069810785,47.457782435022935
che,8315,Lindau,ZH,8.670647759883606,47.441863068421256
che,8317,Lindau,ZH,8.671844628020898,47.43041565227738
che,8320,Fehraltorf,ZH,8.75227696885112,47.38712798665247
che,8322,Russikon,ZH,8.799443003210332,47.4040942530343
che,8330,Pfäffikon,ZH,8.781101980256928,47.36522615309005
che,8331,Pfäffikon,ZH,8.806905571836962,47.34550487891338
che,8332,Russikon,ZH,8.766757406345576,47.40275265484956
che,8335,Hittnau,ZH,8.824101584206877,47.36092687982071
che,8340,Hinwil,ZH,8.847208610141404,47.3011820716778
che,8342,Hinwil,ZH,8.866444416626077,47.29897194749234
che,8344,Bäretswil,ZH,8.855778461469962,47.33753525294942
che,8345,Bäretswil,ZH,8.840409637136649,47.34052055329249
che,8352,"Elsau,Winterthur",ZH,8.801728513359237,47.49604338077921
che,8353,Elgg,ZH,8.867576656208634,47.490181864605894
che,8354,Elgg,ZH,8.84268448741502,47.48475090246044
che,8355,Aadorf,TG,8.897698232945539,47.491359432972175
che,8356,Aadorf,TG,8.898302903342774,47.47838544285783
che,8357,Aadorf,TG,8.916864917262643,47.474261206922385
che,8360,Eschlikon,TG,8.959843174282257,47.46011966696494
che,8362,Bichelsee-Balterswil,TG,8.937620453422324,47.45315791185668
che,8363,Bichelsee-Balterswil,TG,8.92132135078989,47.4510312470221
che,8370,Sirnach,TG,8.997506656925943,47.462030751662674
che,8371,Sirnach,TG,9.015758515544167,47.45338351874147
che,8372,Sirnach,TG,8.98654514111016,47.4503735627214
che,8374,Fischingen,TG,8.96782323638044,47.43005319028822
che,8376,Fischingen,TG,8.960923519216635,47.40507594748833
che,8400,Winterthur,ZH,8.72954884269744,47.491621873326025
che,8404,Winterthur,ZH,8.757341940957996,47.52332423510175
che,8405,Winterthur,ZH,8.778269585505281,47.47754949977949
che,8406,Winterthur,ZH,8.700625776013919,47.48322456758198
che,8408,Winterthur,ZH,8.68334220971565,47.507739499103174
che,8409,Winterthur,ZH,8.781455850549886,47.509825107380685
che,8412,Neftenbach,ZH,8.678135538485648,47.54329287078547
che,8413,Neftenbach,ZH,8.667824601889857,47.528558934584815
che,8414,Buch am Irchel,ZH,8.622589256001662,47.54900405618059
che,8415,Berg am Irchel,ZH,8.601726026533997,47.56389128646592
che,8416,Flaach,ZH,8.602852629691219,47.573334476210746
che,8418,Schlatt (ZH),ZH,8.825961740283876,47.467954752686026
che,8421,Dättlikon,ZH,8.62416872473886,47.52488279107802
che,8422,Pfungen,ZH,8.64653645848558,47.51587827090937
che,8424,Embrach,ZH,8.595217101828691,47.5012284266776
che,8425,Oberembrach,ZH,8.617427756375864,47.48740722767349
che,8426,Lufingen,ZH,8.593667175905107,47.490399981624726
che,8427,"Rorbas,Freienstein-Teufen",ZH,8.584486543992078,47.530797365615015
che,8428,Freienstein-Teufen,ZH,8.567384714588758,47.5498909760702
che,8442,Hettlingen,ZH,8.708118813703202,47.54838177671515
che,8444,Henggart,ZH,8.683314132835044,47.562703893397725
che,8447,Dachsen,ZH,8.613862622551544,47.66697234300321
che,8450,Andelfingen,ZH,8.67852026951591,47.59488220222429
che,8451,Kleinandelfingen,ZH,8.682990859670031,47.59952836439314
che,8452,Adlikon,ZH,8.693576344119805,47.5808714673052
che,8453,Kleinandelfingen,ZH,8.647460097153353,47.59942553542319
che,8454,Buchberg,SH,8.562847812627616,47.57278001913014
che,8455,Rüdlingen,SH,8.572229025722118,47.57917928752981
che,8457,Humlikon,ZH,8.6695746664396,47.5756287355605
che,8458,Dorf,ZH,8.647981643666581,47.571686192436104
che,8459,Volken,ZH,8.629002244065166,47.57283883412277
che,8460,Marthalen,ZH,8.64840876490265,47.625205662378576
che,8461,Kleinandelfingen,ZH,8.676249811872285,47.623984129562366
che,8462,Rheinau,ZH,8.603384787478777,47.64394415257786
che,8463,Benken (ZH),ZH,8.654019191577385,47.652738965145204
che,8464,Marthalen,ZH,8.597405495833414,47.60548557444781
che,8465,Trüllikon,ZH,8.676430482073524,47.645437938983164
che,8466,Trüllikon,ZH,8.692247251999763,47.6372693507532
che,8467,Truttikon,ZH,8.726514605727541,47.630128658579395
che,8468,Stammheim,ZH,8.77405600276493,47.6285796829079
che,8471,Dägerlen,ZH,8.728399848048118,47.56085071054973
che,8472,Seuzach,ZH,8.738367629185621,47.53623448874517
che,8474,Dinhard,ZH,8.768290555789141,47.5552042607987
che,8475,Ossingen,ZH,8.725764404647776,47.610340091874704
che,8476,Stammheim,ZH,8.792329552566267,47.640836032254974
che,8477,Stammheim,ZH,8.801146885097534,47.63401560250836
che,8478,Thalheim an der Thur,ZH,8.75433628100378,47.57897255565752
che,8479,Altikon,ZH,8.78450488733637,47.57524000380281
che,8482,Winterthur,ZH,8.758021929741268,47.46916602671504
che,8483,Zell (ZH),ZH,8.776625472983099,47.45729666979828
che,8484,Weisslingen,ZH,8.773711059881052,47.42825130570278
che,8486,Zell (ZH),ZH,8.796773363512141,47.44472450528815
che,8487,Zell (ZH),ZH,8.820889980524786,47.44504888138094
che,8488,Turbenthal,ZH,8.847388690836127,47.435162691586676
che,8489,Wildberg,ZH,8.817307578954193,47.4177952196477
che,8492,Wila,ZH,8.845832655779686,47.419415653114356
che,8493,Bauma,ZH,8.853481324148392,47.3911160003606
che,8494,Bauma,ZH,8.87724382487757,47.3672886580185
che,8495,Turbenthal,ZH,8.903416307294572,47.414813127928475
che,8496,Fischenthal,ZH,8.932353997483498,47.35391272673796
che,8497,Fischenthal,ZH,8.919322585122904,47.33147322605521
che,8498,Fischenthal,ZH,8.915288758150421,47.31395009567144
che,8499,Bauma,ZH,8.911753654818924,47.38730264429756
che,8500,Frauenfeld,TG,8.888346895086364,47.546510773177445
che,8505,Pfyn,TG,8.955291684684337,47.60555957901232
che,8506,Herdern,TG,8.937919598385434,47.62329906642247
che,8507,Homburg,TG,8.969876094902135,47.632140741846065
che,8508,Homburg,TG,9.008433223797539,47.63514100022468
che,8512,Thundorf,TG,8.983635013199718,47.54467759523329
che,8514,Amlikon-Bissegg,TG,9.048579405290678,47.56591680954591
che,8522,Aadorf,TG,8.901644115439975,47.519543311074635
che,8523,Hagenbuch,ZH,8.88783517467721,47.52101673163975
che,8524,Uesslingen-Buch,TG,8.838779438191274,47.5894276460468
che,8525,"Neunforn,Stammheim","ZH,TG",8.787613040504342,47.59890149008132
che,8526,Neunforn,TG,8.766802150731355,47.60594651655487
che,8532,Warth-Weiningen,TG,8.88251806061673,47.58643252712057
che,8535,Herdern,TG,8.91291892386765,47.60336002259086
che,8536,Hüttwilen,TG,8.875866297414618,47.608415849496794
che,8537,Hüttwilen,TG,8.8236360878549,47.61838412919324
che,8542,Wiesendangen,ZH,8.789515621863183,47.52126013157206
che,8543,Wiesendangen,ZH,8.822620597939116,47.53851435440498
che,8544,Wiesendangen,ZH,8.797961991544101,47.535873493273314
che,8545,Rickenbach (ZH),ZH,8.790885797002353,47.54607202036695
che,8546,"Gachnang,Wiesendangen","ZH,TG",8.833745031413926,47.54923828525322
che,8547,Gachnang,TG,8.851107442117177,47.537850417079326
che,8548,Ellikon an der Thur,ZH,8.825412166209187,47.56201674458188
che,8552,Felben-Wellhausen,TG,8.94265061464982,47.57690914614743
che,8553,Hüttlingen,TG,8.989076378340748,47.576245101199476
che,8554,Wigoltingen,TG,9.029952770154791,47.58537323177704
che,8555,Müllheim,TG,9.01045357473565,47.60316832505558
che,8556,Wigoltingen,TG,9.040169143762945,47.60639499506661
che,8558,Raperswilen,TG,9.042383130365128,47.63224859206152
che,8560,Märstetten,TG,9.069275600920463,47.593924025503654
che,8561,Märstetten,TG,9.085508031967453,47.58733345266248
che,8564,"Wäldi,Wigoltingen",TG,9.074509431571911,47.62143748295827
che,8565,Kemmental,TG,9.115091564761084,47.59875600144734
che,8566,Kemmental,TG,9.130623982488196,47.61117844677892
che,8570,Weinfelden,TG,9.111270745411431,47.568069401596325
che,8572,Berg (TG),TG,9.182193511805917,47.58453549028417
che,8573,Kemmental,TG,9.16472162974984,47.60739868648118
che,8574,Lengwil,TG,9.199288538093532,47.616351501704926
che,8575,Bürglen (TG),TG,9.151403268876736,47.54408759220429
che,8576,Berg (TG),TG,9.151774698029678,47.56653412874885
che,8577,Schönholzerswilen,TG,9.14091978780629,47.51699252217091
che,8580,"Hefenhofen,Amriswil,Sommeri",TG,9.290823377192286,47.550501875435074
che,8581,Amriswil,TG,9.266319985119562,47.53695161573004
che,8582,Dozwil,TG,9.320000156083006,47.576045297667314
che,8583,Sulgen,TG,9.198649427953903,47.54411719367397
che,8584,Bürglen (TG),TG,9.179893830203957,47.56075879030512
che,8585,"Langrickenbach,Birwinken",TG,9.224723589841973,47.590987797959635
che,8586,"Birwinken,Erlen",TG,9.230482294791376,47.55499981737839
che,8587,Amriswil,TG,9.266938263430266,47.55895494892781
che,8588,Zihlschlacht-Sitterdorf,TG,9.257726529888883,47.52126474160961
che,8589,Zihlschlacht-Sitterdorf,TG,9.248422280940806,47.50480318929245
che,8590,Romanshorn,TG,9.369414030317662,47.564869012278955
che,8592,Uttwil,TG,9.341015137356061,47.58358393388047
che,8593,Kesswil,TG,9.316816142682331,47.59339455919304
che,8594,Güttingen,TG,9.286361341844543,47.602627471207725
che,8595,Altnau,TG,9.257678768719039,47.608026561562994
che,8596,Münsterlingen,TG,9.229089506314406,47.63171259680071
che,8597,Münsterlingen,TG,9.24461971949314,47.625606505497466
che,8598,Bottighofen,TG,9.213300051178269,47.640799298993684
che,8599,Salmsach,TG,9.374814390724376,47.555680633096905
che,8600,Dübendorf,ZH,8.618052062776723,47.39508026329833
che,8602,Wangen-Brüttisellen,ZH,8.646458325200049,47.40946288435608
che,8603,Schwerzenbach,ZH,8.652131602888902,47.37979451346095
che,8604,Volketswil,ZH,8.69142247090143,47.38905499772681
che,8605,Volketswil,ZH,8.717984059779962,47.38514559334549
che,8606,"Uster,Greifensee",ZH,8.68518274843803,47.36758344002803
che,8607,Seegräben,ZH,8.769625042807338,47.339446870083464
che,8608,Bubikon,ZH,8.817225489727857,47.26900932951344
che,8610,Uster,ZH,8.716900825100451,47.34585310298203
che,8614,"Uster,Gossau (ZH)",ZH,8.752001419733304,47.324957022032024
che,8615,Uster,ZH,8.740015169921428,47.3684211207712
che,8616,Uster,ZH,8.711528149578221,47.332526805749254
che,8617,Mönchaltorf,ZH,8.72197517883632,47.31015613385332
che,8618,Oetwil am See,ZH,8.723220837941811,47.270187276271436
che,8620,Wetzikon (ZH),ZH,8.806375156850534,47.322388071910154
che,8623,Wetzikon (ZH),ZH,8.821412157265069,47.332325971110684
che,8624,Gossau (ZH),ZH,8.782010937840672,47.31104833868434
che,8625,Gossau (ZH),ZH,8.76270342930178,47.301044840619056
che,8626,Gossau (ZH),ZH,8.779374208067315,47.29648924305558
che,8627,Grüningen,ZH,8.761922878548353,47.2847987797599
che,8630,Rüti (ZH),ZH,8.849160286108347,47.25910945865308
che,8632,Dürnten,ZH,8.851552008600882,47.26354659322301
che,8633,Bubikon,ZH,8.800087295613308,47.25655807424269
che,8634,Hombrechtikon,ZH,8.76387178360639,47.25297519392693
che,8635,Dürnten,ZH,8.843185982524833,47.278137372399314
che,8636,Wald (ZH),ZH,8.915950200012754,47.27704723036556
che,8637,Wald (ZH),ZH,8.928314296723697,47.26510976912709
che,8638,Eschenbach (SG),SG,8.96693434622185,47.26278961317893
che,8640,"Rapperswil-Jona,Freienbach","SZ,SG",8.81122379952729,47.220940581683124
che,8645,Rapperswil-Jona,SG,8.836495621742094,47.22909099662506
che,8646,Rapperswil-Jona,SG,8.886038559102511,47.23094493786106
che,8700,Küsnacht (ZH),ZH,8.583538342756214,47.316872154349795
che,8702,Zollikon,ZH,8.574179370651438,47.33827490362903
che,8703,Erlenbach (ZH),ZH,8.591594123388965,47.30229682295557
che,8704,Herrliberg,ZH,8.616883228825824,47.285197157837146
che,8706,Meilen,ZH,8.639900367478418,47.26809074802968
che,8707,Uetikon am See,ZH,8.676921463896058,47.26182409806981
che,8708,Männedorf,ZH,8.693827542168549,47.25469791517197
che,8712,Stäfa,ZH,8.731044344447753,47.23895073268293
che,8713,Stäfa,ZH,8.756748551921905,47.23456989738882
che,8714,Hombrechtikon,ZH,8.782158936497565,47.2389088992923
che,8715,Rapperswil-Jona,SG,8.894310653849052,47.21938971196935
che,8716,Schmerikon,SG,8.940920249005021,47.22674006676043
che,8717,Benken (SG),SG,9.005676303863984,47.19913406582387
che,8718,Schänis,SG,9.045409062824561,47.15991738989821
che,8722,Kaltbrunn,SG,9.024535761433787,47.21394543896846
che,8723,Schänis,SG,9.049496833329236,47.185915735820885
che,8725,Gommiswald,SG,9.004557746835454,47.244657739321184
che,8726,Wattwil,SG,9.046359396716667,47.265211582529275
che,8727,Eschenbach (SG),SG,9.010632686977985,47.27028085739901
che,8730,Uznach,SG,8.986325139626182,47.22548265178091
che,8732,Eschenbach (SG),SG,8.94718398532512,47.24234994921861
che,8733,Eschenbach (SG),SG,8.919891195443544,47.23958841536021
che,8734,Eschenbach (SG),SG,8.884103472240565,47.244940975148104
che,8735,Eschenbach (SG),SG,8.979152898656874,47.25223348553325
che,8737,Gommiswald,SG,9.022665599924144,47.231181137937014
che,8738,Gommiswald,SG,9.033352853986583,47.23711872617732
che,8739,Gommiswald,SG,9.050555417077607,47.219850230124905
che,8750,Glarus,GL,9.01840957881861,47.03836601166932
che,8751,Spiringen,UR,8.902403687950075,46.8889649784822
che,8752,Glarus Nord,GL,9.057086288722168,47.101118935764944
che,8753,Glarus Nord,GL,9.075755950325457,47.09370121465778
che,8754,Glarus,GL,9.050862325692757,47.06363652842867
che,8755,Glarus,GL,9.079013819662471,47.03383200223124
che,8756,Glarus Süd,GL,9.079020044311086,47.01046280452582
che,8757,Glarus Nord,GL,9.131208745646921,47.12044795903977
che,8758,Glarus Nord,GL,9.151113171791362,47.11753262351983
che,8762,Glarus Süd,GL,9.075752774088057,47.00055286599172
che,8765,Glarus Süd,GL,9.148077409194805,46.983255367261755
che,8766,Glarus Süd,GL,9.170194880862203,46.963239145497035
che,8767,Glarus Süd,GL,9.172159286192429,46.918599051326325
che,8772,Glarus Süd,GL,9.051349760628717,46.9869167377797
che,8773,Glarus Süd,GL,9.060056869149708,46.980691108204546
che,8774,Glarus Süd,GL,9.041053369030076,46.97672906783498
che,8775,Glarus Süd,GL,9.038100616464677,46.96408176129205
che,8777,Glarus Süd,GL,9.031387817138185,46.94803232656486
che,8782,Glarus Süd,GL,9.012876246427323,46.934607503689975
che,8783,Glarus Süd,GL,9.002353130432041,46.92458966830584
che,8784,Glarus Süd,GL,8.9981275693769,46.94068190472314
che,8800,Thalwil,ZH,8.569164155771151,47.290223114366
che,8802,Kilchberg (ZH),ZH,8.542836827741464,47.320417637200315
che,8803,Rüschlikon,ZH,8.554894204054305,47.309324417355974
che,8804,Wädenswil,ZH,8.642975254725027,47.24699034325969
che,8805,Richterswil,ZH,8.700955877910815,47.20826066969482
che,8806,Freienbach,SZ,8.732677963289495,47.203912424806454
che,8807,Freienbach,SZ,8.760536655644964,47.20532735184091
che,8808,Freienbach,SZ,8.777984693859201,47.20037884394818
che,8810,Horgen,ZH,8.59738556918559,47.259524117766894
che,8815,Horgen,ZH,8.583894373012633,47.247864187353954
che,8816,Horgen,ZH,8.606669485579227,47.21702624332535
che,8820,Wädenswil,ZH,8.671744183343975,47.228472295464684
che,8824,Wädenswil,ZH,8.64504004436453,47.19290499031848
che,8825,Wädenswil,ZH,8.669011315897812,47.17565144531808
che,8832,"Wollerau,Freienbach",SZ,8.73530910538949,47.19640476572237
che,8833,Richterswil,ZH,8.678340155299011,47.194584568231676
che,8834,Feusisberg,SZ,8.712700977990258,47.17437572191876
che,8835,Feusisberg,SZ,8.747752202621161,47.18772261952735
che,8836,Einsiedeln,SZ,8.729904864114653,47.14859463487049
che,8840,Einsiedeln,SZ,8.737612197458276,47.113082906986804
che,8841,Einsiedeln,SZ,8.776452319662361,47.115872289819706
che,8842,Unteriberg,SZ,8.80324954943286,47.05637182044858
che,8843,Oberiberg,SZ,8.786479410839526,47.0417017184755
che,8844,Einsiedeln,SZ,8.816409905174293,47.095743603053045
che,8845,Unteriberg,SZ,8.83372908458336,47.073392371959706
che,8846,Einsiedeln,SZ,8.794107792181894,47.129846313085025
che,8847,Einsiedeln,SZ,8.780634245533838,47.16131041771742
che,8849,Alpthal,SZ,8.716168005568507,47.070725849512364
che,8852,Altendorf,SZ,8.830890142007311,47.19195504708368
che,8853,Lachen,SZ,8.857823145434901,47.19745531023492
che,8854,"Schübelbach,Galgenen",SZ,8.885664719108863,47.179234807191634
che,8855,Wangen (SZ),SZ,8.895594576155048,47.19273639901032
che,8856,Tuggen,SZ,8.940498218966773,47.20347118981199
che,8857,Vorderthal,SZ,8.899537972261037,47.122736169461966
che,8858,Innerthal,SZ,8.919226853655152,47.106210995336454
che,8862,Schübelbach,SZ,8.928175315340766,47.17324369130604
che,8863,Schübelbach,SZ,8.953337119235126,47.173762123489006
che,8864,Reichenburg,SZ,8.974202853134715,47.17144478330685
che,8865,Glarus Nord,GL,9.024858959411374,47.150139852155455
che,8866,Schänis,SG,9.060264567125284,47.136277626965935
che,8867,Glarus Nord,GL,9.05293704360893,47.125711764157494
che,8868,Glarus Nord,GL,9.058816007012775,47.11461934488147
che,8872,Weesen,SG,9.096226017876305,47.13531434093685
che,8873,Amden,SG,9.145783626817533,47.14960034385511
che,8874,Glarus Nord,GL,9.172677572785776,47.11734514333961
che,8877,Quarten,SG,9.21597392394533,47.11287595653485
che,8878,Quarten,SG,9.215933831739196,47.12920220954555
che,8880,Walenstadt,SG,9.314830882227334,47.124128413141364
che,8881,Walenstadt,SG,9.312548314082207,47.12739657023667
che,8882,Quarten,SG,9.255427324652695,47.11408519531988
che,8883,Quarten,SG,9.241598058891494,47.109156804554125
che,8884,Quarten,SG,9.255640579509448,47.10280848635397
che,8885,Quarten,SG,9.28125630708726,47.11225234932806
che,8886,Mels,SG,9.392793364267241,47.050999373082455
che,8887,Mels,SG,9.422496253211582,47.046526781476096
che,8888,Mels,SG,9.410408318980675,47.058814024970424
che,8889,Mels,SG,9.399960108719752,47.056996251376866
che,8890,Flums,SG,9.344703494190613,47.090813593476284
che,8892,Walenstadt,SG,9.34693722063211,47.105182486665676
che,8893,Flums,SG,9.370741055370297,47.08381359555509
che,8894,Flums,SG,9.350034645651656,47.07869729611998
che,8895,Flums,SG,9.335450902983093,47.08330667227624
che,8896,Flums,SG,9.30578681747942,47.09765652772271
che,8897,Flums,SG,9.304004405302239,47.08924032072956
che,8898,Flums,SG,9.284264103633198,47.093654419753925
che,8902,Urdorf,ZH,8.423755265480839,47.38266536996476
che,8903,Birmensdorf (ZH),ZH,8.441176919517936,47.351665237544545
che,8904,Aesch (ZH),ZH,8.438240182749134,47.33735726486113
che,8905,"Arni (AG),Islisberg",AG,8.429788219749028,47.320536806615905
che,8906,Bonstetten,ZH,8.467611445312384,47.31551041988308
che,8907,Wettswil am Albis,ZH,8.474962403404636,47.33802011347025
che,8908,Hedingen,ZH,8.450346932518778,47.29793768702259
che,8909,Affoltern am Albis,ZH,8.431458619350812,47.2876330894621
che,8910,Affoltern am Albis,ZH,8.448945112880077,47.27916857724247
che,8911,Rifferswil,ZH,8.496528927971678,47.24347798706338
che,8912,Obfelden,ZH,8.42304503703087,47.2636268536785
che,8913,Ottenbach,ZH,8.404344633221081,47.28277133737463
che,8914,Aeugst am Albis,ZH,8.49097749569906,47.27488259805986
che,8915,Hausen am Albis,ZH,8.53486010402688,47.24235959332327
che,8916,Jonen,AG,8.395477921854784,47.29580040862139
che,8917,Oberlunkhofen,AG,8.38996633989805,47.312402787202814
che,8918,Unterlunkhofen,AG,8.380813880569631,47.32126972233873
che,8919,Rottenschwil,AG,8.365946869331289,47.31442727285185
che,8925,Hausen am Albis,ZH,8.550009060935205,47.2261573747901
che,8926,Kappel am Albis,ZH,8.506528567485107,47.22659584211002
che,8932,Mettmenstetten,ZH,8.463769783327361,47.242799235963965
che,8933,Maschwanden,ZH,8.426273936192054,47.235240765224226
che,8934,Knonau,ZH,8.460616615257766,47.22379409396199
che,8942,Oberrieden,ZH,8.576700382018856,47.277014298220045
che,8951,Geroldswil,ZH,8.415493748599093,47.41041842749119
che,8952,Schlieren,ZH,8.445788972494483,47.3966049051377
che,8953,Dietikon,ZH,8.403729396195992,47.404914196856325
che,8954,Geroldswil,ZH,8.410376203627484,47.42243509640036
che,8955,Oetwil an der Limmat,ZH,8.39499526978769,47.42815598135042
che,8956,Killwangen,AG,8.34871896150538,47.43271019192203
che,8957,Spreitenbach,AG,8.365600590056742,47.41685405909438
che,8962,Bergdietikon,AG,8.380370150733269,47.39075686461178
che,8964,Rudolfstetten-Friedlisberg,AG,8.37918618216318,47.36829136414204
che,8965,Berikon,AG,8.376808905549671,47.35164286678234
che,8966,Oberwil-Lieli,AG,8.385604554230742,47.33571855557597
che,8967,Widen,AG,8.35766836426026,47.36767820915273
che,9000,St. Gallen,SG,9.362229413507695,47.42363487883571
che,9008,St. Gallen,SG,9.39185110748458,47.44181557229332
che,9010,St. Gallen,SG,9.37171024867228,47.44223918451004
che,9011,St. Gallen,SG,9.399316304187936,47.41476307732839
che,9012,St. Gallen,SG,9.360818719400767,47.41028434194868
che,9014,St. Gallen,SG,9.335477413627848,47.40925795467224
che,9015,St. Gallen,SG,9.310157852628306,47.405746185570756
che,9016,St. Gallen,SG,9.414065451995727,47.44150235634556
che,9030,Gaiserwald,SG,9.330191268107413,47.423200271495986
che,9032,Gaiserwald,SG,9.341228663314787,47.44373074955353
che,9033,Untereggen,SG,9.445943990240924,47.452258797691535
che,9034,Eggersriet,SG,9.471835195920713,47.442356230007604
che,9035,Grub (AR),AR,9.509522929898669,47.44844912193842
che,9036,Eggersriet,SG,9.512724846746504,47.45202638263008
che,9037,Speicher,AR,9.436636400039882,47.425174767984636
che,9038,Rehetobel,AR,9.482502270572782,47.42623637816181
che,9042,Speicher,AR,9.442710395538477,47.41318472487846
che,9043,Trogen,AR,9.465423036427048,47.40830647933185
che,9044,Wald (AR),AR,9.489073151072818,47.415504555601565
che,9050,"Appenzell,Rüte,Schlatt-Haslen",AI,9.416059663981558,47.339468099520644
che,9052,Teufen (AR),AR,9.367348250241708,47.39224984279914
che,9053,Teufen (AR),AR,9.38757553105238,47.38986175090979
che,9054,Schlatt-Haslen,AI,9.366958528861256,47.36963734012242
che,9055,Bühler,AR,9.425841920347851,47.37339398841754
che,9056,Gais,AR,9.455029331585484,47.36227505751486
che,9057,"Schwende,Rüte",AI,9.432795930280717,47.29885294201947
che,9058,Rüte,AI,9.45639863103018,47.29737443701988
che,9062,Teufen (AR),AR,9.359179769015343,47.400290249646
che,9063,Stein (AR),AR,9.34399890460838,47.37511129920863
che,9064,Hundwil,AR,9.320539709061876,47.36564558625275
che,9100,Herisau,AR,9.279451691019037,47.385925697304494
che,9103,Schwellbrunn,AR,9.24926780474281,47.35225924928341
che,9104,Waldstatt,AR,9.283506051426595,47.35647794683162
che,9105,Schönengrund,AR,9.226361464778448,47.32578436455803
che,9107,Urnäsch,AR,9.28293694355312,47.317043247690144
che,9108,Gonten,AI,9.349109239607255,47.32666383459769
che,9112,Herisau,AR,9.243146227843573,47.38509125733599
che,9113,Degersheim,SG,9.196920394554397,47.37338763783697
che,9114,Neckertal,SG,9.173392673591144,47.36215348940711
che,9115,Neckertal,SG,9.190465242766294,47.337081588624834
che,9116,Degersheim,SG,9.18359480823237,47.394538932227746
che,9122,Neckertal,SG,9.14481106474664,47.35586392808345
che,9123,Neckertal,SG,9.136051570088444,47.37296457754874
che,9125,Neckertal,SG,9.131532806232146,47.334553147808336
che,9126,Neckertal,SG,9.130206532594244,47.348074953527615
che,9127,Neckertal,SG,9.173886707822373,47.318033394933884
che,9200,Gossau (SG),SG,9.2496185458351,47.415378292541504
che,9203,Oberbüren,SG,9.200862784710695,47.439321867454126
che,9204,Andwil (SG),SG,9.269875970581152,47.439393731761655
che,9205,Waldkirch,SG,9.284957237907584,47.46953654137728
che,9212,Gossau (SG),SG,9.25203954790874,47.441998110402935
che,9213,Hauptwil-Gottshaus,TG,9.253116988091925,47.480625806585465
che,9214,Kradolf-Schönenberg,TG,9.201326744160744,47.52514369128357
che,9215,Kradolf-Schönenberg,TG,9.182511936294478,47.52422791718812
che,9216,Hohentannen,TG,9.222383781575456,47.519981667953516
che,9217,Kradolf-Schönenberg,TG,9.170899828921053,47.510407002026426
che,9220,Bischofszell,TG,9.238937813693683,47.494012618111476
che,9223,Bischofszell,TG,9.2051309285206,47.50296443977646
che,9225,Hauptwil-Gottshaus,TG,9.292762793564318,47.49149169031228
che,9230,Flawil,SG,9.183742059354644,47.41696411118511
che,9231,Flawil,SG,9.226390970206584,47.39166590646902
che,9240,"Uzwil,Oberuzwil",SG,9.151411444125356,47.43384407778643
che,9242,Oberuzwil,SG,9.120602500421226,47.4311744737072
che,9243,Jonschwil,SG,9.088287180551246,47.42409919843579
che,9244,Uzwil,SG,9.14226342134184,47.44463806502218
che,9245,Oberbüren,SG,9.149024911890956,47.455668382009875
che,9246,Niederbüren,SG,9.207785559371032,47.46509056114881
che,9247,Uzwil,SG,9.11947784080366,47.45210338721118
che,9248,Oberuzwil,SG,9.136890343496367,47.418926607488025
che,9249,Uzwil,SG,9.093239217574277,47.44920130680606
che,9300,Wittenbach,SG,9.379114458152808,47.4633503264606
che,9304,Waldkirch,SG,9.33655672266365,47.473779736569355
che,9305,Berg (SG),SG,9.40781390385026,47.48656706184253
che,9306,Roggwil (TG),TG,9.397297275540373,47.48629744242055
che,9308,Häggenschwil,SG,9.354106581463435,47.496587792638095
che,9312,Häggenschwil,SG,9.343854252514822,47.49423437336003
che,9313,Muolen,SG,9.321541408358607,47.52001551608628
che,9314,Egnach,TG,9.34336295568951,47.534313547359076
che,9315,Egnach,TG,9.363102172419378,47.517366900866705
che,9320,Arbon,TG,9.417537897934176,47.51640868130568
che,9322,Egnach,TG,9.382844375901977,47.544287254450026
che,9323,Steinach,SG,9.44022892377825,47.502637098863275
che,9325,Roggwil (TG),TG,9.396321214344473,47.500174451599996
che,9326,Horn,TG,9.463107378409346,47.49383971964694
che,9327,Tübach,SG,9.453790787869416,47.48474291858882
che,9400,Rorschach,SG,9.49135211937201,47.4744596741884
che,9402,Mörschwil,SG,9.424458195497028,47.468178500691785
che,9403,Goldach,SG,9.464790704694314,47.473364091201105
che,9404,Rorschacherberg,SG,9.502127444817242,47.46628088967783
che,9405,Lutzenberg,AR,9.539165545361891,47.46547751465469
che,9410,Heiden,AR,9.53506624262168,47.44511656482135
che,9411,"Berneck,Reute (AR)","AR,SG",9.576633210628287,47.4224578992048
che,9413,Oberegg,AI,9.56836565170345,47.42252344415398
che,9422,Thal,SG,9.542224631484782,47.48058223802771
che,9423,Thal,SG,9.551472310960577,47.49089255048704
che,9424,Rheineck,SG,9.590040969029085,47.46579958226498
che,9425,Thal,SG,9.569448639134338,47.46503525892179
che,9426,Lutzenberg,AR,9.583624632065801,47.459590670856706
che,9427,Wolfhalden,AR,9.550719045799454,47.45404240700694
che,9428,Walzenhausen,AR,9.601169092597047,47.451527876259966
che,9430,St. Margrethen,SG,9.62590374829524,47.45394258044949
che,9434,Au (SG),SG,9.633782502150579,47.433413607433216
che,9435,Au (SG),SG,9.626882818450294,47.41286294017058
che,9436,Balgach,SG,9.606310605527616,47.407373244951316
che,9437,Marbach (SG),SG,9.567526869638053,47.391728058801654
che,9442,"Berneck,Oberegg","AI,SG",9.609757472891692,47.429424492196745
che,9443,Widnau,SG,9.639645589034703,47.40413508919252
che,9444,Diepoldsau,SG,9.657629110018572,47.38540320222254
che,9445,Rebstein,SG,9.584152908151736,47.39949821261158
che,9450,Altstätten,SG,9.546751926225458,47.38274198890349
che,9451,Oberriet (SG),SG,9.606844040400167,47.365441436193095
che,9452,Altstätten,SG,9.535022408142149,47.360407165060714
che,9453,Eichberg,SG,9.529540033993932,47.34502739891507
che,9462,Oberriet (SG),SG,9.548883981364444,47.32281141682709
che,9463,Oberriet (SG),SG,9.570876253532482,47.326091542246324
che,9464,"Altstätten,Rüthi (SG)",SG,9.527388915701044,47.2865484579424
che,9465,Sennwald,SG,9.502596343811154,47.237490791947394
che,9466,Sennwald,SG,9.507912509963626,47.26561726802908
che,9467,Sennwald,SG,9.472304216005817,47.243474630254276
che,9468,Sennwald,SG,9.459256559056175,47.23207857868058
che,9469,Sennwald,SG,9.492053649116237,47.212164044934966
che,9470,"Grabs,Buchs (SG)",SG,9.464670536948073,47.16682861099556
che,9472,Grabs,SG,9.436169491389986,47.18134823407829
che,9473,Gams,SG,9.440358587068797,47.203754469600256
che,9475,Sevelen,SG,9.486082549109202,47.12149413175542
che,9476,Wartau,SG,9.493177086093059,47.09136342733035
che,9477,Wartau,SG,9.47861333001629,47.07081665015197
che,9478,Wartau,SG,9.475824592196318,47.0801387596105
che,9479,Wartau,SG,9.479238784243407,47.09574790142688
che,9485,Eschen,LI,9.544033688573524,47.19836122968354
che,9486,Mauren,LI,9.56185656480388,47.21318178928653
che,9487,Gamprin,LI,9.506075274342836,47.21515608877409
che,9488,Schellenberg,LI,9.54600684065143,47.23136529420569
che,9490,Vaduz,LI,9.52257934773574,47.136252898379574
che,9491,Ruggell,LI,9.528830277668794,47.24100025808611
che,9492,Eschen,LI,9.524218680309877,47.21204686301029
che,9493,Mauren,LI,9.543808486292786,47.22028381723761
che,9494,Schaan,LI,9.506298646660417,47.1731134184683
che,9495,Triesen,LI,9.530340725403047,47.106001352407425
che,9496,Balzers,LI,9.502347484238989,47.06527492879466
che,9497,Triesenberg,LI,9.543957719271463,47.11790272128857
che,9498,Planken,LI,9.545773015857812,47.18513492531911
che,9500,"Kirchberg (SG),Wil (SG)",SG,9.051531977780215,47.45374971845577
che,9502,Braunau,TG,9.07122120761076,47.503688036996174
che,9503,Bussnang,TG,9.09247565246779,47.52199879047243
che,9504,Bussnang,TG,9.085201497716499,47.538626023475494
che,9506,Lommis,TG,8.997950947699378,47.5169763109246
che,9507,Stettfurt,TG,8.95395838860172,47.524571913613435
che,9508,Lommis,TG,8.978968452333453,47.52316143413059
che,9512,Wil (SG),SG,9.06299583849328,47.47654168003375
che,9514,Wuppenau,TG,9.103464970575764,47.49530312986187
che,9515,Wuppenau,TG,9.122518195081,47.49035376974707
che,9517,Bussnang,TG,9.120333051264966,47.53293950191318
che,9523,Zuzwil (SG),SG,9.083843065947391,47.465981338649684
che,9524,Zuzwil (SG),SG,9.110172169402526,47.47568440505718
che,9525,Niederhelfenschwil,SG,9.149570391217496,47.475263911983006
che,9526,Niederhelfenschwil,SG,9.162652940107456,47.48433282102506
che,9527,Niederhelfenschwil,SG,9.187100802176463,47.47616257294671
che,9532,"Rickenbach (TG),Jonschwil","SG,TG",9.057608649667017,47.441644386369674
che,9533,Kirchberg (SG),SG,9.028982179629748,47.41627531777675
che,9534,Kirchberg (SG),SG,9.001969312982373,47.398291725137355
che,9535,Wilen (TG),TG,9.034366051307973,47.45157671779675
che,9536,Jonschwil,SG,9.076346982974083,47.44110147987402
che,9542,Münchwilen (TG),TG,8.999036690074583,47.47972204399947
che,9543,Münchwilen (TG),TG,9.001149255954727,47.48651110236374
che,9545,Wängi,TG,8.954423930411119,47.500812352148856
che,9546,Wängi,TG,8.938396336652705,47.48326825223658
che,9547,Aadorf,TG,8.925309967164852,47.50435382634346
che,9548,Matzingen,TG,8.932561020057706,47.52010955658052
che,9552,Wil (SG),SG,9.034271896954325,47.47584401574621
che,9553,Bettwiesen,TG,9.026730718478497,47.493998445597065
che,9554,Tobel-Tägerschen,TG,9.02950180025349,47.50694582393814
che,9555,Tobel-Tägerschen,TG,9.036509701165302,47.51480509039014
che,9556,Affeltrangen,TG,9.025516905245633,47.53041417107981
che,9562,Affeltrangen,TG,9.066145332485153,47.535051091626194
che,9565,Bussnang,TG,9.077493877122498,47.5503844025615
che,9573,Sirnach,TG,9.00873882645117,47.44073032219142
che,9601,Lütisburg,SG,9.071133161451208,47.384887232950256
che,9602,Kirchberg (SG),SG,9.055038083314628,47.40017516255218
che,9604,"Lütisburg,Jonschwil",SG,9.09826008403411,47.40424730681238
che,9606,Bütschwil-Ganterschwil,SG,9.06848710793328,47.3589788601449
che,9607,Mosnang,SG,9.03977841343982,47.362467271431214
che,9608,Bütschwil-Ganterschwil,SG,9.089882971820174,47.37834263596872
che,9612,Mosnang,SG,9.016855967626194,47.37184307231679
che,9613,Mosnang,SG,8.985872632175566,47.370639460557385
che,9614,Mosnang,SG,9.022302910473233,47.32889191791521
che,9615,Bütschwil-Ganterschwil,SG,9.078896195734174,47.34690243944075
che,9620,Lichtensteig,SG,9.088876964204236,47.32250890411321
che,9621,Oberhelfenschwil,SG,9.112060867402056,47.35618573587277
che,9622,Wattwil,SG,9.052415581311665,47.31727055296855
che,9630,Wattwil,SG,9.088564584785214,47.30430398042046
che,9631,Wattwil,SG,9.100927225673443,47.286244631706026
che,9633,Hemberg,SG,9.185441493074986,47.303052936669644
che,9642,Ebnat-Kappel,SG,9.120548660735103,47.26406307347905
che,9643,Nesslau,SG,9.173297361495315,47.246848202699496
che,9650,Nesslau,SG,9.200146539184107,47.22391577178812
che,9651,Nesslau,SG,9.211850106582164,47.240846427309506
che,9652,Nesslau,SG,9.19384330838317,47.22910446420894
che,9655,Nesslau,SG,9.228142488909665,47.19942198101141
che,9656,Wildhaus-Alt St. Johann,SG,9.280890694211974,47.193209722602404
che,9657,Wildhaus-Alt St. Johann,SG,9.308641958031068,47.19708772084905
che,9658,Wildhaus-Alt St. Johann,SG,9.350739549648765,47.20374611753532
che,9999,"Thunersee,Bielersee (BE),Brienzersee",BE,7.622770696328087,46.834591774430855
